{"type": "FeatureCollection", "properties": {"origin": "2026-09-24T15:00:00Z", "window_days": 30, "target_magnitude": 4.5, "model": "ETAS", "mode": "live", "fingerprint": {"method": "analytic-branching", "etas_params_sha256": "35958f30919b5e6ab7340baf05be24aae941dda95de831d3a23decfc8d843027", "catalog_sha256": "00eb8f8182a011a5e6cea37dded653f6ff0a0560730358f2a6da7d2bd97373d4", "catalog_last_event": "2026-09-24 14:48:20+00:00", "branching_nominal": 0.8209, "branching_effective": 0.8125, "commit": "943238267d5cd200548bcc6330c0e46803d75033", "worktree": "clean", "randomness": "none in the branching computation; the ETAS state EM step is SEEDED from the origin date"}, "min_times_normal": 2.0, "kapsam": {"izgara_hucre": 2560, "kapsam_disi_elenen": 1116, "sinir_kaynagi": "Natural Earth 10m admin-0 countries", "lisans": "Natural Earth — kamu malı (public domain)", "kaynak_sha256": "239eec57ac17f100a11e2536cffc56752c318b50ae765b0918ff7aab4ce8f255", "sinir_sha256": "6526abdc33181eedaafb4975d68732102d7805b0de5c5307401f15ec181a1e90", "tampon_derece": 0.125, "gerekce": "katalog tamlığı sınır dışında ölçülmüş biçimde düşüktür (küçük olayların ~%46'sı kayıtsız); temel oran düşük kestirildiği için 'normalin kaç katı' şişer -- V43"}, "cells_before_threshold": 1444, "cells_published": 133, "disclaimer": "Bu bir OLASILIK tahminidir, kesin deprem tahmini değildir. Belirli bir tarih, yer ve büyüklükte deprem olacağını öngörmez ve bilimsel olarak böyle bir öngörü mümkün değildir. Verilen değerler, belirtilen zaman penceresinde ilgili hücrede eşik büyüklüğün üzerinde deprem olma olasılığıdır. Yöntem ve sınırlılıklar: metodoloji.html"}, "features": [{"type": "Feature", "geometry": {"type": "Polygon", "coordinates": [[[35.75, 35.75], [36.0, 35.75], [36.0, 36.0], [35.75, 36.0], [35.75, 35.75]]]}, "properties": {"cell_id": 3043, "probability": 0.002702, "expected_events": 0.0027, "normal_probability": 0.001337, "times_normal": 2.0}}, {"type": "Feature", "geometry": {"type": "Polygon", "coordinates": [[[36.0, 35.75], [36.25, 35.75], [36.25, 36.0], [36.0, 36.0], [36.0, 35.75]]]}, "properties": {"cell_id": 3044, "probability": 0.002507, "expected_events": 0.0025, "normal_probability": 0.001246, "times_normal": 2.0}}, {"type": "Feature", "geometry": {"type": "Polygon", "coordinates": [[[33.0, 36.0], [33.25, 36.0], [33.25, 36.25], [33.0, 36.25], [33.0, 36.0]]]}, "properties": {"cell_id": 4032, "probability": 0.000316, "expected_events": 0.0003, "normal_probability": 0.000102, "times_normal": 3.1}}, {"type": "Feature", "geometry": {"type": "Polygon", "coordinates": [[[35.75, 36.0], [36.0, 36.0], [36.0, 36.25], [35.75, 36.25], [35.75, 36.0]]]}, "properties": {"cell_id": 4043, "probability": 0.007647, "expected_events": 0.0077, "normal_probability": 0.002151, "times_normal": 3.6}}, {"type": "Feature", "geometry": {"type": "Polygon", "coordinates": [[[36.0, 36.0], [36.25, 36.0], [36.25, 36.25], [36.0, 36.25], [36.0, 36.0]]]}, "properties": {"cell_id": 4044, "probability": 0.008085, "expected_events": 0.0081, "normal_probability": 0.001979, "times_normal": 4.1}}, {"type": "Feature", "geometry": {"type": "Polygon", "coordinates": [[[33.0, 36.25], [33.25, 36.25], [33.25, 36.5], [33.0, 36.5], [33.0, 36.25]]]}, "properties": {"cell_id": 5032, "probability": 0.000333, "expected_events": 0.0003, "normal_probability": 4.3e-05, "times_normal": 7.8}}, {"type": "Feature", "geometry": {"type": "Polygon", "coordinates": [[[36.0, 36.25], [36.25, 36.25], [36.25, 36.5], [36.0, 36.5], [36.0, 36.25]]]}, "properties": {"cell_id": 5044, "probability": 0.004352, "expected_events": 0.0044, "normal_probability": 0.001777, "times_normal": 2.4}}, {"type": "Feature", "geometry": {"type": "Polygon", "coordinates": [[[36.25, 36.25], [36.5, 36.25], [36.5, 36.5], [36.25, 36.5], [36.25, 36.25]]]}, "properties": {"cell_id": 5045, "probability": 0.003084, "expected_events": 0.0031, "normal_probability": 0.001158, "times_normal": 2.7}}, {"type": "Feature", "geometry": {"type": "Polygon", "coordinates": [[[33.0, 36.5], [33.25, 36.5], [33.25, 36.75], [33.0, 36.75], [33.0, 36.5]]]}, "properties": {"cell_id": 6032, "probability": 0.000328, "expected_events": 0.0003, "normal_probability": 9.1e-05, "times_normal": 3.6}}, {"type": "Feature", "geometry": {"type": "Polygon", "coordinates": [[[34.0, 36.5], [34.25, 36.5], [34.25, 36.75], [34.0, 36.75], [34.0, 36.5]]]}, "properties": {"cell_id": 6036, "probability": 0.001211, "expected_events": 0.0012, "normal_probability": 0.000541, "times_normal": 2.2}}, {"type": "Feature", "geometry": {"type": "Polygon", "coordinates": [[[36.25, 36.5], [36.5, 36.5], [36.5, 36.75], [36.25, 36.75], [36.25, 36.5]]]}, "properties": {"cell_id": 6045, "probability": 0.004156, "expected_events": 0.0042, "normal_probability": 0.001282, "times_normal": 3.2}}, {"type": "Feature", "geometry": {"type": "Polygon", "coordinates": [[[36.5, 36.75], [36.75, 36.75], [36.75, 37.0], [36.5, 37.0], [36.5, 36.75]]]}, "properties": {"cell_id": 7046, "probability": 0.00427, "expected_events": 0.0043, "normal_probability": 0.001596, "times_normal": 2.7}}, {"type": "Feature", "geometry": {"type": "Polygon", "coordinates": [[[36.75, 36.75], [37.0, 36.75], [37.0, 37.0], [36.75, 37.0], [36.75, 36.75]]]}, "properties": {"cell_id": 7047, "probability": 0.003961, "expected_events": 0.004, "normal_probability": 0.001559, "times_normal": 2.5}}, {"type": "Feature", "geometry": {"type": "Polygon", "coordinates": [[[37.0, 36.75], [37.25, 36.75], [37.25, 37.0], [37.0, 37.0], [37.0, 36.75]]]}, "properties": {"cell_id": 7048, "probability": 0.003635, "expected_events": 0.0036, "normal_probability": 0.001534, "times_normal": 2.4}}, {"type": "Feature", "geometry": {"type": "Polygon", "coordinates": [[[39.5, 36.75], [39.75, 36.75], [39.75, 37.0], [39.5, 37.0], [39.5, 36.75]]]}, "properties": {"cell_id": 7058, "probability": 0.000327, "expected_events": 0.0003, "normal_probability": 0.000163, "times_normal": 2.0}}, {"type": "Feature", "geometry": {"type": "Polygon", "coordinates": [[[36.5, 37.0], [36.75, 37.0], [36.75, 37.25], [36.5, 37.25], [36.5, 37.0]]]}, "properties": {"cell_id": 8046, "probability": 0.012038, "expected_events": 0.0121, "normal_probability": 0.00286, "times_normal": 4.2}}, {"type": "Feature", "geometry": {"type": "Polygon", "coordinates": [[[36.75, 37.0], [37.0, 37.0], [37.0, 37.25], [36.75, 37.25], [36.75, 37.0]]]}, "properties": {"cell_id": 8047, "probability": 0.030749, "expected_events": 0.0312, "normal_probability": 0.003349, "times_normal": 9.2}}, {"type": "Feature", "geometry": {"type": "Polygon", "coordinates": [[[37.0, 37.0], [37.25, 37.0], [37.25, 37.25], [37.0, 37.25], [37.0, 37.0]]]}, "properties": {"cell_id": 8048, "probability": 0.024029, "expected_events": 0.0243, "normal_probability": 0.003953, "times_normal": 6.1}}, {"type": "Feature", "geometry": {"type": "Polygon", "coordinates": [[[37.25, 37.0], [37.5, 37.0], [37.5, 37.25], [37.25, 37.25], [37.25, 37.0]]]}, "properties": {"cell_id": 8049, "probability": 0.007521, "expected_events": 0.0075, "normal_probability": 0.002978, "times_normal": 2.5}}, {"type": "Feature", "geometry": {"type": "Polygon", "coordinates": [[[38.5, 37.0], [38.75, 37.0], [38.75, 37.25], [38.5, 37.25], [38.5, 37.0]]]}, "properties": {"cell_id": 8054, "probability": 0.004336, "expected_events": 0.0043, "normal_probability": 0.001248, "times_normal": 3.5}}, {"type": "Feature", "geometry": {"type": "Polygon", "coordinates": [[[38.75, 37.0], [39.0, 37.0], [39.0, 37.25], [38.75, 37.25], [38.75, 37.0]]]}, "properties": {"cell_id": 8055, "probability": 0.010713, "expected_events": 0.0108, "normal_probability": 0.001213, "times_normal": 8.8}}, {"type": "Feature", "geometry": {"type": "Polygon", "coordinates": [[[39.0, 37.0], [39.25, 37.0], [39.25, 37.25], [39.0, 37.25], [39.0, 37.0]]]}, "properties": {"cell_id": 8056, "probability": 0.004016, "expected_events": 0.004, "normal_probability": 0.000792, "times_normal": 5.1}}, {"type": "Feature", "geometry": {"type": "Polygon", "coordinates": [[[39.25, 37.0], [39.5, 37.0], [39.5, 37.25], [39.25, 37.25], [39.25, 37.0]]]}, "properties": {"cell_id": 8057, "probability": 0.000894, "expected_events": 0.0009, "normal_probability": 0.000393, "times_normal": 2.3}}, {"type": "Feature", "geometry": {"type": "Polygon", "coordinates": [[[39.5, 37.0], [39.75, 37.0], [39.75, 37.25], [39.5, 37.25], [39.5, 37.0]]]}, "properties": {"cell_id": 8058, "probability": 0.000386, "expected_events": 0.0004, "normal_probability": 0.000171, "times_normal": 2.3}}, {"type": "Feature", "geometry": {"type": "Polygon", "coordinates": [[[39.75, 37.0], [40.0, 37.0], [40.0, 37.25], [39.75, 37.25], [39.75, 37.0]]]}, "properties": {"cell_id": 8059, "probability": 0.000321, "expected_events": 0.0003, "normal_probability": 9.3e-05, "times_normal": 3.4}}, {"type": "Feature", "geometry": {"type": "Polygon", "coordinates": [[[40.25, 37.0], [40.5, 37.0], [40.5, 37.25], [40.25, 37.25], [40.25, 37.0]]]}, "properties": {"cell_id": 8061, "probability": 0.000311, "expected_events": 0.0003, "normal_probability": 0.000124, "times_normal": 2.5}}, {"type": "Feature", "geometry": {"type": "Polygon", "coordinates": [[[40.75, 37.0], [41.0, 37.0], [41.0, 37.25], [40.75, 37.25], [40.75, 37.0]]]}, "properties": {"cell_id": 8063, "probability": 0.000311, "expected_events": 0.0003, "normal_probability": 0.000125, "times_normal": 2.5}}, {"type": "Feature", "geometry": {"type": "Polygon", "coordinates": [[[41.25, 37.0], [41.5, 37.0], [41.5, 37.25], [41.25, 37.25], [41.25, 37.0]]]}, "properties": {"cell_id": 8065, "probability": 0.000318, "expected_events": 0.0003, "normal_probability": 0.000109, "times_normal": 2.9}}, {"type": "Feature", "geometry": {"type": "Polygon", "coordinates": [[[33.25, 37.25], [33.5, 37.25], [33.5, 37.5], [33.25, 37.5], [33.25, 37.25]]]}, "properties": {"cell_id": 9033, "probability": 0.000312, "expected_events": 0.0003, "normal_probability": 0.00011, "times_normal": 2.8}}, {"type": "Feature", "geometry": {"type": "Polygon", "coordinates": [[[33.5, 37.25], [33.75, 37.25], [33.75, 37.5], [33.5, 37.5], [33.5, 37.25]]]}, "properties": {"cell_id": 9034, "probability": 0.000357, "expected_events": 0.0004, "normal_probability": 8.1e-05, "times_normal": 4.4}}, {"type": "Feature", "geometry": {"type": "Polygon", "coordinates": [[[33.75, 37.25], [34.0, 37.25], [34.0, 37.5], [33.75, 37.5], [33.75, 37.25]]]}, "properties": {"cell_id": 9035, "probability": 0.000333, "expected_events": 0.0003, "normal_probability": 0.000109, "times_normal": 3.0}}, {"type": "Feature", "geometry": {"type": "Polygon", "coordinates": [[[34.25, 37.25], [34.5, 37.25], [34.5, 37.5], [34.25, 37.5], [34.25, 37.25]]]}, "properties": {"cell_id": 9037, "probability": 0.001016, "expected_events": 0.001, "normal_probability": 0.000389, "times_normal": 2.6}}, {"type": "Feature", "geometry": {"type": "Polygon", "coordinates": [[[36.5, 37.25], [36.75, 37.25], [36.75, 37.5], [36.5, 37.5], [36.5, 37.25]]]}, "properties": {"cell_id": 9046, "probability": 0.008199, "expected_events": 0.0082, "normal_probability": 0.003311, "times_normal": 2.5}}, {"type": "Feature", "geometry": {"type": "Polygon", "coordinates": [[[36.75, 37.25], [37.0, 37.25], [37.0, 37.5], [36.75, 37.5], [36.75, 37.25]]]}, "properties": {"cell_id": 9047, "probability": 0.030663, "expected_events": 0.0311, "normal_probability": 0.003736, "times_normal": 8.2}}, {"type": "Feature", "geometry": {"type": "Polygon", "coordinates": [[[37.0, 37.25], [37.25, 37.25], [37.25, 37.5], [37.0, 37.5], [37.0, 37.25]]]}, "properties": {"cell_id": 9048, "probability": 0.034339, "expected_events": 0.0349, "normal_probability": 0.004588, "times_normal": 7.5}}, {"type": "Feature", "geometry": {"type": "Polygon", "coordinates": [[[37.25, 37.25], [37.5, 37.25], [37.5, 37.5], [37.25, 37.5], [37.25, 37.25]]]}, "properties": {"cell_id": 9049, "probability": 0.010489, "expected_events": 0.0105, "normal_probability": 0.003554, "times_normal": 3.0}}, {"type": "Feature", "geometry": {"type": "Polygon", "coordinates": [[[38.5, 37.25], [38.75, 37.25], [38.75, 37.5], [38.5, 37.5], [38.5, 37.25]]]}, "properties": {"cell_id": 9054, "probability": 0.037248, "expected_events": 0.038, "normal_probability": 0.002141, "times_normal": 17.4}}, {"type": "Feature", "geometry": {"type": "Polygon", "coordinates": [[[38.75, 37.25], [39.0, 37.25], [39.0, 37.5], [38.75, 37.5], [38.75, 37.25]]]}, "properties": {"cell_id": 9055, "probability": 0.167456, "expected_events": 0.1833, "normal_probability": 0.001723, "times_normal": 97.2}}, {"type": "Feature", "geometry": {"type": "Polygon", "coordinates": [[[39.0, 37.25], [39.25, 37.25], [39.25, 37.5], [39.0, 37.5], [39.0, 37.25]]]}, "properties": {"cell_id": 9056, "probability": 0.031859, "expected_events": 0.0324, "normal_probability": 0.000862, "times_normal": 37.0}}, {"type": "Feature", "geometry": {"type": "Polygon", "coordinates": [[[39.25, 37.25], [39.5, 37.25], [39.5, 37.5], [39.25, 37.5], [39.25, 37.25]]]}, "properties": {"cell_id": 9057, "probability": 0.0025, "expected_events": 0.0025, "normal_probability": 0.000333, "times_normal": 7.5}}, {"type": "Feature", "geometry": {"type": "Polygon", "coordinates": [[[40.25, 37.25], [40.5, 37.25], [40.5, 37.5], [40.25, 37.5], [40.25, 37.25]]]}, "properties": {"cell_id": 9061, "probability": 0.00031, "expected_events": 0.0003, "normal_probability": 7.5e-05, "times_normal": 4.1}}, {"type": "Feature", "geometry": {"type": "Polygon", "coordinates": [[[40.5, 37.25], [40.75, 37.25], [40.75, 37.5], [40.5, 37.5], [40.5, 37.25]]]}, "properties": {"cell_id": 9062, "probability": 0.00031, "expected_events": 0.0003, "normal_probability": 0.000106, "times_normal": 2.9}}, {"type": "Feature", "geometry": {"type": "Polygon", "coordinates": [[[40.75, 37.25], [41.0, 37.25], [41.0, 37.5], [40.75, 37.5], [40.75, 37.25]]]}, "properties": {"cell_id": 9063, "probability": 0.00031, "expected_events": 0.0003, "normal_probability": 0.000114, "times_normal": 2.7}}, {"type": "Feature", "geometry": {"type": "Polygon", "coordinates": [[[41.75, 37.25], [42.0, 37.25], [42.0, 37.5], [41.75, 37.5], [41.75, 37.25]]]}, "properties": {"cell_id": 9067, "probability": 0.000816, "expected_events": 0.0008, "normal_probability": 0.000291, "times_normal": 2.8}}, {"type": "Feature", "geometry": {"type": "Polygon", "coordinates": [[[33.0, 37.5], [33.25, 37.5], [33.25, 37.75], [33.0, 37.75], [33.0, 37.5]]]}, "properties": {"cell_id": 10032, "probability": 0.000315, "expected_events": 0.0003, "normal_probability": 0.000136, "times_normal": 2.3}}, {"type": "Feature", "geometry": {"type": "Polygon", "coordinates": [[[33.25, 37.5], [33.5, 37.5], [33.5, 37.75], [33.25, 37.75], [33.25, 37.5]]]}, "properties": {"cell_id": 10033, "probability": 0.000318, "expected_events": 0.0003, "normal_probability": 0.000119, "times_normal": 2.7}}, {"type": "Feature", "geometry": {"type": "Polygon", "coordinates": [[[36.0, 37.5], [36.25, 37.5], [36.25, 37.75], [36.0, 37.75], [36.0, 37.5]]]}, "properties": {"cell_id": 10044, "probability": 0.012956, "expected_events": 0.013, "normal_probability": 0.004002, "times_normal": 3.2}}, {"type": "Feature", "geometry": {"type": "Polygon", "coordinates": [[[36.75, 37.5], [37.0, 37.5], [37.0, 37.75], [36.75, 37.75], [36.75, 37.5]]]}, "properties": {"cell_id": 10047, "probability": 0.006512, "expected_events": 0.0065, "normal_probability": 0.002027, "times_normal": 3.2}}, {"type": "Feature", "geometry": {"type": "Polygon", "coordinates": [[[37.0, 37.5], [37.25, 37.5], [37.25, 37.75], [37.0, 37.75], [37.0, 37.5]]]}, "properties": {"cell_id": 10048, "probability": 0.011333, "expected_events": 0.0114, "normal_probability": 0.002409, "times_normal": 4.7}}, {"type": "Feature", "geometry": {"type": "Polygon", "coordinates": [[[37.25, 37.5], [37.5, 37.5], [37.5, 37.75], [37.25, 37.75], [37.25, 37.5]]]}, "properties": {"cell_id": 10049, "probability": 0.007993, "expected_events": 0.008, "normal_probability": 0.002192, "times_normal": 3.6}}, {"type": "Feature", "geometry": {"type": "Polygon", "coordinates": [[[38.5, 37.5], [38.75, 37.5], [38.75, 37.75], [38.5, 37.75], [38.5, 37.5]]]}, "properties": {"cell_id": 10054, "probability": 0.01132, "expected_events": 0.0114, "normal_probability": 0.002295, "times_normal": 4.9}}, {"type": "Feature", "geometry": {"type": "Polygon", "coordinates": [[[38.75, 37.5], [39.0, 37.5], [39.0, 37.75], [38.75, 37.75], [38.75, 37.5]]]}, "properties": {"cell_id": 10055, "probability": 0.039653, "expected_events": 0.0405, "normal_probability": 0.001722, "times_normal": 23.0}}, {"type": "Feature", "geometry": {"type": "Polygon", "coordinates": [[[39.0, 37.5], [39.25, 37.5], [39.25, 37.75], [39.0, 37.75], [39.0, 37.5]]]}, "properties": {"cell_id": 10056, "probability": 0.009952, "expected_events": 0.01, "normal_probability": 0.000852, "times_normal": 11.7}}, {"type": "Feature", "geometry": {"type": "Polygon", "coordinates": [[[40.5, 37.5], [40.75, 37.5], [40.75, 37.75], [40.5, 37.75], [40.5, 37.5]]]}, "properties": {"cell_id": 10062, "probability": 0.000309, "expected_events": 0.0003, "normal_probability": 9.4e-05, "times_normal": 3.3}}, {"type": "Feature", "geometry": {"type": "Polygon", "coordinates": [[[40.75, 37.5], [41.0, 37.5], [41.0, 37.75], [40.75, 37.75], [40.75, 37.5]]]}, "properties": {"cell_id": 10063, "probability": 0.000309, "expected_events": 0.0003, "normal_probability": 0.000132, "times_normal": 2.3}}, {"type": "Feature", "geometry": {"type": "Polygon", "coordinates": [[[33.0, 37.75], [33.25, 37.75], [33.25, 38.0], [33.0, 38.0], [33.0, 37.75]]]}, "properties": {"cell_id": 11032, "probability": 0.000356, "expected_events": 0.0004, "normal_probability": 0.00016, "times_normal": 2.2}}, {"type": "Feature", "geometry": {"type": "Polygon", "coordinates": [[[33.25, 37.75], [33.5, 37.75], [33.5, 38.0], [33.25, 38.0], [33.25, 37.75]]]}, "properties": {"cell_id": 11033, "probability": 0.000384, "expected_events": 0.0004, "normal_probability": 0.000174, "times_normal": 2.2}}, {"type": "Feature", "geometry": {"type": "Polygon", "coordinates": [[[35.75, 37.75], [36.0, 37.75], [36.0, 38.0], [35.75, 38.0], [35.75, 37.75]]]}, "properties": {"cell_id": 11043, "probability": 0.00471, "expected_events": 0.0047, "normal_probability": 0.001602, "times_normal": 2.9}}, {"type": "Feature", "geometry": {"type": "Polygon", "coordinates": [[[36.0, 37.75], [36.25, 37.75], [36.25, 38.0], [36.0, 38.0], [36.0, 37.75]]]}, "properties": {"cell_id": 11044, "probability": 0.047785, "expected_events": 0.049, "normal_probability": 0.001828, "times_normal": 26.1}}, {"type": "Feature", "geometry": {"type": "Polygon", "coordinates": [[[36.25, 37.75], [36.5, 37.75], [36.5, 38.0], [36.25, 38.0], [36.25, 37.75]]]}, "properties": {"cell_id": 11045, "probability": 0.035299, "expected_events": 0.0359, "normal_probability": 0.001673, "times_normal": 21.1}}, {"type": "Feature", "geometry": {"type": "Polygon", "coordinates": [[[36.5, 37.75], [36.75, 37.75], [36.75, 38.0], [36.5, 38.0], [36.5, 37.75]]]}, "properties": {"cell_id": 11046, "probability": 0.013818, "expected_events": 0.0139, "normal_probability": 0.001187, "times_normal": 11.6}}, {"type": "Feature", "geometry": {"type": "Polygon", "coordinates": [[[36.75, 37.75], [37.0, 37.75], [37.0, 38.0], [36.75, 38.0], [36.75, 37.75]]]}, "properties": {"cell_id": 11047, "probability": 0.006465, "expected_events": 0.0065, "normal_probability": 0.000934, "times_normal": 6.9}}, {"type": "Feature", "geometry": {"type": "Polygon", "coordinates": [[[37.0, 37.75], [37.25, 37.75], [37.25, 38.0], [37.0, 38.0], [37.0, 37.75]]]}, "properties": {"cell_id": 11048, "probability": 0.013271, "expected_events": 0.0134, "normal_probability": 0.001051, "times_normal": 12.6}}, {"type": "Feature", "geometry": {"type": "Polygon", "coordinates": [[[37.25, 37.75], [37.5, 37.75], [37.5, 38.0], [37.25, 38.0], [37.25, 37.75]]]}, "properties": {"cell_id": 11049, "probability": 0.0162, "expected_events": 0.0163, "normal_probability": 0.001227, "times_normal": 13.2}}, {"type": "Feature", "geometry": {"type": "Polygon", "coordinates": [[[37.5, 37.75], [37.75, 37.75], [37.75, 38.0], [37.5, 38.0], [37.5, 37.75]]]}, "properties": {"cell_id": 11050, "probability": 0.012861, "expected_events": 0.0129, "normal_probability": 0.001364, "times_normal": 9.4}}, {"type": "Feature", "geometry": {"type": "Polygon", "coordinates": [[[37.75, 37.75], [38.0, 37.75], [38.0, 38.0], [37.75, 38.0], [37.75, 37.75]]]}, "properties": {"cell_id": 11051, "probability": 0.006246, "expected_events": 0.0063, "normal_probability": 0.001613, "times_normal": 3.9}}, {"type": "Feature", "geometry": {"type": "Polygon", "coordinates": [[[32.5, 38.0], [32.75, 38.0], [32.75, 38.25], [32.5, 38.25], [32.5, 38.0]]]}, "properties": {"cell_id": 12030, "probability": 0.001012, "expected_events": 0.001, "normal_probability": 0.000382, "times_normal": 2.7}}, {"type": "Feature", "geometry": {"type": "Polygon", "coordinates": [[[33.0, 38.0], [33.25, 38.0], [33.25, 38.25], [33.0, 38.25], [33.0, 38.0]]]}, "properties": {"cell_id": 12032, "probability": 0.000315, "expected_events": 0.0003, "normal_probability": 0.000151, "times_normal": 2.1}}, {"type": "Feature", "geometry": {"type": "Polygon", "coordinates": [[[36.0, 38.0], [36.25, 38.0], [36.25, 38.25], [36.0, 38.25], [36.0, 38.0]]]}, "properties": {"cell_id": 12044, "probability": 0.004309, "expected_events": 0.0043, "normal_probability": 0.000551, "times_normal": 7.8}}, {"type": "Feature", "geometry": {"type": "Polygon", "coordinates": [[[36.25, 38.0], [36.5, 38.0], [36.5, 38.25], [36.25, 38.25], [36.25, 38.0]]]}, "properties": {"cell_id": 12045, "probability": 0.014707, "expected_events": 0.0148, "normal_probability": 0.0006, "times_normal": 24.5}}, {"type": "Feature", "geometry": {"type": "Polygon", "coordinates": [[[36.5, 38.0], [36.75, 38.0], [36.75, 38.25], [36.5, 38.25], [36.5, 38.0]]]}, "properties": {"cell_id": 12046, "probability": 0.017428, "expected_events": 0.0176, "normal_probability": 0.000557, "times_normal": 31.3}}, {"type": "Feature", "geometry": {"type": "Polygon", "coordinates": [[[36.75, 38.0], [37.0, 38.0], [37.0, 38.25], [36.75, 38.25], [36.75, 38.0]]]}, "properties": {"cell_id": 12047, "probability": 0.012417, "expected_events": 0.0125, "normal_probability": 0.000539, "times_normal": 23.0}}, {"type": "Feature", "geometry": {"type": "Polygon", "coordinates": [[[37.0, 38.0], [37.25, 38.0], [37.25, 38.25], [37.0, 38.25], [37.0, 38.0]]]}, "properties": {"cell_id": 12048, "probability": 0.025757, "expected_events": 0.0261, "normal_probability": 0.000616, "times_normal": 41.8}}, {"type": "Feature", "geometry": {"type": "Polygon", "coordinates": [[[37.25, 38.0], [37.5, 38.0], [37.5, 38.25], [37.25, 38.25], [37.25, 38.0]]]}, "properties": {"cell_id": 12049, "probability": 0.026935, "expected_events": 0.0273, "normal_probability": 0.000742, "times_normal": 36.3}}, {"type": "Feature", "geometry": {"type": "Polygon", "coordinates": [[[37.5, 38.0], [37.75, 38.0], [37.75, 38.25], [37.5, 38.25], [37.5, 38.0]]]}, "properties": {"cell_id": 12050, "probability": 0.015661, "expected_events": 0.0158, "normal_probability": 0.00094, "times_normal": 16.7}}, {"type": "Feature", "geometry": {"type": "Polygon", "coordinates": [[[37.75, 38.0], [38.0, 38.0], [38.0, 38.25], [37.75, 38.25], [37.75, 38.0]]]}, "properties": {"cell_id": 12051, "probability": 0.012614, "expected_events": 0.0127, "normal_probability": 0.001284, "times_normal": 9.8}}, {"type": "Feature", "geometry": {"type": "Polygon", "coordinates": [[[38.0, 38.0], [38.25, 38.0], [38.25, 38.25], [38.0, 38.25], [38.0, 38.0]]]}, "properties": {"cell_id": 12052, "probability": 0.012134, "expected_events": 0.0122, "normal_probability": 0.001817, "times_normal": 6.7}}, {"type": "Feature", "geometry": {"type": "Polygon", "coordinates": [[[38.25, 38.0], [38.5, 38.0], [38.5, 38.25], [38.25, 38.25], [38.25, 38.0]]]}, "properties": {"cell_id": 12053, "probability": 0.025539, "expected_events": 0.0259, "normal_probability": 0.00271, "times_normal": 9.4}}, {"type": "Feature", "geometry": {"type": "Polygon", "coordinates": [[[38.5, 38.0], [38.75, 38.0], [38.75, 38.25], [38.5, 38.25], [38.5, 38.0]]]}, "properties": {"cell_id": 12054, "probability": 0.028747, "expected_events": 0.0292, "normal_probability": 0.003969, "times_normal": 7.2}}, {"type": "Feature", "geometry": {"type": "Polygon", "coordinates": [[[33.0, 38.25], [33.25, 38.25], [33.25, 38.5], [33.0, 38.5], [33.0, 38.25]]]}, "properties": {"cell_id": 13032, "probability": 0.000435, "expected_events": 0.0004, "normal_probability": 0.000182, "times_normal": 2.4}}, {"type": "Feature", "geometry": {"type": "Polygon", "coordinates": [[[36.0, 38.25], [36.25, 38.25], [36.25, 38.5], [36.0, 38.5], [36.0, 38.25]]]}, "properties": {"cell_id": 13044, "probability": 0.000636, "expected_events": 0.0006, "normal_probability": 0.000297, "times_normal": 2.1}}, {"type": "Feature", "geometry": {"type": "Polygon", "coordinates": [[[36.25, 38.25], [36.5, 38.25], [36.5, 38.5], [36.25, 38.5], [36.25, 38.25]]]}, "properties": {"cell_id": 13045, "probability": 0.001422, "expected_events": 0.0014, "normal_probability": 0.000364, "times_normal": 3.9}}, {"type": "Feature", "geometry": {"type": "Polygon", "coordinates": [[[36.5, 38.25], [36.75, 38.25], [36.75, 38.5], [36.5, 38.5], [36.5, 38.25]]]}, "properties": {"cell_id": 13046, "probability": 0.001956, "expected_events": 0.002, "normal_probability": 0.000433, "times_normal": 4.5}}, {"type": "Feature", "geometry": {"type": "Polygon", "coordinates": [[[36.75, 38.25], [37.0, 38.25], [37.0, 38.5], [36.75, 38.5], [36.75, 38.25]]]}, "properties": {"cell_id": 13047, "probability": 0.003071, "expected_events": 0.0031, "normal_probability": 0.000488, "times_normal": 6.3}}, {"type": "Feature", "geometry": {"type": "Polygon", "coordinates": [[[37.0, 38.25], [37.25, 38.25], [37.25, 38.5], [37.0, 38.5], [37.0, 38.25]]]}, "properties": {"cell_id": 13048, "probability": 0.006704, "expected_events": 0.0067, "normal_probability": 0.000563, "times_normal": 11.9}}, {"type": "Feature", "geometry": {"type": "Polygon", "coordinates": [[[37.25, 38.25], [37.5, 38.25], [37.5, 38.5], [37.25, 38.5], [37.25, 38.25]]]}, "properties": {"cell_id": 13049, "probability": 0.007481, "expected_events": 0.0075, "normal_probability": 0.000615, "times_normal": 12.2}}, {"type": "Feature", "geometry": {"type": "Polygon", "coordinates": [[[37.5, 38.25], [37.75, 38.25], [37.75, 38.5], [37.5, 38.5], [37.5, 38.25]]]}, "properties": {"cell_id": 13050, "probability": 0.004546, "expected_events": 0.0046, "normal_probability": 0.00063, "times_normal": 7.2}}, {"type": "Feature", "geometry": {"type": "Polygon", "coordinates": [[[37.75, 38.25], [38.0, 38.25], [38.0, 38.5], [37.75, 38.5], [37.75, 38.25]]]}, "properties": {"cell_id": 13051, "probability": 0.005883, "expected_events": 0.0059, "normal_probability": 0.000716, "times_normal": 8.2}}, {"type": "Feature", "geometry": {"type": "Polygon", "coordinates": [[[38.0, 38.25], [38.25, 38.25], [38.25, 38.5], [38.0, 38.5], [38.0, 38.25]]]}, "properties": {"cell_id": 13052, "probability": 0.010299, "expected_events": 0.0104, "normal_probability": 0.001053, "times_normal": 9.8}}, {"type": "Feature", "geometry": {"type": "Polygon", "coordinates": [[[38.25, 38.25], [38.5, 38.25], [38.5, 38.5], [38.25, 38.5], [38.25, 38.25]]]}, "properties": {"cell_id": 13053, "probability": 0.014148, "expected_events": 0.0142, "normal_probability": 0.001949, "times_normal": 7.3}}, {"type": "Feature", "geometry": {"type": "Polygon", "coordinates": [[[38.5, 38.25], [38.75, 38.25], [38.75, 38.5], [38.5, 38.5], [38.5, 38.25]]]}, "properties": {"cell_id": 13054, "probability": 0.022424, "expected_events": 0.0227, "normal_probability": 0.003768, "times_normal": 6.0}}, {"type": "Feature", "geometry": {"type": "Polygon", "coordinates": [[[38.75, 38.25], [39.0, 38.25], [39.0, 38.5], [38.75, 38.5], [38.75, 38.25]]]}, "properties": {"cell_id": 13055, "probability": 0.013057, "expected_events": 0.0131, "normal_probability": 0.006346, "times_normal": 2.1}}, {"type": "Feature", "geometry": {"type": "Polygon", "coordinates": [[[36.25, 38.5], [36.5, 38.5], [36.5, 38.75], [36.25, 38.75], [36.25, 38.5]]]}, "properties": {"cell_id": 14045, "probability": 0.001648, "expected_events": 0.0016, "normal_probability": 0.000356, "times_normal": 4.6}}, {"type": "Feature", "geometry": {"type": "Polygon", "coordinates": [[[36.5, 38.5], [36.75, 38.5], [36.75, 38.75], [36.5, 38.75], [36.5, 38.5]]]}, "properties": {"cell_id": 14046, "probability": 0.003075, "expected_events": 0.0031, "normal_probability": 0.000408, "times_normal": 7.5}}, {"type": "Feature", "geometry": {"type": "Polygon", "coordinates": [[[37.0, 38.5], [37.25, 38.5], [37.25, 38.75], [37.0, 38.75], [37.0, 38.5]]]}, "properties": {"cell_id": 14048, "probability": 0.001149, "expected_events": 0.0012, "normal_probability": 0.00057, "times_normal": 2.0}}, {"type": "Feature", "geometry": {"type": "Polygon", "coordinates": [[[37.25, 38.5], [37.5, 38.5], [37.5, 38.75], [37.25, 38.75], [37.25, 38.5]]]}, "properties": {"cell_id": 14049, "probability": 0.00148, "expected_events": 0.0015, "normal_probability": 0.000613, "times_normal": 2.4}}, {"type": "Feature", "geometry": {"type": "Polygon", "coordinates": [[[36.25, 38.75], [36.5, 38.75], [36.5, 39.0], [36.25, 39.0], [36.25, 38.75]]]}, "properties": {"cell_id": 15045, "probability": 0.001368, "expected_events": 0.0014, "normal_probability": 0.000509, "times_normal": 2.7}}, {"type": "Feature", "geometry": {"type": "Polygon", "coordinates": [[[36.5, 38.75], [36.75, 38.75], [36.75, 39.0], [36.5, 39.0], [36.5, 38.75]]]}, "properties": {"cell_id": 15046, "probability": 0.003084, "expected_events": 0.0031, "normal_probability": 0.000423, "times_normal": 7.3}}, {"type": "Feature", "geometry": {"type": "Polygon", "coordinates": [[[37.25, 38.75], [37.5, 38.75], [37.5, 39.0], [37.25, 39.0], [37.25, 38.75]]]}, "properties": {"cell_id": 15049, "probability": 0.002098, "expected_events": 0.0021, "normal_probability": 0.000604, "times_normal": 3.5}}, {"type": "Feature", "geometry": {"type": "Polygon", "coordinates": [[[28.0, 39.0], [28.25, 39.0], [28.25, 39.25], [28.0, 39.25], [28.0, 39.0]]]}, "properties": {"cell_id": 16012, "probability": 0.074205, "expected_events": 0.0771, "normal_probability": 0.007782, "times_normal": 9.5}}, {"type": "Feature", "geometry": {"type": "Polygon", "coordinates": [[[28.25, 39.0], [28.5, 39.0], [28.5, 39.25], [28.25, 39.25], [28.25, 39.0]]]}, "properties": {"cell_id": 16013, "probability": 0.041079, "expected_events": 0.0419, "normal_probability": 0.005196, "times_normal": 7.9}}, {"type": "Feature", "geometry": {"type": "Polygon", "coordinates": [[[28.0, 39.25], [28.25, 39.25], [28.25, 39.5], [28.0, 39.5], [28.0, 39.25]]]}, "properties": {"cell_id": 17012, "probability": 0.0294, "expected_events": 0.0298, "normal_probability": 0.00784, "times_normal": 3.8}}, {"type": "Feature", "geometry": {"type": "Polygon", "coordinates": [[[28.25, 39.25], [28.5, 39.25], [28.5, 39.5], [28.25, 39.5], [28.25, 39.25]]]}, "properties": {"cell_id": 17013, "probability": 0.010877, "expected_events": 0.0109, "normal_probability": 0.005419, "times_normal": 2.0}}, {"type": "Feature", "geometry": {"type": "Polygon", "coordinates": [[[35.75, 40.0], [36.0, 40.0], [36.0, 40.25], [35.75, 40.25], [35.75, 40.0]]]}, "properties": {"cell_id": 20043, "probability": 0.002467, "expected_events": 0.0025, "normal_probability": 0.000818, "times_normal": 3.0}}, {"type": "Feature", "geometry": {"type": "Polygon", "coordinates": [[[36.0, 40.0], [36.25, 40.0], [36.25, 40.25], [36.0, 40.25], [36.0, 40.0]]]}, "properties": {"cell_id": 20044, "probability": 0.001768, "expected_events": 0.0018, "normal_probability": 0.000627, "times_normal": 2.8}}, {"type": "Feature", "geometry": {"type": "Polygon", "coordinates": [[[36.5, 40.5], [36.75, 40.5], [36.75, 40.75], [36.5, 40.75], [36.5, 40.5]]]}, "properties": {"cell_id": 22046, "probability": 0.003244, "expected_events": 0.0032, "normal_probability": 0.001167, "times_normal": 2.8}}, {"type": "Feature", "geometry": {"type": "Polygon", "coordinates": [[[36.75, 40.5], [37.0, 40.5], [37.0, 40.75], [36.75, 40.75], [36.75, 40.5]]]}, "properties": {"cell_id": 22047, "probability": 0.007018, "expected_events": 0.007, "normal_probability": 0.001174, "times_normal": 6.0}}, {"type": "Feature", "geometry": {"type": "Polygon", "coordinates": [[[37.75, 40.75], [38.0, 40.75], [38.0, 41.0], [37.75, 41.0], [37.75, 40.75]]]}, "properties": {"cell_id": 23051, "probability": 0.000295, "expected_events": 0.0003, "normal_probability": 0.000134, "times_normal": 2.2}}, {"type": "Feature", "geometry": {"type": "Polygon", "coordinates": [[[39.75, 40.75], [40.0, 40.75], [40.0, 41.0], [39.75, 41.0], [39.75, 40.75]]]}, "properties": {"cell_id": 23059, "probability": 0.000298, "expected_events": 0.0003, "normal_probability": 0.00014, "times_normal": 2.1}}, {"type": "Feature", "geometry": {"type": "Polygon", "coordinates": [[[40.75, 40.75], [41.0, 40.75], [41.0, 41.0], [40.75, 41.0], [40.75, 40.75]]]}, "properties": {"cell_id": 23063, "probability": 0.000565, "expected_events": 0.0006, "normal_probability": 0.000172, "times_normal": 3.3}}, {"type": "Feature", "geometry": {"type": "Polygon", "coordinates": [[[41.0, 40.75], [41.25, 40.75], [41.25, 41.0], [41.0, 41.0], [41.0, 40.75]]]}, "properties": {"cell_id": 23064, "probability": 0.000347, "expected_events": 0.0003, "normal_probability": 0.000144, "times_normal": 2.4}}, {"type": "Feature", "geometry": {"type": "Polygon", "coordinates": [[[41.25, 40.75], [41.5, 40.75], [41.5, 41.0], [41.25, 41.0], [41.25, 40.75]]]}, "properties": {"cell_id": 23065, "probability": 0.000298, "expected_events": 0.0003, "normal_probability": 0.000112, "times_normal": 2.7}}, {"type": "Feature", "geometry": {"type": "Polygon", "coordinates": [[[41.5, 40.75], [41.75, 40.75], [41.75, 41.0], [41.5, 41.0], [41.5, 40.75]]]}, "properties": {"cell_id": 23066, "probability": 0.000295, "expected_events": 0.0003, "normal_probability": 0.000132, "times_normal": 2.2}}, {"type": "Feature", "geometry": {"type": "Polygon", "coordinates": [[[33.5, 41.0], [33.75, 41.0], [33.75, 41.25], [33.5, 41.25], [33.5, 41.0]]]}, "properties": {"cell_id": 24034, "probability": 0.002936, "expected_events": 0.0029, "normal_probability": 0.001032, "times_normal": 2.8}}, {"type": "Feature", "geometry": {"type": "Polygon", "coordinates": [[[37.25, 41.0], [37.5, 41.0], [37.5, 41.25], [37.25, 41.25], [37.25, 41.0]]]}, "properties": {"cell_id": 24049, "probability": 0.000361, "expected_events": 0.0004, "normal_probability": 0.000103, "times_normal": 3.5}}, {"type": "Feature", "geometry": {"type": "Polygon", "coordinates": [[[40.75, 41.0], [41.0, 41.0], [41.0, 41.25], [40.75, 41.25], [40.75, 41.0]]]}, "properties": {"cell_id": 24063, "probability": 0.000571, "expected_events": 0.0006, "normal_probability": 0.000177, "times_normal": 3.2}}, {"type": "Feature", "geometry": {"type": "Polygon", "coordinates": [[[41.5, 41.0], [41.75, 41.0], [41.75, 41.25], [41.5, 41.25], [41.5, 41.0]]]}, "properties": {"cell_id": 24066, "probability": 0.000294, "expected_events": 0.0003, "normal_probability": 9.3e-05, "times_normal": 3.2}}, {"type": "Feature", "geometry": {"type": "Polygon", "coordinates": [[[28.5, 41.25], [28.75, 41.25], [28.75, 41.5], [28.5, 41.5], [28.5, 41.25]]]}, "properties": {"cell_id": 25014, "probability": 0.000454, "expected_events": 0.0005, "normal_probability": 0.000167, "times_normal": 2.7}}, {"type": "Feature", "geometry": {"type": "Polygon", "coordinates": [[[28.75, 41.25], [29.0, 41.25], [29.0, 41.5], [28.75, 41.5], [28.75, 41.25]]]}, "properties": {"cell_id": 25015, "probability": 0.00033, "expected_events": 0.0003, "normal_probability": 0.000151, "times_normal": 2.2}}, {"type": "Feature", "geometry": {"type": "Polygon", "coordinates": [[[41.5, 41.25], [41.75, 41.25], [41.75, 41.5], [41.5, 41.5], [41.5, 41.25]]]}, "properties": {"cell_id": 25066, "probability": 0.000293, "expected_events": 0.0003, "normal_probability": 0.000136, "times_normal": 2.1}}, {"type": "Feature", "geometry": {"type": "Polygon", "coordinates": [[[34.0, 41.5], [34.25, 41.5], [34.25, 41.75], [34.0, 41.75], [34.0, 41.5]]]}, "properties": {"cell_id": 26036, "probability": 0.000292, "expected_events": 0.0003, "normal_probability": 0.00013, "times_normal": 2.2}}, {"type": "Feature", "geometry": {"type": "Polygon", "coordinates": [[[34.5, 41.5], [34.75, 41.5], [34.75, 41.75], [34.5, 41.75], [34.5, 41.5]]]}, "properties": {"cell_id": 26038, "probability": 0.000292, "expected_events": 0.0003, "normal_probability": 0.000113, "times_normal": 2.6}}, {"type": "Feature", "geometry": {"type": "Polygon", "coordinates": [[[35.25, 41.5], [35.5, 41.5], [35.5, 41.75], [35.25, 41.75], [35.25, 41.5]]]}, "properties": {"cell_id": 26041, "probability": 0.000292, "expected_events": 0.0003, "normal_probability": 0.00012, "times_normal": 2.4}}, {"type": "Feature", "geometry": {"type": "Polygon", "coordinates": [[[28.0, 41.75], [28.25, 41.75], [28.25, 42.0], [28.0, 42.0], [28.0, 41.75]]]}, "properties": {"cell_id": 27012, "probability": 0.00029, "expected_events": 0.0003, "normal_probability": 9.4e-05, "times_normal": 3.1}}, {"type": "Feature", "geometry": {"type": "Polygon", "coordinates": [[[33.25, 41.75], [33.5, 41.75], [33.5, 42.0], [33.25, 42.0], [33.25, 41.75]]]}, "properties": {"cell_id": 27033, "probability": 0.00029, "expected_events": 0.0003, "normal_probability": 0.000138, "times_normal": 2.1}}, {"type": "Feature", "geometry": {"type": "Polygon", "coordinates": [[[33.5, 41.75], [33.75, 41.75], [33.75, 42.0], [33.5, 42.0], [33.5, 41.75]]]}, "properties": {"cell_id": 27034, "probability": 0.00029, "expected_events": 0.0003, "normal_probability": 0.000137, "times_normal": 2.1}}, {"type": "Feature", "geometry": {"type": "Polygon", "coordinates": [[[33.75, 41.75], [34.0, 41.75], [34.0, 42.0], [33.75, 42.0], [33.75, 41.75]]]}, "properties": {"cell_id": 27035, "probability": 0.00029, "expected_events": 0.0003, "normal_probability": 0.000107, "times_normal": 2.7}}, {"type": "Feature", "geometry": {"type": "Polygon", "coordinates": [[[34.0, 41.75], [34.25, 41.75], [34.25, 42.0], [34.0, 42.0], [34.0, 41.75]]]}, "properties": {"cell_id": 27036, "probability": 0.00029, "expected_events": 0.0003, "normal_probability": 9.5e-05, "times_normal": 3.0}}, {"type": "Feature", "geometry": {"type": "Polygon", "coordinates": [[[34.25, 41.75], [34.5, 41.75], [34.5, 42.0], [34.25, 42.0], [34.25, 41.75]]]}, "properties": {"cell_id": 27037, "probability": 0.00029, "expected_events": 0.0003, "normal_probability": 9.4e-05, "times_normal": 3.1}}, {"type": "Feature", "geometry": {"type": "Polygon", "coordinates": [[[34.75, 41.75], [35.0, 41.75], [35.0, 42.0], [34.75, 42.0], [34.75, 41.75]]]}, "properties": {"cell_id": 27039, "probability": 0.00029, "expected_events": 0.0003, "normal_probability": 5.2e-05, "times_normal": 5.6}}, {"type": "Feature", "geometry": {"type": "Polygon", "coordinates": [[[27.0, 42.0], [27.25, 42.0], [27.25, 42.25], [27.0, 42.25], [27.0, 42.0]]]}, "properties": {"cell_id": 28008, "probability": 0.000289, "expected_events": 0.0003, "normal_probability": 0.000102, "times_normal": 2.8}}, {"type": "Feature", "geometry": {"type": "Polygon", "coordinates": [[[33.25, 42.0], [33.5, 42.0], [33.5, 42.25], [33.25, 42.25], [33.25, 42.0]]]}, "properties": {"cell_id": 28033, "probability": 0.000289, "expected_events": 0.0003, "normal_probability": 9.5e-05, "times_normal": 3.0}}, {"type": "Feature", "geometry": {"type": "Polygon", "coordinates": [[[35.0, 42.0], [35.25, 42.0], [35.25, 42.25], [35.0, 42.25], [35.0, 42.0]]]}, "properties": {"cell_id": 28040, "probability": 0.000289, "expected_events": 0.0003, "normal_probability": 3.6e-05, "times_normal": 8.1}}]}