{"type": "FeatureCollection", "properties": {"origin": "2026-09-04T16:00:00Z", "window_days": 1, "target_magnitude": 4.5, "model": "ETAS", "mode": "live", "fingerprint": {"method": "analytic-branching", "etas_params_sha256": "35958f30919b5e6ab7340baf05be24aae941dda95de831d3a23decfc8d843027", "catalog_sha256": "7478e8a55f0ead7b0433566e5330b00beb116668d1540f3da0eb28090299b21e", "catalog_last_event": "2026-09-04 08:38:20+00:00", "branching_nominal": 0.8209, "branching_effective": 0.8125, "commit": "943238267d5cd200548bcc6330c0e46803d75033", "worktree": "clean", "randomness": "none in the branching computation; the ETAS state EM step is SEEDED from the origin date"}, "min_times_normal": 2.0, "kapsam": {"izgara_hucre": 2560, "kapsam_disi_elenen": 1116, "sinir_kaynagi": "Natural Earth 10m admin-0 countries", "lisans": "Natural Earth — kamu malı (public domain)", "kaynak_sha256": "239eec57ac17f100a11e2536cffc56752c318b50ae765b0918ff7aab4ce8f255", "sinir_sha256": "6526abdc33181eedaafb4975d68732102d7805b0de5c5307401f15ec181a1e90", "tampon_derece": 0.125, "gerekce": "katalog tamlığı sınır dışında ölçülmüş biçimde düşüktür (küçük olayların ~%46'sı kayıtsız); temel oran düşük kestirildiği için 'normalin kaç katı' şişer -- V43"}, "cells_before_threshold": 1444, "cells_published": 91, "disclaimer": "Bu bir OLASILIK tahminidir, kesin deprem tahmini değildir. Belirli bir tarih, yer ve büyüklükte deprem olacağını öngörmez ve bilimsel olarak böyle bir öngörü mümkün değildir. Verilen değerler, belirtilen zaman penceresinde ilgili hücrede eşik büyüklüğün üzerinde deprem olma olasılığıdır. Yöntem ve sınırlılıklar: metodoloji.html"}, "features": [{"type": "Feature", "geometry": {"type": "Polygon", "coordinates": [[[33.0, 36.0], [33.25, 36.0], [33.25, 36.25], [33.0, 36.25], [33.0, 36.0]]]}, "properties": {"cell_id": 4032, "probability": 8e-06, "expected_events": 0.0, "normal_probability": 3e-06, "times_normal": 2.3}}, {"type": "Feature", "geometry": {"type": "Polygon", "coordinates": [[[35.75, 36.0], [36.0, 36.0], [36.0, 36.25], [35.75, 36.25], [35.75, 36.0]]]}, "properties": {"cell_id": 4043, "probability": 0.000207, "expected_events": 0.0002, "normal_probability": 7.2e-05, "times_normal": 2.9}}, {"type": "Feature", "geometry": {"type": "Polygon", "coordinates": [[[36.0, 36.0], [36.25, 36.0], [36.25, 36.25], [36.0, 36.25], [36.0, 36.0]]]}, "properties": {"cell_id": 4044, "probability": 0.000219, "expected_events": 0.0002, "normal_probability": 6.6e-05, "times_normal": 3.3}}, {"type": "Feature", "geometry": {"type": "Polygon", "coordinates": [[[33.0, 36.25], [33.25, 36.25], [33.25, 36.5], [33.0, 36.5], [33.0, 36.25]]]}, "properties": {"cell_id": 5032, "probability": 8e-06, "expected_events": 0.0, "normal_probability": 1e-06, "times_normal": 5.9}}, {"type": "Feature", "geometry": {"type": "Polygon", "coordinates": [[[36.25, 36.25], [36.5, 36.25], [36.5, 36.5], [36.25, 36.5], [36.25, 36.25]]]}, "properties": {"cell_id": 5045, "probability": 8.3e-05, "expected_events": 0.0001, "normal_probability": 3.9e-05, "times_normal": 2.2}}, {"type": "Feature", "geometry": {"type": "Polygon", "coordinates": [[[33.0, 36.5], [33.25, 36.5], [33.25, 36.75], [33.0, 36.75], [33.0, 36.5]]]}, "properties": {"cell_id": 6032, "probability": 8e-06, "expected_events": 0.0, "normal_probability": 3e-06, "times_normal": 2.7}}, {"type": "Feature", "geometry": {"type": "Polygon", "coordinates": [[[34.0, 36.5], [34.25, 36.5], [34.25, 36.75], [34.0, 36.75], [34.0, 36.5]]]}, "properties": {"cell_id": 6036, "probability": 4.9e-05, "expected_events": 0.0, "normal_probability": 1.8e-05, "times_normal": 2.7}}, {"type": "Feature", "geometry": {"type": "Polygon", "coordinates": [[[36.25, 36.5], [36.5, 36.5], [36.5, 36.75], [36.25, 36.75], [36.25, 36.5]]]}, "properties": {"cell_id": 6045, "probability": 0.00012, "expected_events": 0.0001, "normal_probability": 4.3e-05, "times_normal": 2.8}}, {"type": "Feature", "geometry": {"type": "Polygon", "coordinates": [[[36.5, 36.75], [36.75, 36.75], [36.75, 37.0], [36.5, 37.0], [36.5, 36.75]]]}, "properties": {"cell_id": 7046, "probability": 0.000109, "expected_events": 0.0001, "normal_probability": 5.3e-05, "times_normal": 2.1}}, {"type": "Feature", "geometry": {"type": "Polygon", "coordinates": [[[36.5, 37.0], [36.75, 37.0], [36.75, 37.25], [36.5, 37.25], [36.5, 37.0]]]}, "properties": {"cell_id": 8046, "probability": 0.000324, "expected_events": 0.0003, "normal_probability": 9.5e-05, "times_normal": 3.4}}, {"type": "Feature", "geometry": {"type": "Polygon", "coordinates": [[[36.75, 37.0], [37.0, 37.0], [37.0, 37.25], [36.75, 37.25], [36.75, 37.0]]]}, "properties": {"cell_id": 8047, "probability": 0.000999, "expected_events": 0.001, "normal_probability": 0.000112, "times_normal": 8.9}}, {"type": "Feature", "geometry": {"type": "Polygon", "coordinates": [[[37.0, 37.0], [37.25, 37.0], [37.25, 37.25], [37.0, 37.25], [37.0, 37.0]]]}, "properties": {"cell_id": 8048, "probability": 0.000674, "expected_events": 0.0007, "normal_probability": 0.000132, "times_normal": 5.1}}, {"type": "Feature", "geometry": {"type": "Polygon", "coordinates": [[[39.75, 37.0], [40.0, 37.0], [40.0, 37.25], [39.75, 37.25], [39.75, 37.0]]]}, "properties": {"cell_id": 8059, "probability": 8e-06, "expected_events": 0.0, "normal_probability": 3e-06, "times_normal": 2.5}}, {"type": "Feature", "geometry": {"type": "Polygon", "coordinates": [[[41.25, 37.0], [41.5, 37.0], [41.5, 37.25], [41.25, 37.25], [41.25, 37.0]]]}, "properties": {"cell_id": 8065, "probability": 8e-06, "expected_events": 0.0, "normal_probability": 4e-06, "times_normal": 2.2}}, {"type": "Feature", "geometry": {"type": "Polygon", "coordinates": [[[33.25, 37.25], [33.5, 37.25], [33.5, 37.5], [33.25, 37.5], [33.25, 37.25]]]}, "properties": {"cell_id": 9033, "probability": 8e-06, "expected_events": 0.0, "normal_probability": 4e-06, "times_normal": 2.1}}, {"type": "Feature", "geometry": {"type": "Polygon", "coordinates": [[[33.5, 37.25], [33.75, 37.25], [33.75, 37.5], [33.5, 37.5], [33.5, 37.25]]]}, "properties": {"cell_id": 9034, "probability": 9e-06, "expected_events": 0.0, "normal_probability": 3e-06, "times_normal": 3.4}}, {"type": "Feature", "geometry": {"type": "Polygon", "coordinates": [[[33.75, 37.25], [34.0, 37.25], [34.0, 37.5], [33.75, 37.5], [33.75, 37.25]]]}, "properties": {"cell_id": 9035, "probability": 8e-06, "expected_events": 0.0, "normal_probability": 4e-06, "times_normal": 2.3}}, {"type": "Feature", "geometry": {"type": "Polygon", "coordinates": [[[34.25, 37.25], [34.5, 37.25], [34.5, 37.5], [34.25, 37.5], [34.25, 37.25]]]}, "properties": {"cell_id": 9037, "probability": 6e-05, "expected_events": 0.0001, "normal_probability": 1.3e-05, "times_normal": 4.6}}, {"type": "Feature", "geometry": {"type": "Polygon", "coordinates": [[[36.75, 37.25], [37.0, 37.25], [37.0, 37.5], [36.75, 37.5], [36.75, 37.25]]]}, "properties": {"cell_id": 9047, "probability": 0.000843, "expected_events": 0.0008, "normal_probability": 0.000125, "times_normal": 6.8}}, {"type": "Feature", "geometry": {"type": "Polygon", "coordinates": [[[37.0, 37.25], [37.25, 37.25], [37.25, 37.5], [37.0, 37.5], [37.0, 37.25]]]}, "properties": {"cell_id": 9048, "probability": 0.000957, "expected_events": 0.001, "normal_probability": 0.000153, "times_normal": 6.2}}, {"type": "Feature", "geometry": {"type": "Polygon", "coordinates": [[[37.25, 37.25], [37.5, 37.25], [37.5, 37.5], [37.25, 37.5], [37.25, 37.25]]]}, "properties": {"cell_id": 9049, "probability": 0.000268, "expected_events": 0.0003, "normal_probability": 0.000119, "times_normal": 2.3}}, {"type": "Feature", "geometry": {"type": "Polygon", "coordinates": [[[40.25, 37.25], [40.5, 37.25], [40.5, 37.5], [40.25, 37.5], [40.25, 37.25]]]}, "properties": {"cell_id": 9061, "probability": 8e-06, "expected_events": 0.0, "normal_probability": 3e-06, "times_normal": 3.1}}, {"type": "Feature", "geometry": {"type": "Polygon", "coordinates": [[[40.5, 37.25], [40.75, 37.25], [40.75, 37.5], [40.5, 37.5], [40.5, 37.25]]]}, "properties": {"cell_id": 9062, "probability": 8e-06, "expected_events": 0.0, "normal_probability": 4e-06, "times_normal": 2.2}}, {"type": "Feature", "geometry": {"type": "Polygon", "coordinates": [[[40.75, 37.25], [41.0, 37.25], [41.0, 37.5], [40.75, 37.5], [40.75, 37.25]]]}, "properties": {"cell_id": 9063, "probability": 8e-06, "expected_events": 0.0, "normal_probability": 4e-06, "times_normal": 2.1}}, {"type": "Feature", "geometry": {"type": "Polygon", "coordinates": [[[41.75, 37.25], [42.0, 37.25], [42.0, 37.5], [41.75, 37.5], [41.75, 37.25]]]}, "properties": {"cell_id": 9067, "probability": 2.2e-05, "expected_events": 0.0, "normal_probability": 1e-05, "times_normal": 2.2}}, {"type": "Feature", "geometry": {"type": "Polygon", "coordinates": [[[33.25, 37.5], [33.5, 37.5], [33.5, 37.75], [33.25, 37.75], [33.25, 37.5]]]}, "properties": {"cell_id": 10033, "probability": 8e-06, "expected_events": 0.0, "normal_probability": 4e-06, "times_normal": 2.0}}, {"type": "Feature", "geometry": {"type": "Polygon", "coordinates": [[[36.75, 37.5], [37.0, 37.5], [37.0, 37.75], [36.75, 37.75], [36.75, 37.5]]]}, "properties": {"cell_id": 10047, "probability": 0.000157, "expected_events": 0.0002, "normal_probability": 6.8e-05, "times_normal": 2.3}}, {"type": "Feature", "geometry": {"type": "Polygon", "coordinates": [[[37.0, 37.5], [37.25, 37.5], [37.25, 37.75], [37.0, 37.75], [37.0, 37.5]]]}, "properties": {"cell_id": 10048, "probability": 0.000297, "expected_events": 0.0003, "normal_probability": 8e-05, "times_normal": 3.7}}, {"type": "Feature", "geometry": {"type": "Polygon", "coordinates": [[[37.25, 37.5], [37.5, 37.5], [37.5, 37.75], [37.25, 37.75], [37.25, 37.5]]]}, "properties": {"cell_id": 10049, "probability": 0.000207, "expected_events": 0.0002, "normal_probability": 7.3e-05, "times_normal": 2.8}}, {"type": "Feature", "geometry": {"type": "Polygon", "coordinates": [[[40.5, 37.5], [40.75, 37.5], [40.75, 37.75], [40.5, 37.75], [40.5, 37.5]]]}, "properties": {"cell_id": 10062, "probability": 8e-06, "expected_events": 0.0, "normal_probability": 3e-06, "times_normal": 2.5}}, {"type": "Feature", "geometry": {"type": "Polygon", "coordinates": [[[36.0, 37.75], [36.25, 37.75], [36.25, 38.0], [36.0, 38.0], [36.0, 37.75]]]}, "properties": {"cell_id": 11044, "probability": 0.00032, "expected_events": 0.0003, "normal_probability": 6.1e-05, "times_normal": 5.2}}, {"type": "Feature", "geometry": {"type": "Polygon", "coordinates": [[[36.25, 37.75], [36.5, 37.75], [36.5, 38.0], [36.25, 38.0], [36.25, 37.75]]]}, "properties": {"cell_id": 11045, "probability": 0.000493, "expected_events": 0.0005, "normal_probability": 5.6e-05, "times_normal": 8.8}}, {"type": "Feature", "geometry": {"type": "Polygon", "coordinates": [[[36.5, 37.75], [36.75, 37.75], [36.75, 38.0], [36.5, 38.0], [36.5, 37.75]]]}, "properties": {"cell_id": 11046, "probability": 0.000336, "expected_events": 0.0003, "normal_probability": 4e-05, "times_normal": 8.5}}, {"type": "Feature", "geometry": {"type": "Polygon", "coordinates": [[[36.75, 37.75], [37.0, 37.75], [37.0, 38.0], [36.75, 38.0], [36.75, 37.75]]]}, "properties": {"cell_id": 11047, "probability": 0.000153, "expected_events": 0.0002, "normal_probability": 3.1e-05, "times_normal": 4.9}}, {"type": "Feature", "geometry": {"type": "Polygon", "coordinates": [[[37.0, 37.75], [37.25, 37.75], [37.25, 38.0], [37.0, 38.0], [37.0, 37.75]]]}, "properties": {"cell_id": 11048, "probability": 0.000343, "expected_events": 0.0003, "normal_probability": 3.5e-05, "times_normal": 9.8}}, {"type": "Feature", "geometry": {"type": "Polygon", "coordinates": [[[37.25, 37.75], [37.5, 37.75], [37.5, 38.0], [37.25, 38.0], [37.25, 37.75]]]}, "properties": {"cell_id": 11049, "probability": 0.000425, "expected_events": 0.0004, "normal_probability": 4.1e-05, "times_normal": 10.4}}, {"type": "Feature", "geometry": {"type": "Polygon", "coordinates": [[[37.5, 37.75], [37.75, 37.75], [37.75, 38.0], [37.5, 38.0], [37.5, 37.75]]]}, "properties": {"cell_id": 11050, "probability": 0.000338, "expected_events": 0.0003, "normal_probability": 4.5e-05, "times_normal": 7.4}}, {"type": "Feature", "geometry": {"type": "Polygon", "coordinates": [[[37.75, 37.75], [38.0, 37.75], [38.0, 38.0], [37.75, 38.0], [37.75, 37.75]]]}, "properties": {"cell_id": 11051, "probability": 0.000158, "expected_events": 0.0002, "normal_probability": 5.4e-05, "times_normal": 2.9}}, {"type": "Feature", "geometry": {"type": "Polygon", "coordinates": [[[32.5, 38.0], [32.75, 38.0], [32.75, 38.25], [32.5, 38.25], [32.5, 38.0]]]}, "properties": {"cell_id": 12030, "probability": 2.8e-05, "expected_events": 0.0, "normal_probability": 1.3e-05, "times_normal": 2.2}}, {"type": "Feature", "geometry": {"type": "Polygon", "coordinates": [[[36.0, 38.0], [36.25, 38.0], [36.25, 38.25], [36.0, 38.25], [36.0, 38.0]]]}, "properties": {"cell_id": 12044, "probability": 6.2e-05, "expected_events": 0.0001, "normal_probability": 1.8e-05, "times_normal": 3.4}}, {"type": "Feature", "geometry": {"type": "Polygon", "coordinates": [[[36.25, 38.0], [36.5, 38.0], [36.5, 38.25], [36.25, 38.25], [36.25, 38.0]]]}, "properties": {"cell_id": 12045, "probability": 0.000386, "expected_events": 0.0004, "normal_probability": 2e-05, "times_normal": 19.3}}, {"type": "Feature", "geometry": {"type": "Polygon", "coordinates": [[[36.5, 38.0], [36.75, 38.0], [36.75, 38.25], [36.5, 38.25], [36.5, 38.0]]]}, "properties": {"cell_id": 12046, "probability": 0.000469, "expected_events": 0.0005, "normal_probability": 1.9e-05, "times_normal": 25.3}}, {"type": "Feature", "geometry": {"type": "Polygon", "coordinates": [[[36.75, 38.0], [37.0, 38.0], [37.0, 38.25], [36.75, 38.25], [36.75, 38.0]]]}, "properties": {"cell_id": 12047, "probability": 0.000321, "expected_events": 0.0003, "normal_probability": 1.8e-05, "times_normal": 17.9}}, {"type": "Feature", "geometry": {"type": "Polygon", "coordinates": [[[37.0, 38.0], [37.25, 38.0], [37.25, 38.25], [37.0, 38.25], [37.0, 38.0]]]}, "properties": {"cell_id": 12048, "probability": 0.000696, "expected_events": 0.0007, "normal_probability": 2.1e-05, "times_normal": 33.9}}, {"type": "Feature", "geometry": {"type": "Polygon", "coordinates": [[[37.25, 38.0], [37.5, 38.0], [37.5, 38.25], [37.25, 38.25], [37.25, 38.0]]]}, "properties": {"cell_id": 12049, "probability": 0.000731, "expected_events": 0.0007, "normal_probability": 2.5e-05, "times_normal": 29.5}}, {"type": "Feature", "geometry": {"type": "Polygon", "coordinates": [[[37.5, 38.0], [37.75, 38.0], [37.75, 38.25], [37.5, 38.25], [37.5, 38.0]]]}, "properties": {"cell_id": 12050, "probability": 0.000412, "expected_events": 0.0004, "normal_probability": 3.1e-05, "times_normal": 13.1}}, {"type": "Feature", "geometry": {"type": "Polygon", "coordinates": [[[37.75, 38.0], [38.0, 38.0], [38.0, 38.25], [37.75, 38.25], [37.75, 38.0]]]}, "properties": {"cell_id": 12051, "probability": 0.000336, "expected_events": 0.0003, "normal_probability": 4.3e-05, "times_normal": 7.8}}, {"type": "Feature", "geometry": {"type": "Polygon", "coordinates": [[[38.0, 38.0], [38.25, 38.0], [38.25, 38.25], [38.0, 38.25], [38.0, 38.0]]]}, "properties": {"cell_id": 12052, "probability": 0.000329, "expected_events": 0.0003, "normal_probability": 6.1e-05, "times_normal": 5.4}}, {"type": "Feature", "geometry": {"type": "Polygon", "coordinates": [[[38.25, 38.0], [38.5, 38.0], [38.5, 38.25], [38.25, 38.25], [38.25, 38.0]]]}, "properties": {"cell_id": 12053, "probability": 0.001193, "expected_events": 0.0012, "normal_probability": 9e-05, "times_normal": 13.2}}, {"type": "Feature", "geometry": {"type": "Polygon", "coordinates": [[[38.5, 38.0], [38.75, 38.0], [38.75, 38.25], [38.5, 38.25], [38.5, 38.0]]]}, "properties": {"cell_id": 12054, "probability": 0.000924, "expected_events": 0.0009, "normal_probability": 0.000133, "times_normal": 7.0}}, {"type": "Feature", "geometry": {"type": "Polygon", "coordinates": [[[36.25, 38.25], [36.5, 38.25], [36.5, 38.5], [36.25, 38.5], [36.25, 38.25]]]}, "properties": {"cell_id": 13045, "probability": 3.2e-05, "expected_events": 0.0, "normal_probability": 1.2e-05, "times_normal": 2.7}}, {"type": "Feature", "geometry": {"type": "Polygon", "coordinates": [[[36.5, 38.25], [36.75, 38.25], [36.75, 38.5], [36.5, 38.5], [36.5, 38.25]]]}, "properties": {"cell_id": 13046, "probability": 4.6e-05, "expected_events": 0.0, "normal_probability": 1.4e-05, "times_normal": 3.2}}, {"type": "Feature", "geometry": {"type": "Polygon", "coordinates": [[[36.75, 38.25], [37.0, 38.25], [37.0, 38.5], [36.75, 38.5], [36.75, 38.25]]]}, "properties": {"cell_id": 13047, "probability": 7.3e-05, "expected_events": 0.0001, "normal_probability": 1.6e-05, "times_normal": 4.5}}, {"type": "Feature", "geometry": {"type": "Polygon", "coordinates": [[[37.0, 38.25], [37.25, 38.25], [37.25, 38.5], [37.0, 38.5], [37.0, 38.25]]]}, "properties": {"cell_id": 13048, "probability": 0.00017, "expected_events": 0.0002, "normal_probability": 1.9e-05, "times_normal": 9.1}}, {"type": "Feature", "geometry": {"type": "Polygon", "coordinates": [[[37.25, 38.25], [37.5, 38.25], [37.5, 38.5], [37.25, 38.5], [37.25, 38.25]]]}, "properties": {"cell_id": 13049, "probability": 0.000192, "expected_events": 0.0002, "normal_probability": 2.1e-05, "times_normal": 9.4}}, {"type": "Feature", "geometry": {"type": "Polygon", "coordinates": [[[37.5, 38.25], [37.75, 38.25], [37.75, 38.5], [37.5, 38.5], [37.5, 38.25]]]}, "properties": {"cell_id": 13050, "probability": 0.000117, "expected_events": 0.0001, "normal_probability": 2.1e-05, "times_normal": 5.6}}, {"type": "Feature", "geometry": {"type": "Polygon", "coordinates": [[[37.75, 38.25], [38.0, 38.25], [38.0, 38.5], [37.75, 38.5], [37.75, 38.25]]]}, "properties": {"cell_id": 13051, "probability": 0.000185, "expected_events": 0.0002, "normal_probability": 2.4e-05, "times_normal": 7.7}}, {"type": "Feature", "geometry": {"type": "Polygon", "coordinates": [[[38.0, 38.25], [38.25, 38.25], [38.25, 38.5], [38.0, 38.5], [38.0, 38.25]]]}, "properties": {"cell_id": 13052, "probability": 0.000279, "expected_events": 0.0003, "normal_probability": 3.5e-05, "times_normal": 7.9}}, {"type": "Feature", "geometry": {"type": "Polygon", "coordinates": [[[38.25, 38.25], [38.5, 38.25], [38.5, 38.5], [38.25, 38.5], [38.25, 38.25]]]}, "properties": {"cell_id": 13053, "probability": 0.000457, "expected_events": 0.0005, "normal_probability": 6.5e-05, "times_normal": 7.0}}, {"type": "Feature", "geometry": {"type": "Polygon", "coordinates": [[[38.5, 38.25], [38.75, 38.25], [38.75, 38.5], [38.5, 38.5], [38.5, 38.25]]]}, "properties": {"cell_id": 13054, "probability": 0.00073, "expected_events": 0.0007, "normal_probability": 0.000126, "times_normal": 5.8}}, {"type": "Feature", "geometry": {"type": "Polygon", "coordinates": [[[36.25, 38.5], [36.5, 38.5], [36.5, 38.75], [36.25, 38.75], [36.25, 38.5]]]}, "properties": {"cell_id": 14045, "probability": 0.000109, "expected_events": 0.0001, "normal_probability": 1.2e-05, "times_normal": 9.2}}, {"type": "Feature", "geometry": {"type": "Polygon", "coordinates": [[[36.5, 38.5], [36.75, 38.5], [36.75, 38.75], [36.5, 38.75], [36.5, 38.5]]]}, "properties": {"cell_id": 14046, "probability": 0.000257, "expected_events": 0.0003, "normal_probability": 1.4e-05, "times_normal": 18.9}}, {"type": "Feature", "geometry": {"type": "Polygon", "coordinates": [[[27.0, 38.75], [27.25, 38.75], [27.25, 39.0], [27.0, 39.0], [27.0, 38.75]]]}, "properties": {"cell_id": 15008, "probability": 0.000687, "expected_events": 0.0007, "normal_probability": 0.000235, "times_normal": 2.9}}, {"type": "Feature", "geometry": {"type": "Polygon", "coordinates": [[[36.25, 38.75], [36.5, 38.75], [36.5, 39.0], [36.25, 39.0], [36.25, 38.75]]]}, "properties": {"cell_id": 15045, "probability": 0.000104, "expected_events": 0.0001, "normal_probability": 1.7e-05, "times_normal": 6.1}}, {"type": "Feature", "geometry": {"type": "Polygon", "coordinates": [[[36.5, 38.75], [36.75, 38.75], [36.75, 39.0], [36.5, 39.0], [36.5, 38.75]]]}, "properties": {"cell_id": 15046, "probability": 0.000269, "expected_events": 0.0003, "normal_probability": 1.4e-05, "times_normal": 19.1}}, {"type": "Feature", "geometry": {"type": "Polygon", "coordinates": [[[37.25, 38.75], [37.5, 38.75], [37.5, 39.0], [37.25, 39.0], [37.25, 38.75]]]}, "properties": {"cell_id": 15049, "probability": 6.3e-05, "expected_events": 0.0001, "normal_probability": 2e-05, "times_normal": 3.1}}, {"type": "Feature", "geometry": {"type": "Polygon", "coordinates": [[[28.0, 39.0], [28.25, 39.0], [28.25, 39.25], [28.0, 39.25], [28.0, 39.0]]]}, "properties": {"cell_id": 16012, "probability": 0.002465, "expected_events": 0.0025, "normal_probability": 0.00026, "times_normal": 9.5}}, {"type": "Feature", "geometry": {"type": "Polygon", "coordinates": [[[28.25, 39.0], [28.5, 39.0], [28.5, 39.25], [28.25, 39.25], [28.25, 39.0]]]}, "properties": {"cell_id": 16013, "probability": 0.001228, "expected_events": 0.0012, "normal_probability": 0.000174, "times_normal": 7.1}}, {"type": "Feature", "geometry": {"type": "Polygon", "coordinates": [[[28.0, 39.25], [28.25, 39.25], [28.25, 39.5], [28.0, 39.5], [28.0, 39.25]]]}, "properties": {"cell_id": 17012, "probability": 0.000854, "expected_events": 0.0009, "normal_probability": 0.000262, "times_normal": 3.3}}, {"type": "Feature", "geometry": {"type": "Polygon", "coordinates": [[[33.25, 40.0], [33.5, 40.0], [33.5, 40.25], [33.25, 40.25], [33.25, 40.0]]]}, "properties": {"cell_id": 20033, "probability": 0.000416, "expected_events": 0.0004, "normal_probability": 4.1e-05, "times_normal": 10.1}}, {"type": "Feature", "geometry": {"type": "Polygon", "coordinates": [[[33.5, 40.0], [33.75, 40.0], [33.75, 40.25], [33.5, 40.25], [33.5, 40.0]]]}, "properties": {"cell_id": 20034, "probability": 7.8e-05, "expected_events": 0.0001, "normal_probability": 3.1e-05, "times_normal": 2.5}}, {"type": "Feature", "geometry": {"type": "Polygon", "coordinates": [[[35.75, 40.0], [36.0, 40.0], [36.0, 40.25], [35.75, 40.25], [35.75, 40.0]]]}, "properties": {"cell_id": 20043, "probability": 6.8e-05, "expected_events": 0.0001, "normal_probability": 2.7e-05, "times_normal": 2.5}}, {"type": "Feature", "geometry": {"type": "Polygon", "coordinates": [[[36.0, 40.0], [36.25, 40.0], [36.25, 40.25], [36.0, 40.25], [36.0, 40.0]]]}, "properties": {"cell_id": 20044, "probability": 4.8e-05, "expected_events": 0.0, "normal_probability": 2.1e-05, "times_normal": 2.3}}, {"type": "Feature", "geometry": {"type": "Polygon", "coordinates": [[[33.25, 40.25], [33.5, 40.25], [33.5, 40.5], [33.25, 40.5], [33.25, 40.25]]]}, "properties": {"cell_id": 21033, "probability": 0.001165, "expected_events": 0.0012, "normal_probability": 7.2e-05, "times_normal": 16.1}}, {"type": "Feature", "geometry": {"type": "Polygon", "coordinates": [[[33.5, 40.25], [33.75, 40.25], [33.75, 40.5], [33.5, 40.5], [33.5, 40.25]]]}, "properties": {"cell_id": 21034, "probability": 0.000173, "expected_events": 0.0002, "normal_probability": 4.3e-05, "times_normal": 4.0}}, {"type": "Feature", "geometry": {"type": "Polygon", "coordinates": [[[36.5, 40.5], [36.75, 40.5], [36.75, 40.75], [36.5, 40.75], [36.5, 40.5]]]}, "properties": {"cell_id": 22046, "probability": 9.6e-05, "expected_events": 0.0001, "normal_probability": 3.9e-05, "times_normal": 2.5}}, {"type": "Feature", "geometry": {"type": "Polygon", "coordinates": [[[36.75, 40.5], [37.0, 40.5], [37.0, 40.75], [36.75, 40.75], [36.75, 40.5]]]}, "properties": {"cell_id": 22047, "probability": 0.000222, "expected_events": 0.0002, "normal_probability": 3.9e-05, "times_normal": 5.7}}, {"type": "Feature", "geometry": {"type": "Polygon", "coordinates": [[[40.75, 40.75], [41.0, 40.75], [41.0, 41.0], [40.75, 41.0], [40.75, 40.75]]]}, "properties": {"cell_id": 23063, "probability": 1.5e-05, "expected_events": 0.0, "normal_probability": 6e-06, "times_normal": 2.6}}, {"type": "Feature", "geometry": {"type": "Polygon", "coordinates": [[[33.5, 41.0], [33.75, 41.0], [33.75, 41.25], [33.5, 41.25], [33.5, 41.0]]]}, "properties": {"cell_id": 24034, "probability": 0.000211, "expected_events": 0.0002, "normal_probability": 3.4e-05, "times_normal": 6.1}}, {"type": "Feature", "geometry": {"type": "Polygon", "coordinates": [[[37.25, 41.0], [37.5, 41.0], [37.5, 41.25], [37.25, 41.25], [37.25, 41.0]]]}, "properties": {"cell_id": 24049, "probability": 9e-06, "expected_events": 0.0, "normal_probability": 3e-06, "times_normal": 2.7}}, {"type": "Feature", "geometry": {"type": "Polygon", "coordinates": [[[40.75, 41.0], [41.0, 41.0], [41.0, 41.25], [40.75, 41.25], [40.75, 41.0]]]}, "properties": {"cell_id": 24063, "probability": 1.5e-05, "expected_events": 0.0, "normal_probability": 6e-06, "times_normal": 2.6}}, {"type": "Feature", "geometry": {"type": "Polygon", "coordinates": [[[41.5, 41.0], [41.75, 41.0], [41.75, 41.25], [41.5, 41.25], [41.5, 41.0]]]}, "properties": {"cell_id": 24066, "probability": 7e-06, "expected_events": 0.0, "normal_probability": 3e-06, "times_normal": 2.4}}, {"type": "Feature", "geometry": {"type": "Polygon", "coordinates": [[[28.5, 41.25], [28.75, 41.25], [28.75, 41.5], [28.5, 41.5], [28.5, 41.25]]]}, "properties": {"cell_id": 25014, "probability": 1.2e-05, "expected_events": 0.0, "normal_probability": 6e-06, "times_normal": 2.1}}, {"type": "Feature", "geometry": {"type": "Polygon", "coordinates": [[[28.0, 41.75], [28.25, 41.75], [28.25, 42.0], [28.0, 42.0], [28.0, 41.75]]]}, "properties": {"cell_id": 27012, "probability": 7e-06, "expected_events": 0.0, "normal_probability": 3e-06, "times_normal": 2.3}}, {"type": "Feature", "geometry": {"type": "Polygon", "coordinates": [[[33.75, 41.75], [34.0, 41.75], [34.0, 42.0], [33.75, 42.0], [33.75, 41.75]]]}, "properties": {"cell_id": 27035, "probability": 7e-06, "expected_events": 0.0, "normal_probability": 4e-06, "times_normal": 2.0}}, {"type": "Feature", "geometry": {"type": "Polygon", "coordinates": [[[34.0, 41.75], [34.25, 41.75], [34.25, 42.0], [34.0, 42.0], [34.0, 41.75]]]}, "properties": {"cell_id": 27036, "probability": 7e-06, "expected_events": 0.0, "normal_probability": 3e-06, "times_normal": 2.3}}, {"type": "Feature", "geometry": {"type": "Polygon", "coordinates": [[[34.25, 41.75], [34.5, 41.75], [34.5, 42.0], [34.25, 42.0], [34.25, 41.75]]]}, "properties": {"cell_id": 27037, "probability": 7e-06, "expected_events": 0.0, "normal_probability": 3e-06, "times_normal": 2.3}}, {"type": "Feature", "geometry": {"type": "Polygon", "coordinates": [[[34.75, 41.75], [35.0, 41.75], [35.0, 42.0], [34.75, 42.0], [34.75, 41.75]]]}, "properties": {"cell_id": 27039, "probability": 7e-06, "expected_events": 0.0, "normal_probability": 2e-06, "times_normal": 4.2}}, {"type": "Feature", "geometry": {"type": "Polygon", "coordinates": [[[27.0, 42.0], [27.25, 42.0], [27.25, 42.25], [27.0, 42.25], [27.0, 42.0]]]}, "properties": {"cell_id": 28008, "probability": 7e-06, "expected_events": 0.0, "normal_probability": 3e-06, "times_normal": 2.1}}, {"type": "Feature", "geometry": {"type": "Polygon", "coordinates": [[[33.25, 42.0], [33.5, 42.0], [33.5, 42.25], [33.25, 42.25], [33.25, 42.0]]]}, "properties": {"cell_id": 28033, "probability": 7e-06, "expected_events": 0.0, "normal_probability": 3e-06, "times_normal": 2.3}}, {"type": "Feature", "geometry": {"type": "Polygon", "coordinates": [[[35.0, 42.0], [35.25, 42.0], [35.25, 42.25], [35.0, 42.25], [35.0, 42.0]]]}, "properties": {"cell_id": 28040, "probability": 7e-06, "expected_events": 0.0, "normal_probability": 1e-06, "times_normal": 6.1}}]}