{"type": "FeatureCollection", "properties": {"origin": "2026-09-30T05:00:00Z", "window_days": 30, "target_magnitude": 4.5, "model": "ETAS", "mode": "live", "fingerprint": {"method": "analytic-branching", "etas_params_sha256": "35958f30919b5e6ab7340baf05be24aae941dda95de831d3a23decfc8d843027", "catalog_sha256": "f741ca0a60278673a7e88abc4b493e227051f9d78c2c8d3e98df8780eaa1c58d", "catalog_last_event": "2026-09-30 03:30:53+00:00", "branching_nominal": 0.8209, "branching_effective": 0.8125, "commit": "943238267d5cd200548bcc6330c0e46803d75033", "worktree": "clean", "randomness": "none in the branching computation; the ETAS state EM step is SEEDED from the origin date"}, "min_times_normal": 2.0, "kapsam": {"izgara_hucre": 2560, "kapsam_disi_elenen": 1116, "sinir_kaynagi": "Natural Earth 10m admin-0 countries", "lisans": "Natural Earth — kamu malı (public domain)", "kaynak_sha256": "239eec57ac17f100a11e2536cffc56752c318b50ae765b0918ff7aab4ce8f255", "sinir_sha256": "6526abdc33181eedaafb4975d68732102d7805b0de5c5307401f15ec181a1e90", "tampon_derece": 0.125, "gerekce": "katalog tamlığı sınır dışında ölçülmüş biçimde düşüktür (küçük olayların ~%46'sı kayıtsız); temel oran düşük kestirildiği için 'normalin kaç katı' şişer -- V43"}, "cells_before_threshold": 1444, "cells_published": 130, "disclaimer": "Bu bir OLASILIK tahminidir, kesin deprem tahmini değildir. Belirli bir tarih, yer ve büyüklükte deprem olacağını öngörmez ve bilimsel olarak böyle bir öngörü mümkün değildir. Verilen değerler, belirtilen zaman penceresinde ilgili hücrede eşik büyüklüğün üzerinde deprem olma olasılığıdır. Yöntem ve sınırlılıklar: metodoloji.html"}, "features": [{"type": "Feature", "geometry": {"type": "Polygon", "coordinates": [[[35.75, 35.75], [36.0, 35.75], [36.0, 36.0], [35.75, 36.0], [35.75, 35.75]]]}, "properties": {"cell_id": 3043, "probability": 0.002691, "expected_events": 0.0027, "normal_probability": 0.001337, "times_normal": 2.0}}, {"type": "Feature", "geometry": {"type": "Polygon", "coordinates": [[[36.0, 35.75], [36.25, 35.75], [36.25, 36.0], [36.0, 36.0], [36.0, 35.75]]]}, "properties": {"cell_id": 3044, "probability": 0.002497, "expected_events": 0.0025, "normal_probability": 0.001246, "times_normal": 2.0}}, {"type": "Feature", "geometry": {"type": "Polygon", "coordinates": [[[33.0, 36.0], [33.25, 36.0], [33.25, 36.25], [33.0, 36.25], [33.0, 36.0]]]}, "properties": {"cell_id": 4032, "probability": 0.000319, "expected_events": 0.0003, "normal_probability": 0.000102, "times_normal": 3.1}}, {"type": "Feature", "geometry": {"type": "Polygon", "coordinates": [[[35.75, 36.0], [36.0, 36.0], [36.0, 36.25], [35.75, 36.25], [35.75, 36.0]]]}, "properties": {"cell_id": 4043, "probability": 0.007603, "expected_events": 0.0076, "normal_probability": 0.002151, "times_normal": 3.5}}, {"type": "Feature", "geometry": {"type": "Polygon", "coordinates": [[[36.0, 36.0], [36.25, 36.0], [36.25, 36.25], [36.0, 36.25], [36.0, 36.0]]]}, "properties": {"cell_id": 4044, "probability": 0.008034, "expected_events": 0.0081, "normal_probability": 0.001979, "times_normal": 4.1}}, {"type": "Feature", "geometry": {"type": "Polygon", "coordinates": [[[33.0, 36.25], [33.25, 36.25], [33.25, 36.5], [33.0, 36.5], [33.0, 36.25]]]}, "properties": {"cell_id": 5032, "probability": 0.000336, "expected_events": 0.0003, "normal_probability": 4.3e-05, "times_normal": 7.8}}, {"type": "Feature", "geometry": {"type": "Polygon", "coordinates": [[[36.0, 36.25], [36.25, 36.25], [36.25, 36.5], [36.0, 36.5], [36.0, 36.25]]]}, "properties": {"cell_id": 5044, "probability": 0.004323, "expected_events": 0.0043, "normal_probability": 0.001777, "times_normal": 2.4}}, {"type": "Feature", "geometry": {"type": "Polygon", "coordinates": [[[36.25, 36.25], [36.5, 36.25], [36.5, 36.5], [36.25, 36.5], [36.25, 36.25]]]}, "properties": {"cell_id": 5045, "probability": 0.003056, "expected_events": 0.0031, "normal_probability": 0.001158, "times_normal": 2.6}}, {"type": "Feature", "geometry": {"type": "Polygon", "coordinates": [[[33.0, 36.5], [33.25, 36.5], [33.25, 36.75], [33.0, 36.75], [33.0, 36.5]]]}, "properties": {"cell_id": 6032, "probability": 0.000331, "expected_events": 0.0003, "normal_probability": 9.1e-05, "times_normal": 3.6}}, {"type": "Feature", "geometry": {"type": "Polygon", "coordinates": [[[34.0, 36.5], [34.25, 36.5], [34.25, 36.75], [34.0, 36.75], [34.0, 36.5]]]}, "properties": {"cell_id": 6036, "probability": 0.00116, "expected_events": 0.0012, "normal_probability": 0.000541, "times_normal": 2.1}}, {"type": "Feature", "geometry": {"type": "Polygon", "coordinates": [[[36.25, 36.5], [36.5, 36.5], [36.5, 36.75], [36.25, 36.75], [36.25, 36.5]]]}, "properties": {"cell_id": 6045, "probability": 0.004106, "expected_events": 0.0041, "normal_probability": 0.001282, "times_normal": 3.2}}, {"type": "Feature", "geometry": {"type": "Polygon", "coordinates": [[[36.5, 36.75], [36.75, 36.75], [36.75, 37.0], [36.5, 37.0], [36.5, 36.75]]]}, "properties": {"cell_id": 7046, "probability": 0.004244, "expected_events": 0.0043, "normal_probability": 0.001596, "times_normal": 2.7}}, {"type": "Feature", "geometry": {"type": "Polygon", "coordinates": [[[36.75, 36.75], [37.0, 36.75], [37.0, 37.0], [36.75, 37.0], [36.75, 36.75]]]}, "properties": {"cell_id": 7047, "probability": 0.00392, "expected_events": 0.0039, "normal_probability": 0.001559, "times_normal": 2.5}}, {"type": "Feature", "geometry": {"type": "Polygon", "coordinates": [[[37.0, 36.75], [37.25, 36.75], [37.25, 37.0], [37.0, 37.0], [37.0, 36.75]]]}, "properties": {"cell_id": 7048, "probability": 0.00361, "expected_events": 0.0036, "normal_probability": 0.001534, "times_normal": 2.4}}, {"type": "Feature", "geometry": {"type": "Polygon", "coordinates": [[[36.5, 37.0], [36.75, 37.0], [36.75, 37.25], [36.5, 37.25], [36.5, 37.0]]]}, "properties": {"cell_id": 8046, "probability": 0.011916, "expected_events": 0.012, "normal_probability": 0.00286, "times_normal": 4.2}}, {"type": "Feature", "geometry": {"type": "Polygon", "coordinates": [[[36.75, 37.0], [37.0, 37.0], [37.0, 37.25], [36.75, 37.25], [36.75, 37.0]]]}, "properties": {"cell_id": 8047, "probability": 0.030103, "expected_events": 0.0306, "normal_probability": 0.003349, "times_normal": 9.0}}, {"type": "Feature", "geometry": {"type": "Polygon", "coordinates": [[[37.0, 37.0], [37.25, 37.0], [37.25, 37.25], [37.0, 37.25], [37.0, 37.0]]]}, "properties": {"cell_id": 8048, "probability": 0.023777, "expected_events": 0.0241, "normal_probability": 0.003953, "times_normal": 6.0}}, {"type": "Feature", "geometry": {"type": "Polygon", "coordinates": [[[37.25, 37.0], [37.5, 37.0], [37.5, 37.25], [37.25, 37.25], [37.25, 37.0]]]}, "properties": {"cell_id": 8049, "probability": 0.007476, "expected_events": 0.0075, "normal_probability": 0.002978, "times_normal": 2.5}}, {"type": "Feature", "geometry": {"type": "Polygon", "coordinates": [[[38.75, 37.0], [39.0, 37.0], [39.0, 37.25], [38.75, 37.25], [38.75, 37.0]]]}, "properties": {"cell_id": 8055, "probability": 0.004501, "expected_events": 0.0045, "normal_probability": 0.001213, "times_normal": 3.7}}, {"type": "Feature", "geometry": {"type": "Polygon", "coordinates": [[[39.0, 37.0], [39.25, 37.0], [39.25, 37.25], [39.0, 37.25], [39.0, 37.0]]]}, "properties": {"cell_id": 8056, "probability": 0.001827, "expected_events": 0.0018, "normal_probability": 0.000792, "times_normal": 2.3}}, {"type": "Feature", "geometry": {"type": "Polygon", "coordinates": [[[39.5, 37.0], [39.75, 37.0], [39.75, 37.25], [39.5, 37.25], [39.5, 37.0]]]}, "properties": {"cell_id": 8058, "probability": 0.000343, "expected_events": 0.0003, "normal_probability": 0.000171, "times_normal": 2.0}}, {"type": "Feature", "geometry": {"type": "Polygon", "coordinates": [[[39.75, 37.0], [40.0, 37.0], [40.0, 37.25], [39.75, 37.25], [39.75, 37.0]]]}, "properties": {"cell_id": 8059, "probability": 0.000317, "expected_events": 0.0003, "normal_probability": 9.3e-05, "times_normal": 3.4}}, {"type": "Feature", "geometry": {"type": "Polygon", "coordinates": [[[40.25, 37.0], [40.5, 37.0], [40.5, 37.25], [40.25, 37.25], [40.25, 37.0]]]}, "properties": {"cell_id": 8061, "probability": 0.000314, "expected_events": 0.0003, "normal_probability": 0.000124, "times_normal": 2.5}}, {"type": "Feature", "geometry": {"type": "Polygon", "coordinates": [[[40.75, 37.0], [41.0, 37.0], [41.0, 37.25], [40.75, 37.25], [40.75, 37.0]]]}, "properties": {"cell_id": 8063, "probability": 0.000314, "expected_events": 0.0003, "normal_probability": 0.000125, "times_normal": 2.5}}, {"type": "Feature", "geometry": {"type": "Polygon", "coordinates": [[[41.25, 37.0], [41.5, 37.0], [41.5, 37.25], [41.25, 37.25], [41.25, 37.0]]]}, "properties": {"cell_id": 8065, "probability": 0.000321, "expected_events": 0.0003, "normal_probability": 0.000109, "times_normal": 3.0}}, {"type": "Feature", "geometry": {"type": "Polygon", "coordinates": [[[33.0, 37.25], [33.25, 37.25], [33.25, 37.5], [33.0, 37.5], [33.0, 37.25]]]}, "properties": {"cell_id": 9032, "probability": 0.000313, "expected_events": 0.0003, "normal_probability": 0.000155, "times_normal": 2.0}}, {"type": "Feature", "geometry": {"type": "Polygon", "coordinates": [[[33.25, 37.25], [33.5, 37.25], [33.5, 37.5], [33.25, 37.5], [33.25, 37.25]]]}, "properties": {"cell_id": 9033, "probability": 0.000315, "expected_events": 0.0003, "normal_probability": 0.00011, "times_normal": 2.9}}, {"type": "Feature", "geometry": {"type": "Polygon", "coordinates": [[[33.5, 37.25], [33.75, 37.25], [33.75, 37.5], [33.5, 37.5], [33.5, 37.25]]]}, "properties": {"cell_id": 9034, "probability": 0.00036, "expected_events": 0.0004, "normal_probability": 8.1e-05, "times_normal": 4.5}}, {"type": "Feature", "geometry": {"type": "Polygon", "coordinates": [[[33.75, 37.25], [34.0, 37.25], [34.0, 37.5], [33.75, 37.5], [33.75, 37.25]]]}, "properties": {"cell_id": 9035, "probability": 0.000335, "expected_events": 0.0003, "normal_probability": 0.000109, "times_normal": 3.1}}, {"type": "Feature", "geometry": {"type": "Polygon", "coordinates": [[[34.25, 37.25], [34.5, 37.25], [34.5, 37.5], [34.25, 37.5], [34.25, 37.25]]]}, "properties": {"cell_id": 9037, "probability": 0.000948, "expected_events": 0.0009, "normal_probability": 0.000389, "times_normal": 2.4}}, {"type": "Feature", "geometry": {"type": "Polygon", "coordinates": [[[36.5, 37.25], [36.75, 37.25], [36.75, 37.5], [36.5, 37.5], [36.5, 37.25]]]}, "properties": {"cell_id": 9046, "probability": 0.008123, "expected_events": 0.0082, "normal_probability": 0.003311, "times_normal": 2.5}}, {"type": "Feature", "geometry": {"type": "Polygon", "coordinates": [[[36.75, 37.25], [37.0, 37.25], [37.0, 37.5], [36.75, 37.5], [36.75, 37.25]]]}, "properties": {"cell_id": 9047, "probability": 0.030421, "expected_events": 0.0309, "normal_probability": 0.003736, "times_normal": 8.1}}, {"type": "Feature", "geometry": {"type": "Polygon", "coordinates": [[[37.0, 37.25], [37.25, 37.25], [37.25, 37.5], [37.0, 37.5], [37.0, 37.25]]]}, "properties": {"cell_id": 9048, "probability": 0.034056, "expected_events": 0.0346, "normal_probability": 0.004588, "times_normal": 7.4}}, {"type": "Feature", "geometry": {"type": "Polygon", "coordinates": [[[37.25, 37.25], [37.5, 37.25], [37.5, 37.5], [37.25, 37.5], [37.25, 37.25]]]}, "properties": {"cell_id": 9049, "probability": 0.010412, "expected_events": 0.0105, "normal_probability": 0.003554, "times_normal": 2.9}}, {"type": "Feature", "geometry": {"type": "Polygon", "coordinates": [[[38.5, 37.25], [38.75, 37.25], [38.75, 37.5], [38.5, 37.5], [38.5, 37.25]]]}, "properties": {"cell_id": 9054, "probability": 0.015378, "expected_events": 0.0155, "normal_probability": 0.002141, "times_normal": 7.2}}, {"type": "Feature", "geometry": {"type": "Polygon", "coordinates": [[[38.75, 37.25], [39.0, 37.25], [39.0, 37.5], [38.75, 37.5], [38.75, 37.25]]]}, "properties": {"cell_id": 9055, "probability": 0.071952, "expected_events": 0.0747, "normal_probability": 0.001723, "times_normal": 41.8}}, {"type": "Feature", "geometry": {"type": "Polygon", "coordinates": [[[39.0, 37.25], [39.25, 37.25], [39.25, 37.5], [39.0, 37.5], [39.0, 37.25]]]}, "properties": {"cell_id": 9056, "probability": 0.013115, "expected_events": 0.0132, "normal_probability": 0.000862, "times_normal": 15.2}}, {"type": "Feature", "geometry": {"type": "Polygon", "coordinates": [[[39.25, 37.25], [39.5, 37.25], [39.5, 37.5], [39.25, 37.5], [39.25, 37.25]]]}, "properties": {"cell_id": 9057, "probability": 0.001173, "expected_events": 0.0012, "normal_probability": 0.000333, "times_normal": 3.5}}, {"type": "Feature", "geometry": {"type": "Polygon", "coordinates": [[[40.25, 37.25], [40.5, 37.25], [40.5, 37.5], [40.25, 37.5], [40.25, 37.25]]]}, "properties": {"cell_id": 9061, "probability": 0.000313, "expected_events": 0.0003, "normal_probability": 7.5e-05, "times_normal": 4.2}}, {"type": "Feature", "geometry": {"type": "Polygon", "coordinates": [[[40.5, 37.25], [40.75, 37.25], [40.75, 37.5], [40.5, 37.5], [40.5, 37.25]]]}, "properties": {"cell_id": 9062, "probability": 0.000313, "expected_events": 0.0003, "normal_probability": 0.000106, "times_normal": 2.9}}, {"type": "Feature", "geometry": {"type": "Polygon", "coordinates": [[[40.75, 37.25], [41.0, 37.25], [41.0, 37.5], [40.75, 37.5], [40.75, 37.25]]]}, "properties": {"cell_id": 9063, "probability": 0.000313, "expected_events": 0.0003, "normal_probability": 0.000114, "times_normal": 2.7}}, {"type": "Feature", "geometry": {"type": "Polygon", "coordinates": [[[41.75, 37.25], [42.0, 37.25], [42.0, 37.5], [41.75, 37.5], [41.75, 37.25]]]}, "properties": {"cell_id": 9067, "probability": 0.000815, "expected_events": 0.0008, "normal_probability": 0.000291, "times_normal": 2.8}}, {"type": "Feature", "geometry": {"type": "Polygon", "coordinates": [[[33.0, 37.5], [33.25, 37.5], [33.25, 37.75], [33.0, 37.75], [33.0, 37.5]]]}, "properties": {"cell_id": 10032, "probability": 0.000318, "expected_events": 0.0003, "normal_probability": 0.000136, "times_normal": 2.3}}, {"type": "Feature", "geometry": {"type": "Polygon", "coordinates": [[[33.25, 37.5], [33.5, 37.5], [33.5, 37.75], [33.25, 37.75], [33.25, 37.5]]]}, "properties": {"cell_id": 10033, "probability": 0.000321, "expected_events": 0.0003, "normal_probability": 0.000119, "times_normal": 2.7}}, {"type": "Feature", "geometry": {"type": "Polygon", "coordinates": [[[36.0, 37.5], [36.25, 37.5], [36.25, 37.75], [36.0, 37.75], [36.0, 37.5]]]}, "properties": {"cell_id": 10044, "probability": 0.010457, "expected_events": 0.0105, "normal_probability": 0.004002, "times_normal": 2.6}}, {"type": "Feature", "geometry": {"type": "Polygon", "coordinates": [[[36.75, 37.5], [37.0, 37.5], [37.0, 37.75], [36.75, 37.75], [36.75, 37.5]]]}, "properties": {"cell_id": 10047, "probability": 0.006462, "expected_events": 0.0065, "normal_probability": 0.002027, "times_normal": 3.2}}, {"type": "Feature", "geometry": {"type": "Polygon", "coordinates": [[[37.0, 37.5], [37.25, 37.5], [37.25, 37.75], [37.0, 37.75], [37.0, 37.5]]]}, "properties": {"cell_id": 10048, "probability": 0.011239, "expected_events": 0.0113, "normal_probability": 0.002409, "times_normal": 4.7}}, {"type": "Feature", "geometry": {"type": "Polygon", "coordinates": [[[37.25, 37.5], [37.5, 37.5], [37.5, 37.75], [37.25, 37.75], [37.25, 37.5]]]}, "properties": {"cell_id": 10049, "probability": 0.007929, "expected_events": 0.008, "normal_probability": 0.002192, "times_normal": 3.6}}, {"type": "Feature", "geometry": {"type": "Polygon", "coordinates": [[[38.5, 37.5], [38.75, 37.5], [38.75, 37.75], [38.5, 37.75], [38.5, 37.5]]]}, "properties": {"cell_id": 10054, "probability": 0.004772, "expected_events": 0.0048, "normal_probability": 0.002295, "times_normal": 2.1}}, {"type": "Feature", "geometry": {"type": "Polygon", "coordinates": [[[38.75, 37.5], [39.0, 37.5], [39.0, 37.75], [38.75, 37.75], [38.75, 37.5]]]}, "properties": {"cell_id": 10055, "probability": 0.016428, "expected_events": 0.0166, "normal_probability": 0.001722, "times_normal": 9.5}}, {"type": "Feature", "geometry": {"type": "Polygon", "coordinates": [[[39.0, 37.5], [39.25, 37.5], [39.25, 37.75], [39.0, 37.75], [39.0, 37.5]]]}, "properties": {"cell_id": 10056, "probability": 0.004182, "expected_events": 0.0042, "normal_probability": 0.000852, "times_normal": 4.9}}, {"type": "Feature", "geometry": {"type": "Polygon", "coordinates": [[[40.5, 37.5], [40.75, 37.5], [40.75, 37.75], [40.5, 37.75], [40.5, 37.5]]]}, "properties": {"cell_id": 10062, "probability": 0.000312, "expected_events": 0.0003, "normal_probability": 9.4e-05, "times_normal": 3.3}}, {"type": "Feature", "geometry": {"type": "Polygon", "coordinates": [[[40.75, 37.5], [41.0, 37.5], [41.0, 37.75], [40.75, 37.75], [40.75, 37.5]]]}, "properties": {"cell_id": 10063, "probability": 0.000312, "expected_events": 0.0003, "normal_probability": 0.000132, "times_normal": 2.4}}, {"type": "Feature", "geometry": {"type": "Polygon", "coordinates": [[[33.0, 37.75], [33.25, 37.75], [33.25, 38.0], [33.0, 38.0], [33.0, 37.75]]]}, "properties": {"cell_id": 11032, "probability": 0.000358, "expected_events": 0.0004, "normal_probability": 0.00016, "times_normal": 2.2}}, {"type": "Feature", "geometry": {"type": "Polygon", "coordinates": [[[33.25, 37.75], [33.5, 37.75], [33.5, 38.0], [33.25, 38.0], [33.25, 37.75]]]}, "properties": {"cell_id": 11033, "probability": 0.000386, "expected_events": 0.0004, "normal_probability": 0.000174, "times_normal": 2.2}}, {"type": "Feature", "geometry": {"type": "Polygon", "coordinates": [[[35.75, 37.75], [36.0, 37.75], [36.0, 38.0], [35.75, 38.0], [35.75, 37.75]]]}, "properties": {"cell_id": 11043, "probability": 0.003652, "expected_events": 0.0037, "normal_probability": 0.001602, "times_normal": 2.3}}, {"type": "Feature", "geometry": {"type": "Polygon", "coordinates": [[[36.0, 37.75], [36.25, 37.75], [36.25, 38.0], [36.0, 38.0], [36.0, 37.75]]]}, "properties": {"cell_id": 11044, "probability": 0.034906, "expected_events": 0.0355, "normal_probability": 0.001828, "times_normal": 19.1}}, {"type": "Feature", "geometry": {"type": "Polygon", "coordinates": [[[36.25, 37.75], [36.5, 37.75], [36.5, 38.0], [36.25, 38.0], [36.25, 37.75]]]}, "properties": {"cell_id": 11045, "probability": 0.028828, "expected_events": 0.0293, "normal_probability": 0.001673, "times_normal": 17.2}}, {"type": "Feature", "geometry": {"type": "Polygon", "coordinates": [[[36.5, 37.75], [36.75, 37.75], [36.75, 38.0], [36.5, 38.0], [36.5, 37.75]]]}, "properties": {"cell_id": 11046, "probability": 0.013334, "expected_events": 0.0134, "normal_probability": 0.001187, "times_normal": 11.2}}, {"type": "Feature", "geometry": {"type": "Polygon", "coordinates": [[[36.75, 37.75], [37.0, 37.75], [37.0, 38.0], [36.75, 38.0], [36.75, 37.75]]]}, "properties": {"cell_id": 11047, "probability": 0.006402, "expected_events": 0.0064, "normal_probability": 0.000934, "times_normal": 6.9}}, {"type": "Feature", "geometry": {"type": "Polygon", "coordinates": [[[37.0, 37.75], [37.25, 37.75], [37.25, 38.0], [37.0, 38.0], [37.0, 37.75]]]}, "properties": {"cell_id": 11048, "probability": 0.013196, "expected_events": 0.0133, "normal_probability": 0.001051, "times_normal": 12.6}}, {"type": "Feature", "geometry": {"type": "Polygon", "coordinates": [[[37.25, 37.75], [37.5, 37.75], [37.5, 38.0], [37.25, 38.0], [37.25, 37.75]]]}, "properties": {"cell_id": 11049, "probability": 0.016108, "expected_events": 0.0162, "normal_probability": 0.001227, "times_normal": 13.1}}, {"type": "Feature", "geometry": {"type": "Polygon", "coordinates": [[[37.5, 37.75], [37.75, 37.75], [37.75, 38.0], [37.5, 38.0], [37.5, 37.75]]]}, "properties": {"cell_id": 11050, "probability": 0.012787, "expected_events": 0.0129, "normal_probability": 0.001364, "times_normal": 9.4}}, {"type": "Feature", "geometry": {"type": "Polygon", "coordinates": [[[37.75, 37.75], [38.0, 37.75], [38.0, 38.0], [37.75, 38.0], [37.75, 37.75]]]}, "properties": {"cell_id": 11051, "probability": 0.006209, "expected_events": 0.0062, "normal_probability": 0.001613, "times_normal": 3.8}}, {"type": "Feature", "geometry": {"type": "Polygon", "coordinates": [[[32.5, 38.0], [32.75, 38.0], [32.75, 38.25], [32.5, 38.25], [32.5, 38.0]]]}, "properties": {"cell_id": 12030, "probability": 0.001009, "expected_events": 0.001, "normal_probability": 0.000382, "times_normal": 2.6}}, {"type": "Feature", "geometry": {"type": "Polygon", "coordinates": [[[33.0, 38.0], [33.25, 38.0], [33.25, 38.25], [33.0, 38.25], [33.0, 38.0]]]}, "properties": {"cell_id": 12032, "probability": 0.000318, "expected_events": 0.0003, "normal_probability": 0.000151, "times_normal": 2.1}}, {"type": "Feature", "geometry": {"type": "Polygon", "coordinates": [[[36.0, 38.0], [36.25, 38.0], [36.25, 38.25], [36.0, 38.25], [36.0, 38.0]]]}, "properties": {"cell_id": 12044, "probability": 0.003671, "expected_events": 0.0037, "normal_probability": 0.000551, "times_normal": 6.7}}, {"type": "Feature", "geometry": {"type": "Polygon", "coordinates": [[[36.25, 38.0], [36.5, 38.0], [36.5, 38.25], [36.25, 38.25], [36.25, 38.0]]]}, "properties": {"cell_id": 12045, "probability": 0.014167, "expected_events": 0.0143, "normal_probability": 0.0006, "times_normal": 23.6}}, {"type": "Feature", "geometry": {"type": "Polygon", "coordinates": [[[36.5, 38.0], [36.75, 38.0], [36.75, 38.25], [36.5, 38.25], [36.5, 38.0]]]}, "properties": {"cell_id": 12046, "probability": 0.017221, "expected_events": 0.0174, "normal_probability": 0.000557, "times_normal": 30.9}}, {"type": "Feature", "geometry": {"type": "Polygon", "coordinates": [[[36.75, 38.0], [37.0, 38.0], [37.0, 38.25], [36.75, 38.25], [36.75, 38.0]]]}, "properties": {"cell_id": 12047, "probability": 0.012317, "expected_events": 0.0124, "normal_probability": 0.000539, "times_normal": 22.9}}, {"type": "Feature", "geometry": {"type": "Polygon", "coordinates": [[[37.0, 38.0], [37.25, 38.0], [37.25, 38.25], [37.0, 38.25], [37.0, 38.0]]]}, "properties": {"cell_id": 12048, "probability": 0.0256, "expected_events": 0.0259, "normal_probability": 0.000616, "times_normal": 41.5}}, {"type": "Feature", "geometry": {"type": "Polygon", "coordinates": [[[37.25, 38.0], [37.5, 38.0], [37.5, 38.25], [37.25, 38.25], [37.25, 38.0]]]}, "properties": {"cell_id": 12049, "probability": 0.026753, "expected_events": 0.0271, "normal_probability": 0.000742, "times_normal": 36.1}}, {"type": "Feature", "geometry": {"type": "Polygon", "coordinates": [[[37.5, 38.0], [37.75, 38.0], [37.75, 38.25], [37.5, 38.25], [37.5, 38.0]]]}, "properties": {"cell_id": 12050, "probability": 0.015556, "expected_events": 0.0157, "normal_probability": 0.00094, "times_normal": 16.6}}, {"type": "Feature", "geometry": {"type": "Polygon", "coordinates": [[[37.75, 38.0], [38.0, 38.0], [38.0, 38.25], [37.75, 38.25], [37.75, 38.0]]]}, "properties": {"cell_id": 12051, "probability": 0.012519, "expected_events": 0.0126, "normal_probability": 0.001284, "times_normal": 9.7}}, {"type": "Feature", "geometry": {"type": "Polygon", "coordinates": [[[38.0, 38.0], [38.25, 38.0], [38.25, 38.25], [38.0, 38.25], [38.0, 38.0]]]}, "properties": {"cell_id": 12052, "probability": 0.011995, "expected_events": 0.0121, "normal_probability": 0.001817, "times_normal": 6.6}}, {"type": "Feature", "geometry": {"type": "Polygon", "coordinates": [[[38.25, 38.0], [38.5, 38.0], [38.5, 38.25], [38.25, 38.25], [38.25, 38.0]]]}, "properties": {"cell_id": 12053, "probability": 0.024359, "expected_events": 0.0247, "normal_probability": 0.00271, "times_normal": 9.0}}, {"type": "Feature", "geometry": {"type": "Polygon", "coordinates": [[[38.5, 38.0], [38.75, 38.0], [38.75, 38.25], [38.5, 38.25], [38.5, 38.0]]]}, "properties": {"cell_id": 12054, "probability": 0.027036, "expected_events": 0.0274, "normal_probability": 0.003969, "times_normal": 6.8}}, {"type": "Feature", "geometry": {"type": "Polygon", "coordinates": [[[33.0, 38.25], [33.25, 38.25], [33.25, 38.5], [33.0, 38.5], [33.0, 38.25]]]}, "properties": {"cell_id": 13032, "probability": 0.000437, "expected_events": 0.0004, "normal_probability": 0.000182, "times_normal": 2.4}}, {"type": "Feature", "geometry": {"type": "Polygon", "coordinates": [[[36.0, 38.25], [36.25, 38.25], [36.25, 38.5], [36.0, 38.5], [36.0, 38.25]]]}, "properties": {"cell_id": 13044, "probability": 0.000612, "expected_events": 0.0006, "normal_probability": 0.000297, "times_normal": 2.1}}, {"type": "Feature", "geometry": {"type": "Polygon", "coordinates": [[[36.25, 38.25], [36.5, 38.25], [36.5, 38.5], [36.25, 38.5], [36.25, 38.25]]]}, "properties": {"cell_id": 13045, "probability": 0.001393, "expected_events": 0.0014, "normal_probability": 0.000364, "times_normal": 3.8}}, {"type": "Feature", "geometry": {"type": "Polygon", "coordinates": [[[36.5, 38.25], [36.75, 38.25], [36.75, 38.5], [36.5, 38.5], [36.5, 38.25]]]}, "properties": {"cell_id": 13046, "probability": 0.001933, "expected_events": 0.0019, "normal_probability": 0.000433, "times_normal": 4.5}}, {"type": "Feature", "geometry": {"type": "Polygon", "coordinates": [[[36.75, 38.25], [37.0, 38.25], [37.0, 38.5], [36.75, 38.5], [36.75, 38.25]]]}, "properties": {"cell_id": 13047, "probability": 0.003053, "expected_events": 0.0031, "normal_probability": 0.000488, "times_normal": 6.3}}, {"type": "Feature", "geometry": {"type": "Polygon", "coordinates": [[[37.0, 38.25], [37.25, 38.25], [37.25, 38.5], [37.0, 38.5], [37.0, 38.25]]]}, "properties": {"cell_id": 13048, "probability": 0.006668, "expected_events": 0.0067, "normal_probability": 0.000563, "times_normal": 11.8}}, {"type": "Feature", "geometry": {"type": "Polygon", "coordinates": [[[37.25, 38.25], [37.5, 38.25], [37.5, 38.5], [37.25, 38.5], [37.25, 38.25]]]}, "properties": {"cell_id": 13049, "probability": 0.007435, "expected_events": 0.0075, "normal_probability": 0.000615, "times_normal": 12.1}}, {"type": "Feature", "geometry": {"type": "Polygon", "coordinates": [[[37.5, 38.25], [37.75, 38.25], [37.75, 38.5], [37.5, 38.5], [37.5, 38.25]]]}, "properties": {"cell_id": 13050, "probability": 0.004498, "expected_events": 0.0045, "normal_probability": 0.00063, "times_normal": 7.1}}, {"type": "Feature", "geometry": {"type": "Polygon", "coordinates": [[[37.75, 38.25], [38.0, 38.25], [38.0, 38.5], [37.75, 38.5], [37.75, 38.25]]]}, "properties": {"cell_id": 13051, "probability": 0.005731, "expected_events": 0.0057, "normal_probability": 0.000716, "times_normal": 8.0}}, {"type": "Feature", "geometry": {"type": "Polygon", "coordinates": [[[38.0, 38.25], [38.25, 38.25], [38.25, 38.5], [38.0, 38.5], [38.0, 38.25]]]}, "properties": {"cell_id": 13052, "probability": 0.010193, "expected_events": 0.0102, "normal_probability": 0.001053, "times_normal": 9.7}}, {"type": "Feature", "geometry": {"type": "Polygon", "coordinates": [[[38.25, 38.25], [38.5, 38.25], [38.5, 38.5], [38.25, 38.5], [38.25, 38.25]]]}, "properties": {"cell_id": 13053, "probability": 0.013676, "expected_events": 0.0138, "normal_probability": 0.001949, "times_normal": 7.0}}, {"type": "Feature", "geometry": {"type": "Polygon", "coordinates": [[[38.5, 38.25], [38.75, 38.25], [38.75, 38.5], [38.5, 38.5], [38.5, 38.25]]]}, "properties": {"cell_id": 13054, "probability": 0.021423, "expected_events": 0.0217, "normal_probability": 0.003768, "times_normal": 5.7}}, {"type": "Feature", "geometry": {"type": "Polygon", "coordinates": [[[38.75, 38.25], [39.0, 38.25], [39.0, 38.5], [38.75, 38.5], [38.75, 38.25]]]}, "properties": {"cell_id": 13055, "probability": 0.012713, "expected_events": 0.0128, "normal_probability": 0.006346, "times_normal": 2.0}}, {"type": "Feature", "geometry": {"type": "Polygon", "coordinates": [[[36.25, 38.5], [36.5, 38.5], [36.5, 38.75], [36.25, 38.75], [36.25, 38.5]]]}, "properties": {"cell_id": 14045, "probability": 0.001546, "expected_events": 0.0015, "normal_probability": 0.000356, "times_normal": 4.3}}, {"type": "Feature", "geometry": {"type": "Polygon", "coordinates": [[[36.5, 38.5], [36.75, 38.5], [36.75, 38.75], [36.5, 38.75], [36.5, 38.5]]]}, "properties": {"cell_id": 14046, "probability": 0.002829, "expected_events": 0.0028, "normal_probability": 0.000408, "times_normal": 6.9}}, {"type": "Feature", "geometry": {"type": "Polygon", "coordinates": [[[37.25, 38.5], [37.5, 38.5], [37.5, 38.75], [37.25, 38.75], [37.25, 38.5]]]}, "properties": {"cell_id": 14049, "probability": 0.001472, "expected_events": 0.0015, "normal_probability": 0.000613, "times_normal": 2.4}}, {"type": "Feature", "geometry": {"type": "Polygon", "coordinates": [[[36.25, 38.75], [36.5, 38.75], [36.5, 39.0], [36.25, 39.0], [36.25, 38.75]]]}, "properties": {"cell_id": 15045, "probability": 0.001269, "expected_events": 0.0013, "normal_probability": 0.000509, "times_normal": 2.5}}, {"type": "Feature", "geometry": {"type": "Polygon", "coordinates": [[[36.5, 38.75], [36.75, 38.75], [36.75, 39.0], [36.5, 39.0], [36.5, 38.75]]]}, "properties": {"cell_id": 15046, "probability": 0.002826, "expected_events": 0.0028, "normal_probability": 0.000423, "times_normal": 6.7}}, {"type": "Feature", "geometry": {"type": "Polygon", "coordinates": [[[37.25, 38.75], [37.5, 38.75], [37.5, 39.0], [37.25, 39.0], [37.25, 38.75]]]}, "properties": {"cell_id": 15049, "probability": 0.002064, "expected_events": 0.0021, "normal_probability": 0.000604, "times_normal": 3.4}}, {"type": "Feature", "geometry": {"type": "Polygon", "coordinates": [[[28.0, 39.0], [28.25, 39.0], [28.25, 39.25], [28.0, 39.25], [28.0, 39.0]]]}, "properties": {"cell_id": 16012, "probability": 0.072765, "expected_events": 0.0755, "normal_probability": 0.007782, "times_normal": 9.3}}, {"type": "Feature", "geometry": {"type": "Polygon", "coordinates": [[[28.25, 39.0], [28.5, 39.0], [28.5, 39.25], [28.25, 39.25], [28.25, 39.0]]]}, "properties": {"cell_id": 16013, "probability": 0.040304, "expected_events": 0.0411, "normal_probability": 0.005196, "times_normal": 7.8}}, {"type": "Feature", "geometry": {"type": "Polygon", "coordinates": [[[28.0, 39.25], [28.25, 39.25], [28.25, 39.5], [28.0, 39.5], [28.0, 39.25]]]}, "properties": {"cell_id": 17012, "probability": 0.028813, "expected_events": 0.0292, "normal_probability": 0.00784, "times_normal": 3.7}}, {"type": "Feature", "geometry": {"type": "Polygon", "coordinates": [[[35.75, 40.0], [36.0, 40.0], [36.0, 40.25], [35.75, 40.25], [35.75, 40.0]]]}, "properties": {"cell_id": 20043, "probability": 0.002452, "expected_events": 0.0025, "normal_probability": 0.000818, "times_normal": 3.0}}, {"type": "Feature", "geometry": {"type": "Polygon", "coordinates": [[[36.0, 40.0], [36.25, 40.0], [36.25, 40.25], [36.0, 40.25], [36.0, 40.0]]]}, "properties": {"cell_id": 20044, "probability": 0.001759, "expected_events": 0.0018, "normal_probability": 0.000627, "times_normal": 2.8}}, {"type": "Feature", "geometry": {"type": "Polygon", "coordinates": [[[36.5, 40.5], [36.75, 40.5], [36.75, 40.75], [36.5, 40.75], [36.5, 40.5]]]}, "properties": {"cell_id": 22046, "probability": 0.003171, "expected_events": 0.0032, "normal_probability": 0.001167, "times_normal": 2.7}}, {"type": "Feature", "geometry": {"type": "Polygon", "coordinates": [[[36.75, 40.5], [37.0, 40.5], [37.0, 40.75], [36.75, 40.75], [36.75, 40.5]]]}, "properties": {"cell_id": 22047, "probability": 0.006844, "expected_events": 0.0069, "normal_probability": 0.001174, "times_normal": 5.8}}, {"type": "Feature", "geometry": {"type": "Polygon", "coordinates": [[[37.75, 40.75], [38.0, 40.75], [38.0, 41.0], [37.75, 41.0], [37.75, 40.75]]]}, "properties": {"cell_id": 23051, "probability": 0.000298, "expected_events": 0.0003, "normal_probability": 0.000134, "times_normal": 2.2}}, {"type": "Feature", "geometry": {"type": "Polygon", "coordinates": [[[39.75, 40.75], [40.0, 40.75], [40.0, 41.0], [39.75, 41.0], [39.75, 40.75]]]}, "properties": {"cell_id": 23059, "probability": 0.000301, "expected_events": 0.0003, "normal_probability": 0.00014, "times_normal": 2.2}}, {"type": "Feature", "geometry": {"type": "Polygon", "coordinates": [[[40.75, 40.75], [41.0, 40.75], [41.0, 41.0], [40.75, 41.0], [40.75, 40.75]]]}, "properties": {"cell_id": 23063, "probability": 0.000565, "expected_events": 0.0006, "normal_probability": 0.000172, "times_normal": 3.3}}, {"type": "Feature", "geometry": {"type": "Polygon", "coordinates": [[[41.0, 40.75], [41.25, 40.75], [41.25, 41.0], [41.0, 41.0], [41.0, 40.75]]]}, "properties": {"cell_id": 23064, "probability": 0.00035, "expected_events": 0.0003, "normal_probability": 0.000144, "times_normal": 2.4}}, {"type": "Feature", "geometry": {"type": "Polygon", "coordinates": [[[41.25, 40.75], [41.5, 40.75], [41.5, 41.0], [41.25, 41.0], [41.25, 40.75]]]}, "properties": {"cell_id": 23065, "probability": 0.000301, "expected_events": 0.0003, "normal_probability": 0.000112, "times_normal": 2.7}}, {"type": "Feature", "geometry": {"type": "Polygon", "coordinates": [[[41.5, 40.75], [41.75, 40.75], [41.75, 41.0], [41.5, 41.0], [41.5, 40.75]]]}, "properties": {"cell_id": 23066, "probability": 0.000298, "expected_events": 0.0003, "normal_probability": 0.000132, "times_normal": 2.3}}, {"type": "Feature", "geometry": {"type": "Polygon", "coordinates": [[[33.5, 41.0], [33.75, 41.0], [33.75, 41.25], [33.5, 41.25], [33.5, 41.0]]]}, "properties": {"cell_id": 24034, "probability": 0.002682, "expected_events": 0.0027, "normal_probability": 0.001032, "times_normal": 2.6}}, {"type": "Feature", "geometry": {"type": "Polygon", "coordinates": [[[37.25, 41.0], [37.5, 41.0], [37.5, 41.25], [37.25, 41.25], [37.25, 41.0]]]}, "properties": {"cell_id": 24049, "probability": 0.000363, "expected_events": 0.0004, "normal_probability": 0.000103, "times_normal": 3.5}}, {"type": "Feature", "geometry": {"type": "Polygon", "coordinates": [[[40.75, 41.0], [41.0, 41.0], [41.0, 41.25], [40.75, 41.25], [40.75, 41.0]]]}, "properties": {"cell_id": 24063, "probability": 0.000572, "expected_events": 0.0006, "normal_probability": 0.000177, "times_normal": 3.2}}, {"type": "Feature", "geometry": {"type": "Polygon", "coordinates": [[[41.5, 41.0], [41.75, 41.0], [41.75, 41.25], [41.5, 41.25], [41.5, 41.0]]]}, "properties": {"cell_id": 24066, "probability": 0.000297, "expected_events": 0.0003, "normal_probability": 9.3e-05, "times_normal": 3.2}}, {"type": "Feature", "geometry": {"type": "Polygon", "coordinates": [[[28.5, 41.25], [28.75, 41.25], [28.75, 41.5], [28.5, 41.5], [28.5, 41.25]]]}, "properties": {"cell_id": 25014, "probability": 0.000454, "expected_events": 0.0005, "normal_probability": 0.000167, "times_normal": 2.7}}, {"type": "Feature", "geometry": {"type": "Polygon", "coordinates": [[[28.75, 41.25], [29.0, 41.25], [29.0, 41.5], [28.75, 41.5], [28.75, 41.25]]]}, "properties": {"cell_id": 25015, "probability": 0.000332, "expected_events": 0.0003, "normal_probability": 0.000151, "times_normal": 2.2}}, {"type": "Feature", "geometry": {"type": "Polygon", "coordinates": [[[41.5, 41.25], [41.75, 41.25], [41.75, 41.5], [41.5, 41.5], [41.5, 41.25]]]}, "properties": {"cell_id": 25066, "probability": 0.000295, "expected_events": 0.0003, "normal_probability": 0.000136, "times_normal": 2.2}}, {"type": "Feature", "geometry": {"type": "Polygon", "coordinates": [[[28.0, 41.5], [28.25, 41.5], [28.25, 41.75], [28.0, 41.75], [28.0, 41.5]]]}, "properties": {"cell_id": 26012, "probability": 0.000298, "expected_events": 0.0003, "normal_probability": 0.000148, "times_normal": 2.0}}, {"type": "Feature", "geometry": {"type": "Polygon", "coordinates": [[[34.0, 41.5], [34.25, 41.5], [34.25, 41.75], [34.0, 41.75], [34.0, 41.5]]]}, "properties": {"cell_id": 26036, "probability": 0.000295, "expected_events": 0.0003, "normal_probability": 0.00013, "times_normal": 2.3}}, {"type": "Feature", "geometry": {"type": "Polygon", "coordinates": [[[34.5, 41.5], [34.75, 41.5], [34.75, 41.75], [34.5, 41.75], [34.5, 41.5]]]}, "properties": {"cell_id": 26038, "probability": 0.000295, "expected_events": 0.0003, "normal_probability": 0.000113, "times_normal": 2.6}}, {"type": "Feature", "geometry": {"type": "Polygon", "coordinates": [[[35.25, 41.5], [35.5, 41.5], [35.5, 41.75], [35.25, 41.75], [35.25, 41.5]]]}, "properties": {"cell_id": 26041, "probability": 0.000294, "expected_events": 0.0003, "normal_probability": 0.00012, "times_normal": 2.5}}, {"type": "Feature", "geometry": {"type": "Polygon", "coordinates": [[[28.0, 41.75], [28.25, 41.75], [28.25, 42.0], [28.0, 42.0], [28.0, 41.75]]]}, "properties": {"cell_id": 27012, "probability": 0.000293, "expected_events": 0.0003, "normal_probability": 9.4e-05, "times_normal": 3.1}}, {"type": "Feature", "geometry": {"type": "Polygon", "coordinates": [[[33.25, 41.75], [33.5, 41.75], [33.5, 42.0], [33.25, 42.0], [33.25, 41.75]]]}, "properties": {"cell_id": 27033, "probability": 0.000293, "expected_events": 0.0003, "normal_probability": 0.000138, "times_normal": 2.1}}, {"type": "Feature", "geometry": {"type": "Polygon", "coordinates": [[[33.5, 41.75], [33.75, 41.75], [33.75, 42.0], [33.5, 42.0], [33.5, 41.75]]]}, "properties": {"cell_id": 27034, "probability": 0.000293, "expected_events": 0.0003, "normal_probability": 0.000137, "times_normal": 2.1}}, {"type": "Feature", "geometry": {"type": "Polygon", "coordinates": [[[33.75, 41.75], [34.0, 41.75], [34.0, 42.0], [33.75, 42.0], [33.75, 41.75]]]}, "properties": {"cell_id": 27035, "probability": 0.000293, "expected_events": 0.0003, "normal_probability": 0.000107, "times_normal": 2.7}}, {"type": "Feature", "geometry": {"type": "Polygon", "coordinates": [[[34.0, 41.75], [34.25, 41.75], [34.25, 42.0], [34.0, 42.0], [34.0, 41.75]]]}, "properties": {"cell_id": 27036, "probability": 0.000293, "expected_events": 0.0003, "normal_probability": 9.5e-05, "times_normal": 3.1}}, {"type": "Feature", "geometry": {"type": "Polygon", "coordinates": [[[34.25, 41.75], [34.5, 41.75], [34.5, 42.0], [34.25, 42.0], [34.25, 41.75]]]}, "properties": {"cell_id": 27037, "probability": 0.000293, "expected_events": 0.0003, "normal_probability": 9.4e-05, "times_normal": 3.1}}, {"type": "Feature", "geometry": {"type": "Polygon", "coordinates": [[[34.75, 41.75], [35.0, 41.75], [35.0, 42.0], [34.75, 42.0], [34.75, 41.75]]]}, "properties": {"cell_id": 27039, "probability": 0.000293, "expected_events": 0.0003, "normal_probability": 5.2e-05, "times_normal": 5.6}}, {"type": "Feature", "geometry": {"type": "Polygon", "coordinates": [[[27.0, 42.0], [27.25, 42.0], [27.25, 42.25], [27.0, 42.25], [27.0, 42.0]]]}, "properties": {"cell_id": 28008, "probability": 0.000292, "expected_events": 0.0003, "normal_probability": 0.000102, "times_normal": 2.9}}, {"type": "Feature", "geometry": {"type": "Polygon", "coordinates": [[[33.25, 42.0], [33.5, 42.0], [33.5, 42.25], [33.25, 42.25], [33.25, 42.0]]]}, "properties": {"cell_id": 28033, "probability": 0.000292, "expected_events": 0.0003, "normal_probability": 9.5e-05, "times_normal": 3.1}}, {"type": "Feature", "geometry": {"type": "Polygon", "coordinates": [[[35.0, 42.0], [35.25, 42.0], [35.25, 42.25], [35.0, 42.25], [35.0, 42.0]]]}, "properties": {"cell_id": 28040, "probability": 0.000292, "expected_events": 0.0003, "normal_probability": 3.6e-05, "times_normal": 8.2}}]}