{"type": "FeatureCollection", "properties": {"origin": "2026-08-29T17:00:00Z", "window_days": 30, "target_magnitude": 4.5, "model": "ETAS", "mode": "live", "fingerprint": {"method": "analytic-branching", "etas_params_sha256": "35958f30919b5e6ab7340baf05be24aae941dda95de831d3a23decfc8d843027", "catalog_sha256": "ce244ce227809e45702a5037f82c3729e329f75a773f3c0fcf52d918562ae668", "catalog_last_event": "2026-08-29 15:28:28+00:00", "branching_nominal": 0.8209, "branching_effective": 0.8125, "commit": "7d9ee9eb997c48dc13921e65d6f9aedb5cbbce10", "worktree": "clean", "randomness": "none in the branching computation; the ETAS state EM step is SEEDED from the origin date"}, "min_times_normal": 2.0, "kapsam": {"izgara_hucre": 2560, "kapsam_disi_elenen": 1116, "sinir_kaynagi": "Natural Earth 10m admin-0 countries", "lisans": "Natural Earth — kamu malı (public domain)", "kaynak_sha256": "239eec57ac17f100a11e2536cffc56752c318b50ae765b0918ff7aab4ce8f255", "sinir_sha256": "6526abdc33181eedaafb4975d68732102d7805b0de5c5307401f15ec181a1e90", "tampon_derece": 0.125, "gerekce": "katalog tamlığı sınır dışında ölçülmüş biçimde düşüktür (küçük olayların ~%46'sı kayıtsız); temel oran düşük kestirildiği için 'normalin kaç katı' şişer -- V43"}, "cells_before_threshold": 1444, "cells_published": 129, "disclaimer": "Bu bir OLASILIK tahminidir, kesin deprem tahmini değildir. Belirli bir tarih, yer ve büyüklükte deprem olacağını öngörmez ve bilimsel olarak böyle bir öngörü mümkün değildir. Verilen değerler, belirtilen zaman penceresinde ilgili hücrede eşik büyüklüğün üzerinde deprem olma olasılığıdır. Yöntem ve sınırlılıklar: metodoloji.html"}, "features": [{"type": "Feature", "geometry": {"type": "Polygon", "coordinates": [[[35.75, 35.75], [36.0, 35.75], [36.0, 36.0], [35.75, 36.0], [35.75, 35.75]]]}, "properties": {"cell_id": 3043, "probability": 0.002776, "expected_events": 0.0028, "normal_probability": 0.001337, "times_normal": 2.1}}, {"type": "Feature", "geometry": {"type": "Polygon", "coordinates": [[[36.0, 35.75], [36.25, 35.75], [36.25, 36.0], [36.0, 36.0], [36.0, 35.75]]]}, "properties": {"cell_id": 3044, "probability": 0.002575, "expected_events": 0.0026, "normal_probability": 0.001246, "times_normal": 2.1}}, {"type": "Feature", "geometry": {"type": "Polygon", "coordinates": [[[33.0, 36.0], [33.25, 36.0], [33.25, 36.25], [33.0, 36.25], [33.0, 36.0]]]}, "properties": {"cell_id": 4032, "probability": 0.000322, "expected_events": 0.0003, "normal_probability": 0.000102, "times_normal": 3.1}}, {"type": "Feature", "geometry": {"type": "Polygon", "coordinates": [[[35.75, 36.0], [36.0, 36.0], [36.0, 36.25], [35.75, 36.25], [35.75, 36.0]]]}, "properties": {"cell_id": 4043, "probability": 0.007887, "expected_events": 0.0079, "normal_probability": 0.002151, "times_normal": 3.7}}, {"type": "Feature", "geometry": {"type": "Polygon", "coordinates": [[[36.0, 36.0], [36.25, 36.0], [36.25, 36.25], [36.0, 36.25], [36.0, 36.0]]]}, "properties": {"cell_id": 4044, "probability": 0.00835, "expected_events": 0.0084, "normal_probability": 0.001979, "times_normal": 4.2}}, {"type": "Feature", "geometry": {"type": "Polygon", "coordinates": [[[33.0, 36.25], [33.25, 36.25], [33.25, 36.5], [33.0, 36.5], [33.0, 36.25]]]}, "properties": {"cell_id": 5032, "probability": 0.000339, "expected_events": 0.0003, "normal_probability": 4.3e-05, "times_normal": 7.9}}, {"type": "Feature", "geometry": {"type": "Polygon", "coordinates": [[[36.0, 36.25], [36.25, 36.25], [36.25, 36.5], [36.0, 36.5], [36.0, 36.25]]]}, "properties": {"cell_id": 5044, "probability": 0.004517, "expected_events": 0.0045, "normal_probability": 0.001777, "times_normal": 2.5}}, {"type": "Feature", "geometry": {"type": "Polygon", "coordinates": [[[36.25, 36.25], [36.5, 36.25], [36.5, 36.5], [36.25, 36.5], [36.25, 36.25]]]}, "properties": {"cell_id": 5045, "probability": 0.00325, "expected_events": 0.0033, "normal_probability": 0.001158, "times_normal": 2.8}}, {"type": "Feature", "geometry": {"type": "Polygon", "coordinates": [[[33.0, 36.5], [33.25, 36.5], [33.25, 36.75], [33.0, 36.75], [33.0, 36.5]]]}, "properties": {"cell_id": 6032, "probability": 0.000334, "expected_events": 0.0003, "normal_probability": 9.1e-05, "times_normal": 3.7}}, {"type": "Feature", "geometry": {"type": "Polygon", "coordinates": [[[34.0, 36.5], [34.25, 36.5], [34.25, 36.75], [34.0, 36.75], [34.0, 36.5]]]}, "properties": {"cell_id": 6036, "probability": 0.001664, "expected_events": 0.0017, "normal_probability": 0.000541, "times_normal": 3.1}}, {"type": "Feature", "geometry": {"type": "Polygon", "coordinates": [[[36.25, 36.5], [36.5, 36.5], [36.5, 36.75], [36.25, 36.75], [36.25, 36.5]]]}, "properties": {"cell_id": 6045, "probability": 0.004482, "expected_events": 0.0045, "normal_probability": 0.001282, "times_normal": 3.5}}, {"type": "Feature", "geometry": {"type": "Polygon", "coordinates": [[[36.5, 36.75], [36.75, 36.75], [36.75, 37.0], [36.5, 37.0], [36.5, 36.75]]]}, "properties": {"cell_id": 7046, "probability": 0.004436, "expected_events": 0.0044, "normal_probability": 0.001596, "times_normal": 2.8}}, {"type": "Feature", "geometry": {"type": "Polygon", "coordinates": [[[36.75, 36.75], [37.0, 36.75], [37.0, 37.0], [36.75, 37.0], [36.75, 36.75]]]}, "properties": {"cell_id": 7047, "probability": 0.004273, "expected_events": 0.0043, "normal_probability": 0.001559, "times_normal": 2.7}}, {"type": "Feature", "geometry": {"type": "Polygon", "coordinates": [[[37.0, 36.75], [37.25, 36.75], [37.25, 37.0], [37.0, 37.0], [37.0, 36.75]]]}, "properties": {"cell_id": 7048, "probability": 0.003808, "expected_events": 0.0038, "normal_probability": 0.001534, "times_normal": 2.5}}, {"type": "Feature", "geometry": {"type": "Polygon", "coordinates": [[[36.5, 37.0], [36.75, 37.0], [36.75, 37.25], [36.5, 37.25], [36.5, 37.0]]]}, "properties": {"cell_id": 8046, "probability": 0.012798, "expected_events": 0.0129, "normal_probability": 0.00286, "times_normal": 4.5}}, {"type": "Feature", "geometry": {"type": "Polygon", "coordinates": [[[36.75, 37.0], [37.0, 37.0], [37.0, 37.25], [36.75, 37.25], [36.75, 37.0]]]}, "properties": {"cell_id": 8047, "probability": 0.035726, "expected_events": 0.0364, "normal_probability": 0.003349, "times_normal": 10.7}}, {"type": "Feature", "geometry": {"type": "Polygon", "coordinates": [[[37.0, 37.0], [37.25, 37.0], [37.25, 37.25], [37.0, 37.25], [37.0, 37.0]]]}, "properties": {"cell_id": 8048, "probability": 0.025665, "expected_events": 0.026, "normal_probability": 0.003953, "times_normal": 6.5}}, {"type": "Feature", "geometry": {"type": "Polygon", "coordinates": [[[37.25, 37.0], [37.5, 37.0], [37.5, 37.25], [37.25, 37.25], [37.25, 37.0]]]}, "properties": {"cell_id": 8049, "probability": 0.00778, "expected_events": 0.0078, "normal_probability": 0.002978, "times_normal": 2.6}}, {"type": "Feature", "geometry": {"type": "Polygon", "coordinates": [[[39.75, 37.0], [40.0, 37.0], [40.0, 37.25], [39.75, 37.25], [39.75, 37.0]]]}, "properties": {"cell_id": 8059, "probability": 0.000316, "expected_events": 0.0003, "normal_probability": 9.3e-05, "times_normal": 3.4}}, {"type": "Feature", "geometry": {"type": "Polygon", "coordinates": [[[40.25, 37.0], [40.5, 37.0], [40.5, 37.25], [40.25, 37.25], [40.25, 37.0]]]}, "properties": {"cell_id": 8061, "probability": 0.000316, "expected_events": 0.0003, "normal_probability": 0.000124, "times_normal": 2.6}}, {"type": "Feature", "geometry": {"type": "Polygon", "coordinates": [[[40.75, 37.0], [41.0, 37.0], [41.0, 37.25], [40.75, 37.25], [40.75, 37.0]]]}, "properties": {"cell_id": 8063, "probability": 0.000316, "expected_events": 0.0003, "normal_probability": 0.000125, "times_normal": 2.5}}, {"type": "Feature", "geometry": {"type": "Polygon", "coordinates": [[[41.25, 37.0], [41.5, 37.0], [41.5, 37.25], [41.25, 37.25], [41.25, 37.0]]]}, "properties": {"cell_id": 8065, "probability": 0.000324, "expected_events": 0.0003, "normal_probability": 0.000109, "times_normal": 3.0}}, {"type": "Feature", "geometry": {"type": "Polygon", "coordinates": [[[33.0, 37.25], [33.25, 37.25], [33.25, 37.5], [33.0, 37.5], [33.0, 37.25]]]}, "properties": {"cell_id": 9032, "probability": 0.000315, "expected_events": 0.0003, "normal_probability": 0.000155, "times_normal": 2.0}}, {"type": "Feature", "geometry": {"type": "Polygon", "coordinates": [[[33.25, 37.25], [33.5, 37.25], [33.5, 37.5], [33.25, 37.5], [33.25, 37.25]]]}, "properties": {"cell_id": 9033, "probability": 0.000317, "expected_events": 0.0003, "normal_probability": 0.00011, "times_normal": 2.9}}, {"type": "Feature", "geometry": {"type": "Polygon", "coordinates": [[[33.5, 37.25], [33.75, 37.25], [33.75, 37.5], [33.5, 37.5], [33.5, 37.25]]]}, "properties": {"cell_id": 9034, "probability": 0.000365, "expected_events": 0.0004, "normal_probability": 8.1e-05, "times_normal": 4.5}}, {"type": "Feature", "geometry": {"type": "Polygon", "coordinates": [[[33.75, 37.25], [34.0, 37.25], [34.0, 37.5], [33.75, 37.5], [33.75, 37.25]]]}, "properties": {"cell_id": 9035, "probability": 0.000343, "expected_events": 0.0003, "normal_probability": 0.000109, "times_normal": 3.1}}, {"type": "Feature", "geometry": {"type": "Polygon", "coordinates": [[[34.0, 37.25], [34.25, 37.25], [34.25, 37.5], [34.0, 37.5], [34.0, 37.25]]]}, "properties": {"cell_id": 9036, "probability": 0.000471, "expected_events": 0.0005, "normal_probability": 0.000208, "times_normal": 2.3}}, {"type": "Feature", "geometry": {"type": "Polygon", "coordinates": [[[34.25, 37.25], [34.5, 37.25], [34.5, 37.5], [34.25, 37.5], [34.25, 37.25]]]}, "properties": {"cell_id": 9037, "probability": 0.001852, "expected_events": 0.0019, "normal_probability": 0.000389, "times_normal": 4.8}}, {"type": "Feature", "geometry": {"type": "Polygon", "coordinates": [[[36.5, 37.25], [36.75, 37.25], [36.75, 37.5], [36.5, 37.5], [36.5, 37.25]]]}, "properties": {"cell_id": 9046, "probability": 0.008503, "expected_events": 0.0085, "normal_probability": 0.003311, "times_normal": 2.6}}, {"type": "Feature", "geometry": {"type": "Polygon", "coordinates": [[[36.75, 37.25], [37.0, 37.25], [37.0, 37.5], [36.75, 37.5], [36.75, 37.25]]]}, "properties": {"cell_id": 9047, "probability": 0.032006, "expected_events": 0.0325, "normal_probability": 0.003736, "times_normal": 8.6}}, {"type": "Feature", "geometry": {"type": "Polygon", "coordinates": [[[37.0, 37.25], [37.25, 37.25], [37.25, 37.5], [37.0, 37.5], [37.0, 37.25]]]}, "properties": {"cell_id": 9048, "probability": 0.035926, "expected_events": 0.0366, "normal_probability": 0.004588, "times_normal": 7.8}}, {"type": "Feature", "geometry": {"type": "Polygon", "coordinates": [[[37.25, 37.25], [37.5, 37.25], [37.5, 37.5], [37.25, 37.5], [37.25, 37.25]]]}, "properties": {"cell_id": 9049, "probability": 0.010906, "expected_events": 0.011, "normal_probability": 0.003554, "times_normal": 3.1}}, {"type": "Feature", "geometry": {"type": "Polygon", "coordinates": [[[40.25, 37.25], [40.5, 37.25], [40.5, 37.5], [40.25, 37.5], [40.25, 37.25]]]}, "properties": {"cell_id": 9061, "probability": 0.000315, "expected_events": 0.0003, "normal_probability": 7.5e-05, "times_normal": 4.2}}, {"type": "Feature", "geometry": {"type": "Polygon", "coordinates": [[[40.5, 37.25], [40.75, 37.25], [40.75, 37.5], [40.5, 37.5], [40.5, 37.25]]]}, "properties": {"cell_id": 9062, "probability": 0.000315, "expected_events": 0.0003, "normal_probability": 0.000106, "times_normal": 3.0}}, {"type": "Feature", "geometry": {"type": "Polygon", "coordinates": [[[40.75, 37.25], [41.0, 37.25], [41.0, 37.5], [40.75, 37.5], [40.75, 37.25]]]}, "properties": {"cell_id": 9063, "probability": 0.000315, "expected_events": 0.0003, "normal_probability": 0.000114, "times_normal": 2.8}}, {"type": "Feature", "geometry": {"type": "Polygon", "coordinates": [[[41.75, 37.25], [42.0, 37.25], [42.0, 37.5], [41.75, 37.5], [41.75, 37.25]]]}, "properties": {"cell_id": 9067, "probability": 0.000836, "expected_events": 0.0008, "normal_probability": 0.000291, "times_normal": 2.9}}, {"type": "Feature", "geometry": {"type": "Polygon", "coordinates": [[[33.0, 37.5], [33.25, 37.5], [33.25, 37.75], [33.0, 37.75], [33.0, 37.5]]]}, "properties": {"cell_id": 10032, "probability": 0.00032, "expected_events": 0.0003, "normal_probability": 0.000136, "times_normal": 2.4}}, {"type": "Feature", "geometry": {"type": "Polygon", "coordinates": [[[33.25, 37.5], [33.5, 37.5], [33.5, 37.75], [33.25, 37.75], [33.25, 37.5]]]}, "properties": {"cell_id": 10033, "probability": 0.000324, "expected_events": 0.0003, "normal_probability": 0.000119, "times_normal": 2.7}}, {"type": "Feature", "geometry": {"type": "Polygon", "coordinates": [[[36.75, 37.5], [37.0, 37.5], [37.0, 37.75], [36.75, 37.75], [36.75, 37.5]]]}, "properties": {"cell_id": 10047, "probability": 0.006676, "expected_events": 0.0067, "normal_probability": 0.002027, "times_normal": 3.3}}, {"type": "Feature", "geometry": {"type": "Polygon", "coordinates": [[[37.0, 37.5], [37.25, 37.5], [37.25, 37.75], [37.0, 37.75], [37.0, 37.5]]]}, "properties": {"cell_id": 10048, "probability": 0.011833, "expected_events": 0.0119, "normal_probability": 0.002409, "times_normal": 4.9}}, {"type": "Feature", "geometry": {"type": "Polygon", "coordinates": [[[37.25, 37.5], [37.5, 37.5], [37.5, 37.75], [37.25, 37.75], [37.25, 37.5]]]}, "properties": {"cell_id": 10049, "probability": 0.00835, "expected_events": 0.0084, "normal_probability": 0.002192, "times_normal": 3.8}}, {"type": "Feature", "geometry": {"type": "Polygon", "coordinates": [[[40.5, 37.5], [40.75, 37.5], [40.75, 37.75], [40.5, 37.75], [40.5, 37.5]]]}, "properties": {"cell_id": 10062, "probability": 0.000314, "expected_events": 0.0003, "normal_probability": 9.4e-05, "times_normal": 3.3}}, {"type": "Feature", "geometry": {"type": "Polygon", "coordinates": [[[40.75, 37.5], [41.0, 37.5], [41.0, 37.75], [40.75, 37.75], [40.75, 37.5]]]}, "properties": {"cell_id": 10063, "probability": 0.000314, "expected_events": 0.0003, "normal_probability": 0.000132, "times_normal": 2.4}}, {"type": "Feature", "geometry": {"type": "Polygon", "coordinates": [[[33.0, 37.75], [33.25, 37.75], [33.25, 38.0], [33.0, 38.0], [33.0, 37.75]]]}, "properties": {"cell_id": 11032, "probability": 0.000363, "expected_events": 0.0004, "normal_probability": 0.00016, "times_normal": 2.3}}, {"type": "Feature", "geometry": {"type": "Polygon", "coordinates": [[[33.25, 37.75], [33.5, 37.75], [33.5, 38.0], [33.25, 38.0], [33.25, 37.75]]]}, "properties": {"cell_id": 11033, "probability": 0.000392, "expected_events": 0.0004, "normal_probability": 0.000174, "times_normal": 2.3}}, {"type": "Feature", "geometry": {"type": "Polygon", "coordinates": [[[35.0, 37.75], [35.25, 37.75], [35.25, 38.0], [35.0, 38.0], [35.0, 37.75]]]}, "properties": {"cell_id": 11040, "probability": 0.001515, "expected_events": 0.0015, "normal_probability": 0.000726, "times_normal": 2.1}}, {"type": "Feature", "geometry": {"type": "Polygon", "coordinates": [[[36.0, 37.75], [36.25, 37.75], [36.25, 38.0], [36.0, 38.0], [36.0, 37.75]]]}, "properties": {"cell_id": 11044, "probability": 0.011964, "expected_events": 0.012, "normal_probability": 0.001828, "times_normal": 6.5}}, {"type": "Feature", "geometry": {"type": "Polygon", "coordinates": [[[36.25, 37.75], [36.5, 37.75], [36.5, 38.0], [36.25, 38.0], [36.25, 37.75]]]}, "properties": {"cell_id": 11045, "probability": 0.018456, "expected_events": 0.0186, "normal_probability": 0.001673, "times_normal": 11.0}}, {"type": "Feature", "geometry": {"type": "Polygon", "coordinates": [[[36.5, 37.75], [36.75, 37.75], [36.75, 38.0], [36.5, 38.0], [36.5, 37.75]]]}, "properties": {"cell_id": 11046, "probability": 0.013155, "expected_events": 0.0132, "normal_probability": 0.001187, "times_normal": 11.1}}, {"type": "Feature", "geometry": {"type": "Polygon", "coordinates": [[[36.75, 37.75], [37.0, 37.75], [37.0, 38.0], [36.75, 38.0], [36.75, 37.75]]]}, "properties": {"cell_id": 11047, "probability": 0.006577, "expected_events": 0.0066, "normal_probability": 0.000934, "times_normal": 7.0}}, {"type": "Feature", "geometry": {"type": "Polygon", "coordinates": [[[37.0, 37.75], [37.25, 37.75], [37.25, 38.0], [37.0, 38.0], [37.0, 37.75]]]}, "properties": {"cell_id": 11048, "probability": 0.013633, "expected_events": 0.0137, "normal_probability": 0.001051, "times_normal": 13.0}}, {"type": "Feature", "geometry": {"type": "Polygon", "coordinates": [[[37.25, 37.75], [37.5, 37.75], [37.5, 38.0], [37.25, 38.0], [37.25, 37.75]]]}, "properties": {"cell_id": 11049, "probability": 0.016656, "expected_events": 0.0168, "normal_probability": 0.001227, "times_normal": 13.6}}, {"type": "Feature", "geometry": {"type": "Polygon", "coordinates": [[[37.5, 37.75], [37.75, 37.75], [37.75, 38.0], [37.5, 38.0], [37.5, 37.75]]]}, "properties": {"cell_id": 11050, "probability": 0.013234, "expected_events": 0.0133, "normal_probability": 0.001364, "times_normal": 9.7}}, {"type": "Feature", "geometry": {"type": "Polygon", "coordinates": [[[37.75, 37.75], [38.0, 37.75], [38.0, 38.0], [37.75, 38.0], [37.75, 37.75]]]}, "properties": {"cell_id": 11051, "probability": 0.006434, "expected_events": 0.0065, "normal_probability": 0.001613, "times_normal": 4.0}}, {"type": "Feature", "geometry": {"type": "Polygon", "coordinates": [[[32.5, 38.0], [32.75, 38.0], [32.75, 38.25], [32.5, 38.25], [32.5, 38.0]]]}, "properties": {"cell_id": 12030, "probability": 0.001052, "expected_events": 0.0011, "normal_probability": 0.000382, "times_normal": 2.8}}, {"type": "Feature", "geometry": {"type": "Polygon", "coordinates": [[[33.0, 38.0], [33.25, 38.0], [33.25, 38.25], [33.0, 38.25], [33.0, 38.0]]]}, "properties": {"cell_id": 12032, "probability": 0.00032, "expected_events": 0.0003, "normal_probability": 0.000151, "times_normal": 2.1}}, {"type": "Feature", "geometry": {"type": "Polygon", "coordinates": [[[36.0, 38.0], [36.25, 38.0], [36.25, 38.25], [36.0, 38.25], [36.0, 38.0]]]}, "properties": {"cell_id": 12044, "probability": 0.002768, "expected_events": 0.0028, "normal_probability": 0.000551, "times_normal": 5.0}}, {"type": "Feature", "geometry": {"type": "Polygon", "coordinates": [[[36.25, 38.0], [36.5, 38.0], [36.5, 38.25], [36.25, 38.25], [36.25, 38.0]]]}, "properties": {"cell_id": 12045, "probability": 0.014598, "expected_events": 0.0147, "normal_probability": 0.0006, "times_normal": 24.3}}, {"type": "Feature", "geometry": {"type": "Polygon", "coordinates": [[[36.5, 38.0], [36.75, 38.0], [36.75, 38.25], [36.5, 38.25], [36.5, 38.0]]]}, "properties": {"cell_id": 12046, "probability": 0.017944, "expected_events": 0.0181, "normal_probability": 0.000557, "times_normal": 32.2}}, {"type": "Feature", "geometry": {"type": "Polygon", "coordinates": [[[36.75, 38.0], [37.0, 38.0], [37.0, 38.25], [36.75, 38.25], [36.75, 38.0]]]}, "properties": {"cell_id": 12047, "probability": 0.012887, "expected_events": 0.013, "normal_probability": 0.000539, "times_normal": 23.9}}, {"type": "Feature", "geometry": {"type": "Polygon", "coordinates": [[[37.0, 38.0], [37.25, 38.0], [37.25, 38.25], [37.0, 38.25], [37.0, 38.0]]]}, "properties": {"cell_id": 12048, "probability": 0.026531, "expected_events": 0.0269, "normal_probability": 0.000616, "times_normal": 43.1}}, {"type": "Feature", "geometry": {"type": "Polygon", "coordinates": [[[37.25, 38.0], [37.5, 38.0], [37.5, 38.25], [37.25, 38.25], [37.25, 38.0]]]}, "properties": {"cell_id": 12049, "probability": 0.027843, "expected_events": 0.0282, "normal_probability": 0.000742, "times_normal": 37.5}}, {"type": "Feature", "geometry": {"type": "Polygon", "coordinates": [[[37.5, 38.0], [37.75, 38.0], [37.75, 38.25], [37.5, 38.25], [37.5, 38.0]]]}, "properties": {"cell_id": 12050, "probability": 0.016218, "expected_events": 0.0164, "normal_probability": 0.00094, "times_normal": 17.3}}, {"type": "Feature", "geometry": {"type": "Polygon", "coordinates": [[[37.75, 38.0], [38.0, 38.0], [38.0, 38.25], [37.75, 38.25], [37.75, 38.0]]]}, "properties": {"cell_id": 12051, "probability": 0.013166, "expected_events": 0.0133, "normal_probability": 0.001284, "times_normal": 10.3}}, {"type": "Feature", "geometry": {"type": "Polygon", "coordinates": [[[38.0, 38.0], [38.25, 38.0], [38.25, 38.25], [38.0, 38.25], [38.0, 38.0]]]}, "properties": {"cell_id": 12052, "probability": 0.013274, "expected_events": 0.0134, "normal_probability": 0.001817, "times_normal": 7.3}}, {"type": "Feature", "geometry": {"type": "Polygon", "coordinates": [[[38.25, 38.0], [38.5, 38.0], [38.5, 38.25], [38.25, 38.25], [38.25, 38.0]]]}, "properties": {"cell_id": 12053, "probability": 0.038931, "expected_events": 0.0397, "normal_probability": 0.00271, "times_normal": 14.4}}, {"type": "Feature", "geometry": {"type": "Polygon", "coordinates": [[[38.5, 38.0], [38.75, 38.0], [38.75, 38.25], [38.5, 38.25], [38.5, 38.0]]]}, "properties": {"cell_id": 12054, "probability": 0.032719, "expected_events": 0.0333, "normal_probability": 0.003969, "times_normal": 8.2}}, {"type": "Feature", "geometry": {"type": "Polygon", "coordinates": [[[40.5, 38.0], [40.75, 38.0], [40.75, 38.25], [40.5, 38.25], [40.5, 38.0]]]}, "properties": {"cell_id": 12062, "probability": 0.00101, "expected_events": 0.001, "normal_probability": 0.000477, "times_normal": 2.1}}, {"type": "Feature", "geometry": {"type": "Polygon", "coordinates": [[[33.0, 38.25], [33.25, 38.25], [33.25, 38.5], [33.0, 38.5], [33.0, 38.25]]]}, "properties": {"cell_id": 13032, "probability": 0.000448, "expected_events": 0.0004, "normal_probability": 0.000182, "times_normal": 2.5}}, {"type": "Feature", "geometry": {"type": "Polygon", "coordinates": [[[36.0, 38.25], [36.25, 38.25], [36.25, 38.5], [36.0, 38.5], [36.0, 38.25]]]}, "properties": {"cell_id": 13044, "probability": 0.000605, "expected_events": 0.0006, "normal_probability": 0.000297, "times_normal": 2.0}}, {"type": "Feature", "geometry": {"type": "Polygon", "coordinates": [[[36.25, 38.25], [36.5, 38.25], [36.5, 38.5], [36.25, 38.5], [36.25, 38.25]]]}, "properties": {"cell_id": 13045, "probability": 0.001477, "expected_events": 0.0015, "normal_probability": 0.000364, "times_normal": 4.1}}, {"type": "Feature", "geometry": {"type": "Polygon", "coordinates": [[[36.5, 38.25], [36.75, 38.25], [36.75, 38.5], [36.5, 38.5], [36.5, 38.25]]]}, "properties": {"cell_id": 13046, "probability": 0.00208, "expected_events": 0.0021, "normal_probability": 0.000433, "times_normal": 4.8}}, {"type": "Feature", "geometry": {"type": "Polygon", "coordinates": [[[36.75, 38.25], [37.0, 38.25], [37.0, 38.5], [36.75, 38.5], [36.75, 38.25]]]}, "properties": {"cell_id": 13047, "probability": 0.003179, "expected_events": 0.0032, "normal_probability": 0.000488, "times_normal": 6.5}}, {"type": "Feature", "geometry": {"type": "Polygon", "coordinates": [[[37.0, 38.25], [37.25, 38.25], [37.25, 38.5], [37.0, 38.5], [37.0, 38.25]]]}, "properties": {"cell_id": 13048, "probability": 0.006896, "expected_events": 0.0069, "normal_probability": 0.000563, "times_normal": 12.2}}, {"type": "Feature", "geometry": {"type": "Polygon", "coordinates": [[[37.25, 38.25], [37.5, 38.25], [37.5, 38.5], [37.25, 38.5], [37.25, 38.25]]]}, "properties": {"cell_id": 13049, "probability": 0.007723, "expected_events": 0.0078, "normal_probability": 0.000615, "times_normal": 12.6}}, {"type": "Feature", "geometry": {"type": "Polygon", "coordinates": [[[37.5, 38.25], [37.75, 38.25], [37.75, 38.5], [37.5, 38.5], [37.5, 38.25]]]}, "properties": {"cell_id": 13050, "probability": 0.004866, "expected_events": 0.0049, "normal_probability": 0.00063, "times_normal": 7.7}}, {"type": "Feature", "geometry": {"type": "Polygon", "coordinates": [[[37.75, 38.25], [38.0, 38.25], [38.0, 38.5], [37.75, 38.5], [37.75, 38.25]]]}, "properties": {"cell_id": 13051, "probability": 0.007, "expected_events": 0.007, "normal_probability": 0.000716, "times_normal": 9.8}}, {"type": "Feature", "geometry": {"type": "Polygon", "coordinates": [[[38.0, 38.25], [38.25, 38.25], [38.25, 38.5], [38.0, 38.5], [38.0, 38.25]]]}, "properties": {"cell_id": 13052, "probability": 0.010977, "expected_events": 0.011, "normal_probability": 0.001053, "times_normal": 10.4}}, {"type": "Feature", "geometry": {"type": "Polygon", "coordinates": [[[38.25, 38.25], [38.5, 38.25], [38.5, 38.5], [38.25, 38.5], [38.25, 38.25]]]}, "properties": {"cell_id": 13053, "probability": 0.017101, "expected_events": 0.0172, "normal_probability": 0.001949, "times_normal": 8.8}}, {"type": "Feature", "geometry": {"type": "Polygon", "coordinates": [[[38.5, 38.25], [38.75, 38.25], [38.75, 38.5], [38.5, 38.5], [38.5, 38.25]]]}, "properties": {"cell_id": 13054, "probability": 0.026316, "expected_events": 0.0267, "normal_probability": 0.003768, "times_normal": 7.0}}, {"type": "Feature", "geometry": {"type": "Polygon", "coordinates": [[[38.75, 38.25], [39.0, 38.25], [39.0, 38.5], [38.75, 38.5], [38.75, 38.25]]]}, "properties": {"cell_id": 13055, "probability": 0.01474, "expected_events": 0.0148, "normal_probability": 0.006346, "times_normal": 2.3}}, {"type": "Feature", "geometry": {"type": "Polygon", "coordinates": [[[36.25, 38.5], [36.5, 38.5], [36.5, 38.75], [36.25, 38.75], [36.25, 38.5]]]}, "properties": {"cell_id": 14045, "probability": 0.002837, "expected_events": 0.0028, "normal_probability": 0.000356, "times_normal": 8.0}}, {"type": "Feature", "geometry": {"type": "Polygon", "coordinates": [[[36.5, 38.5], [36.75, 38.5], [36.75, 38.75], [36.5, 38.75], [36.5, 38.5]]]}, "properties": {"cell_id": 14046, "probability": 0.005837, "expected_events": 0.0059, "normal_probability": 0.000408, "times_normal": 14.3}}, {"type": "Feature", "geometry": {"type": "Polygon", "coordinates": [[[36.75, 38.5], [37.0, 38.5], [37.0, 38.75], [36.75, 38.75], [36.75, 38.5]]]}, "properties": {"cell_id": 14047, "probability": 0.001026, "expected_events": 0.001, "normal_probability": 0.000498, "times_normal": 2.1}}, {"type": "Feature", "geometry": {"type": "Polygon", "coordinates": [[[37.0, 38.5], [37.25, 38.5], [37.25, 38.75], [37.0, 38.75], [37.0, 38.5]]]}, "properties": {"cell_id": 14048, "probability": 0.001239, "expected_events": 0.0012, "normal_probability": 0.00057, "times_normal": 2.2}}, {"type": "Feature", "geometry": {"type": "Polygon", "coordinates": [[[37.25, 38.5], [37.5, 38.5], [37.5, 38.75], [37.25, 38.75], [37.25, 38.5]]]}, "properties": {"cell_id": 14049, "probability": 0.001545, "expected_events": 0.0015, "normal_probability": 0.000613, "times_normal": 2.5}}, {"type": "Feature", "geometry": {"type": "Polygon", "coordinates": [[[36.25, 38.75], [36.5, 38.75], [36.5, 39.0], [36.25, 39.0], [36.25, 38.75]]]}, "properties": {"cell_id": 15045, "probability": 0.002533, "expected_events": 0.0025, "normal_probability": 0.000509, "times_normal": 5.0}}, {"type": "Feature", "geometry": {"type": "Polygon", "coordinates": [[[36.5, 38.75], [36.75, 38.75], [36.75, 39.0], [36.5, 39.0], [36.5, 38.75]]]}, "properties": {"cell_id": 15046, "probability": 0.005869, "expected_events": 0.0059, "normal_probability": 0.000423, "times_normal": 13.9}}, {"type": "Feature", "geometry": {"type": "Polygon", "coordinates": [[[37.0, 38.75], [37.25, 38.75], [37.25, 39.0], [37.0, 39.0], [37.0, 38.75]]]}, "properties": {"cell_id": 15048, "probability": 0.001238, "expected_events": 0.0012, "normal_probability": 0.000579, "times_normal": 2.1}}, {"type": "Feature", "geometry": {"type": "Polygon", "coordinates": [[[37.25, 38.75], [37.5, 38.75], [37.5, 39.0], [37.25, 39.0], [37.25, 38.75]]]}, "properties": {"cell_id": 15049, "probability": 0.002335, "expected_events": 0.0023, "normal_probability": 0.000604, "times_normal": 3.9}}, {"type": "Feature", "geometry": {"type": "Polygon", "coordinates": [[[28.0, 39.0], [28.25, 39.0], [28.25, 39.25], [28.0, 39.25], [28.0, 39.0]]]}, "properties": {"cell_id": 16012, "probability": 0.078634, "expected_events": 0.0819, "normal_probability": 0.007782, "times_normal": 10.1}}, {"type": "Feature", "geometry": {"type": "Polygon", "coordinates": [[[28.25, 39.0], [28.5, 39.0], [28.5, 39.25], [28.25, 39.25], [28.25, 39.0]]]}, "properties": {"cell_id": 16013, "probability": 0.044653, "expected_events": 0.0457, "normal_probability": 0.005196, "times_normal": 8.6}}, {"type": "Feature", "geometry": {"type": "Polygon", "coordinates": [[[28.0, 39.25], [28.25, 39.25], [28.25, 39.5], [28.0, 39.5], [28.0, 39.25]]]}, "properties": {"cell_id": 17012, "probability": 0.031328, "expected_events": 0.0318, "normal_probability": 0.00784, "times_normal": 4.0}}, {"type": "Feature", "geometry": {"type": "Polygon", "coordinates": [[[28.25, 39.25], [28.5, 39.25], [28.5, 39.5], [28.25, 39.5], [28.25, 39.25]]]}, "properties": {"cell_id": 17013, "probability": 0.011699, "expected_events": 0.0118, "normal_probability": 0.005419, "times_normal": 2.2}}, {"type": "Feature", "geometry": {"type": "Polygon", "coordinates": [[[34.0, 39.5], [34.25, 39.5], [34.25, 39.75], [34.0, 39.75], [34.0, 39.5]]]}, "properties": {"cell_id": 18036, "probability": 0.00103, "expected_events": 0.001, "normal_probability": 0.000464, "times_normal": 2.2}}, {"type": "Feature", "geometry": {"type": "Polygon", "coordinates": [[[35.75, 40.0], [36.0, 40.0], [36.0, 40.25], [35.75, 40.25], [35.75, 40.0]]]}, "properties": {"cell_id": 20043, "probability": 0.002562, "expected_events": 0.0026, "normal_probability": 0.000818, "times_normal": 3.1}}, {"type": "Feature", "geometry": {"type": "Polygon", "coordinates": [[[36.0, 40.0], [36.25, 40.0], [36.25, 40.25], [36.0, 40.25], [36.0, 40.0]]]}, "properties": {"cell_id": 20044, "probability": 0.001835, "expected_events": 0.0018, "normal_probability": 0.000627, "times_normal": 2.9}}, {"type": "Feature", "geometry": {"type": "Polygon", "coordinates": [[[36.5, 40.5], [36.75, 40.5], [36.75, 40.75], [36.5, 40.75], [36.5, 40.5]]]}, "properties": {"cell_id": 22046, "probability": 0.003665, "expected_events": 0.0037, "normal_probability": 0.001167, "times_normal": 3.1}}, {"type": "Feature", "geometry": {"type": "Polygon", "coordinates": [[[36.75, 40.5], [37.0, 40.5], [37.0, 40.75], [36.75, 40.75], [36.75, 40.5]]]}, "properties": {"cell_id": 22047, "probability": 0.008046, "expected_events": 0.0081, "normal_probability": 0.001174, "times_normal": 6.9}}, {"type": "Feature", "geometry": {"type": "Polygon", "coordinates": [[[37.75, 40.75], [38.0, 40.75], [38.0, 41.0], [37.75, 41.0], [37.75, 40.75]]]}, "properties": {"cell_id": 23051, "probability": 0.0003, "expected_events": 0.0003, "normal_probability": 0.000134, "times_normal": 2.2}}, {"type": "Feature", "geometry": {"type": "Polygon", "coordinates": [[[39.75, 40.75], [40.0, 40.75], [40.0, 41.0], [39.75, 41.0], [39.75, 40.75]]]}, "properties": {"cell_id": 23059, "probability": 0.000304, "expected_events": 0.0003, "normal_probability": 0.00014, "times_normal": 2.2}}, {"type": "Feature", "geometry": {"type": "Polygon", "coordinates": [[[40.75, 40.75], [41.0, 40.75], [41.0, 41.0], [40.75, 41.0], [40.75, 40.75]]]}, "properties": {"cell_id": 23063, "probability": 0.000582, "expected_events": 0.0006, "normal_probability": 0.000172, "times_normal": 3.4}}, {"type": "Feature", "geometry": {"type": "Polygon", "coordinates": [[[41.0, 40.75], [41.25, 40.75], [41.25, 41.0], [41.0, 41.0], [41.0, 40.75]]]}, "properties": {"cell_id": 23064, "probability": 0.000355, "expected_events": 0.0004, "normal_probability": 0.000144, "times_normal": 2.5}}, {"type": "Feature", "geometry": {"type": "Polygon", "coordinates": [[[41.25, 40.75], [41.5, 40.75], [41.5, 41.0], [41.25, 41.0], [41.25, 40.75]]]}, "properties": {"cell_id": 23065, "probability": 0.000303, "expected_events": 0.0003, "normal_probability": 0.000112, "times_normal": 2.7}}, {"type": "Feature", "geometry": {"type": "Polygon", "coordinates": [[[41.5, 40.75], [41.75, 40.75], [41.75, 41.0], [41.5, 41.0], [41.5, 40.75]]]}, "properties": {"cell_id": 23066, "probability": 0.0003, "expected_events": 0.0003, "normal_probability": 0.000132, "times_normal": 2.3}}, {"type": "Feature", "geometry": {"type": "Polygon", "coordinates": [[[43.0, 40.75], [43.25, 40.75], [43.25, 41.0], [43.0, 41.0], [43.0, 40.75]]]}, "properties": {"cell_id": 23072, "probability": 0.000779, "expected_events": 0.0008, "normal_probability": 0.000379, "times_normal": 2.1}}, {"type": "Feature", "geometry": {"type": "Polygon", "coordinates": [[[33.5, 41.0], [33.75, 41.0], [33.75, 41.25], [33.5, 41.25], [33.5, 41.0]]]}, "properties": {"cell_id": 24034, "probability": 0.006245, "expected_events": 0.0063, "normal_probability": 0.001032, "times_normal": 6.1}}, {"type": "Feature", "geometry": {"type": "Polygon", "coordinates": [[[37.0, 41.0], [37.25, 41.0], [37.25, 41.25], [37.0, 41.25], [37.0, 41.0]]]}, "properties": {"cell_id": 24048, "probability": 0.000327, "expected_events": 0.0003, "normal_probability": 0.000162, "times_normal": 2.0}}, {"type": "Feature", "geometry": {"type": "Polygon", "coordinates": [[[37.25, 41.0], [37.5, 41.0], [37.5, 41.25], [37.25, 41.25], [37.25, 41.0]]]}, "properties": {"cell_id": 24049, "probability": 0.00037, "expected_events": 0.0004, "normal_probability": 0.000103, "times_normal": 3.6}}, {"type": "Feature", "geometry": {"type": "Polygon", "coordinates": [[[40.75, 41.0], [41.0, 41.0], [41.0, 41.25], [40.75, 41.25], [40.75, 41.0]]]}, "properties": {"cell_id": 24063, "probability": 0.000589, "expected_events": 0.0006, "normal_probability": 0.000177, "times_normal": 3.3}}, {"type": "Feature", "geometry": {"type": "Polygon", "coordinates": [[[41.5, 41.0], [41.75, 41.0], [41.75, 41.25], [41.5, 41.25], [41.5, 41.0]]]}, "properties": {"cell_id": 24066, "probability": 0.000299, "expected_events": 0.0003, "normal_probability": 9.3e-05, "times_normal": 3.2}}, {"type": "Feature", "geometry": {"type": "Polygon", "coordinates": [[[26.5, 41.25], [26.75, 41.25], [26.75, 41.5], [26.5, 41.5], [26.5, 41.25]]]}, "properties": {"cell_id": 25006, "probability": 0.000297, "expected_events": 0.0003, "normal_probability": 0.000148, "times_normal": 2.0}}, {"type": "Feature", "geometry": {"type": "Polygon", "coordinates": [[[28.5, 41.25], [28.75, 41.25], [28.75, 41.5], [28.5, 41.5], [28.5, 41.25]]]}, "properties": {"cell_id": 25014, "probability": 0.000472, "expected_events": 0.0005, "normal_probability": 0.000167, "times_normal": 2.8}}, {"type": "Feature", "geometry": {"type": "Polygon", "coordinates": [[[28.75, 41.25], [29.0, 41.25], [29.0, 41.5], [28.75, 41.5], [28.75, 41.25]]]}, "properties": {"cell_id": 25015, "probability": 0.000338, "expected_events": 0.0003, "normal_probability": 0.000151, "times_normal": 2.2}}, {"type": "Feature", "geometry": {"type": "Polygon", "coordinates": [[[41.5, 41.25], [41.75, 41.25], [41.75, 41.5], [41.5, 41.5], [41.5, 41.25]]]}, "properties": {"cell_id": 25066, "probability": 0.000298, "expected_events": 0.0003, "normal_probability": 0.000136, "times_normal": 2.2}}, {"type": "Feature", "geometry": {"type": "Polygon", "coordinates": [[[28.0, 41.5], [28.25, 41.5], [28.25, 41.75], [28.0, 41.75], [28.0, 41.5]]]}, "properties": {"cell_id": 26012, "probability": 0.0003, "expected_events": 0.0003, "normal_probability": 0.000148, "times_normal": 2.0}}, {"type": "Feature", "geometry": {"type": "Polygon", "coordinates": [[[34.0, 41.5], [34.25, 41.5], [34.25, 41.75], [34.0, 41.75], [34.0, 41.5]]]}, "properties": {"cell_id": 26036, "probability": 0.000298, "expected_events": 0.0003, "normal_probability": 0.00013, "times_normal": 2.3}}, {"type": "Feature", "geometry": {"type": "Polygon", "coordinates": [[[34.5, 41.5], [34.75, 41.5], [34.75, 41.75], [34.5, 41.75], [34.5, 41.5]]]}, "properties": {"cell_id": 26038, "probability": 0.000297, "expected_events": 0.0003, "normal_probability": 0.000113, "times_normal": 2.6}}, {"type": "Feature", "geometry": {"type": "Polygon", "coordinates": [[[35.25, 41.5], [35.5, 41.5], [35.5, 41.75], [35.25, 41.75], [35.25, 41.5]]]}, "properties": {"cell_id": 26041, "probability": 0.000296, "expected_events": 0.0003, "normal_probability": 0.00012, "times_normal": 2.5}}, {"type": "Feature", "geometry": {"type": "Polygon", "coordinates": [[[28.0, 41.75], [28.25, 41.75], [28.25, 42.0], [28.0, 42.0], [28.0, 41.75]]]}, "properties": {"cell_id": 27012, "probability": 0.000295, "expected_events": 0.0003, "normal_probability": 9.4e-05, "times_normal": 3.2}}, {"type": "Feature", "geometry": {"type": "Polygon", "coordinates": [[[33.25, 41.75], [33.5, 41.75], [33.5, 42.0], [33.25, 42.0], [33.25, 41.75]]]}, "properties": {"cell_id": 27033, "probability": 0.000295, "expected_events": 0.0003, "normal_probability": 0.000138, "times_normal": 2.1}}, {"type": "Feature", "geometry": {"type": "Polygon", "coordinates": [[[33.5, 41.75], [33.75, 41.75], [33.75, 42.0], [33.5, 42.0], [33.5, 41.75]]]}, "properties": {"cell_id": 27034, "probability": 0.000295, "expected_events": 0.0003, "normal_probability": 0.000137, "times_normal": 2.2}}, {"type": "Feature", "geometry": {"type": "Polygon", "coordinates": [[[33.75, 41.75], [34.0, 41.75], [34.0, 42.0], [33.75, 42.0], [33.75, 41.75]]]}, "properties": {"cell_id": 27035, "probability": 0.000295, "expected_events": 0.0003, "normal_probability": 0.000107, "times_normal": 2.7}}, {"type": "Feature", "geometry": {"type": "Polygon", "coordinates": [[[34.0, 41.75], [34.25, 41.75], [34.25, 42.0], [34.0, 42.0], [34.0, 41.75]]]}, "properties": {"cell_id": 27036, "probability": 0.000295, "expected_events": 0.0003, "normal_probability": 9.5e-05, "times_normal": 3.1}}, {"type": "Feature", "geometry": {"type": "Polygon", "coordinates": [[[34.25, 41.75], [34.5, 41.75], [34.5, 42.0], [34.25, 42.0], [34.25, 41.75]]]}, "properties": {"cell_id": 27037, "probability": 0.000295, "expected_events": 0.0003, "normal_probability": 9.4e-05, "times_normal": 3.1}}, {"type": "Feature", "geometry": {"type": "Polygon", "coordinates": [[[34.75, 41.75], [35.0, 41.75], [35.0, 42.0], [34.75, 42.0], [34.75, 41.75]]]}, "properties": {"cell_id": 27039, "probability": 0.000295, "expected_events": 0.0003, "normal_probability": 5.2e-05, "times_normal": 5.7}}, {"type": "Feature", "geometry": {"type": "Polygon", "coordinates": [[[27.0, 42.0], [27.25, 42.0], [27.25, 42.25], [27.0, 42.25], [27.0, 42.0]]]}, "properties": {"cell_id": 28008, "probability": 0.000294, "expected_events": 0.0003, "normal_probability": 0.000102, "times_normal": 2.9}}, {"type": "Feature", "geometry": {"type": "Polygon", "coordinates": [[[33.25, 42.0], [33.5, 42.0], [33.5, 42.25], [33.25, 42.25], [33.25, 42.0]]]}, "properties": {"cell_id": 28033, "probability": 0.000294, "expected_events": 0.0003, "normal_probability": 9.5e-05, "times_normal": 3.1}}, {"type": "Feature", "geometry": {"type": "Polygon", "coordinates": [[[35.0, 42.0], [35.25, 42.0], [35.25, 42.25], [35.0, 42.25], [35.0, 42.0]]]}, "properties": {"cell_id": 28040, "probability": 0.000294, "expected_events": 0.0003, "normal_probability": 3.6e-05, "times_normal": 8.2}}]}