{"type": "FeatureCollection", "properties": {"origin": "2026-08-24T00:00:00Z", "window_days": 7, "target_magnitude": 4.5, "model": "ETAS", "mode": "live", "fingerprint": {"method": "analytic-branching", "etas_params_sha256": "5ab1f75edccd7c968858fcf5e72371a267130853f383035820b6095ba0f5281a", "branching_nominal": 0.8209, "branching_effective": 0.8125, "commit": "5331b7d00fdafb353b6046fc5467d47e95351a7b", "worktree": "clean", "randomness": "none in the branching computation; the ETAS state EM step is SEEDED from the origin date"}, "min_times_normal": 2.0, "cells_before_threshold": 2560, "cells_published": 311, "disclaimer": "Bu bir OLASILIK tahminidir, kesin deprem tahmini de\u011fildir. Belirli bir tarih, yer ve b\u00fcy\u00fckl\u00fckte deprem olaca\u011f\u0131n\u0131 \u00f6ng\u00f6rmez ve bilimsel olarak b\u00f6yle bir \u00f6ng\u00f6r\u00fc m\u00fcmk\u00fcn de\u011fildir. Verilen de\u011ferler, belirtilen zaman penceresinde ilgili h\u00fccrede e\u015fik b\u00fcy\u00fckl\u00fc\u011f\u00fcn \u00fczerinde deprem olma olas\u0131l\u0131\u011f\u0131d\u0131r. Y\u00f6ntem ve s\u0131n\u0131rl\u0131l\u0131klar: docs/ROADMAP.md"}, "features": [{"type": "Feature", "geometry": {"type": "Polygon", "coordinates": [[[25.75, 35.0], [26.0, 35.0], [26.0, 35.25], [25.75, 35.25], [25.75, 35.0]]]}, "properties": {"cell_id": 3, "probability": 0.002984, "expected_events": 0.003, "normal_probability": 0.001006, "times_normal": 3.0}}, {"type": "Feature", "geometry": {"type": "Polygon", "coordinates": [[[26.0, 35.0], [26.25, 35.0], [26.25, 35.25], [26.0, 35.25], [26.0, 35.0]]]}, "properties": {"cell_id": 4, "probability": 0.004372, "expected_events": 0.0044, "normal_probability": 0.00125, "times_normal": 3.5}}, {"type": "Feature", "geometry": {"type": "Polygon", "coordinates": [[[35.0, 35.0], [35.25, 35.0], [35.25, 35.25], [35.0, 35.25], [35.0, 35.0]]]}, "properties": {"cell_id": 40, "probability": 0.000115, "expected_events": 0.0001, "normal_probability": 3.6e-05, "times_normal": 3.2}}, {"type": "Feature", "geometry": {"type": "Polygon", "coordinates": [[[35.25, 35.0], [35.5, 35.0], [35.5, 35.25], [35.25, 35.25], [35.25, 35.0]]]}, "properties": {"cell_id": 41, "probability": 0.000196, "expected_events": 0.0002, "normal_probability": 2.8e-05, "times_normal": 6.9}}, {"type": "Feature", "geometry": {"type": "Polygon", "coordinates": [[[35.5, 35.0], [35.75, 35.0], [35.75, 35.25], [35.5, 35.25], [35.5, 35.0]]]}, "properties": {"cell_id": 42, "probability": 7.6e-05, "expected_events": 0.0001, "normal_probability": 2.7e-05, "times_normal": 2.8}}, {"type": "Feature", "geometry": {"type": "Polygon", "coordinates": [[[35.75, 35.0], [36.0, 35.0], [36.0, 35.25], [35.75, 35.25], [35.75, 35.0]]]}, "properties": {"cell_id": 43, "probability": 6.6e-05, "expected_events": 0.0001, "normal_probability": 2.4e-05, "times_normal": 2.7}}, {"type": "Feature", "geometry": {"type": "Polygon", "coordinates": [[[36.0, 35.0], [36.25, 35.0], [36.25, 35.25], [36.0, 35.25], [36.0, 35.0]]]}, "properties": {"cell_id": 44, "probability": 6.7e-05, "expected_events": 0.0001, "normal_probability": 2.2e-05, "times_normal": 3.1}}, {"type": "Feature", "geometry": {"type": "Polygon", "coordinates": [[[36.25, 35.0], [36.5, 35.0], [36.5, 35.25], [36.25, 35.25], [36.25, 35.0]]]}, "properties": {"cell_id": 45, "probability": 6.6e-05, "expected_events": 0.0001, "normal_probability": 2.3e-05, "times_normal": 2.9}}, {"type": "Feature", "geometry": {"type": "Polygon", "coordinates": [[[36.5, 35.0], [36.75, 35.0], [36.75, 35.25], [36.5, 35.25], [36.5, 35.0]]]}, "properties": {"cell_id": 46, "probability": 0.000102, "expected_events": 0.0001, "normal_probability": 2.4e-05, "times_normal": 4.3}}, {"type": "Feature", "geometry": {"type": "Polygon", "coordinates": [[[36.75, 35.0], [37.0, 35.0], [37.0, 35.25], [36.75, 35.25], [36.75, 35.0]]]}, "properties": {"cell_id": 47, "probability": 0.000569, "expected_events": 0.0006, "normal_probability": 2.6e-05, "times_normal": 21.6}}, {"type": "Feature", "geometry": {"type": "Polygon", "coordinates": [[[37.0, 35.0], [37.25, 35.0], [37.25, 35.25], [37.0, 35.25], [37.0, 35.0]]]}, "properties": {"cell_id": 48, "probability": 0.000328, "expected_events": 0.0003, "normal_probability": 3.2e-05, "times_normal": 10.1}}, {"type": "Feature", "geometry": {"type": "Polygon", "coordinates": [[[37.25, 35.0], [37.5, 35.0], [37.5, 35.25], [37.25, 35.25], [37.25, 35.0]]]}, "properties": {"cell_id": 49, "probability": 0.000215, "expected_events": 0.0002, "normal_probability": 4.1e-05, "times_normal": 5.3}}, {"type": "Feature", "geometry": {"type": "Polygon", "coordinates": [[[37.5, 35.0], [37.75, 35.0], [37.75, 35.25], [37.5, 35.25], [37.5, 35.0]]]}, "properties": {"cell_id": 50, "probability": 0.000102, "expected_events": 0.0001, "normal_probability": 4.4e-05, "times_normal": 2.3}}, {"type": "Feature", "geometry": {"type": "Polygon", "coordinates": [[[37.75, 35.0], [38.0, 35.0], [38.0, 35.25], [37.75, 35.25], [37.75, 35.0]]]}, "properties": {"cell_id": 51, "probability": 7.8e-05, "expected_events": 0.0001, "normal_probability": 3.4e-05, "times_normal": 2.3}}, {"type": "Feature", "geometry": {"type": "Polygon", "coordinates": [[[38.25, 35.0], [38.5, 35.0], [38.5, 35.25], [38.25, 35.25], [38.25, 35.0]]]}, "properties": {"cell_id": 53, "probability": 6.4e-05, "expected_events": 0.0001, "normal_probability": 1.8e-05, "times_normal": 3.5}}, {"type": "Feature", "geometry": {"type": "Polygon", "coordinates": [[[38.5, 35.0], [38.75, 35.0], [38.75, 35.25], [38.5, 35.25], [38.5, 35.0]]]}, "properties": {"cell_id": 54, "probability": 6.4e-05, "expected_events": 0.0001, "normal_probability": 1.9e-05, "times_normal": 3.3}}, {"type": "Feature", "geometry": {"type": "Polygon", "coordinates": [[[38.75, 35.0], [39.0, 35.0], [39.0, 35.25], [38.75, 35.25], [38.75, 35.0]]]}, "properties": {"cell_id": 55, "probability": 6.4e-05, "expected_events": 0.0001, "normal_probability": 1.9e-05, "times_normal": 3.3}}, {"type": "Feature", "geometry": {"type": "Polygon", "coordinates": [[[39.0, 35.0], [39.25, 35.0], [39.25, 35.25], [39.0, 35.25], [39.0, 35.0]]]}, "properties": {"cell_id": 56, "probability": 6.4e-05, "expected_events": 0.0001, "normal_probability": 2.2e-05, "times_normal": 2.9}}, {"type": "Feature", "geometry": {"type": "Polygon", "coordinates": [[[39.5, 35.0], [39.75, 35.0], [39.75, 35.25], [39.5, 35.25], [39.5, 35.0]]]}, "properties": {"cell_id": 58, "probability": 6.4e-05, "expected_events": 0.0001, "normal_probability": 2.6e-05, "times_normal": 2.5}}, {"type": "Feature", "geometry": {"type": "Polygon", "coordinates": [[[40.25, 35.0], [40.5, 35.0], [40.5, 35.25], [40.25, 35.25], [40.25, 35.0]]]}, "properties": {"cell_id": 61, "probability": 6.4e-05, "expected_events": 0.0001, "normal_probability": 2.7e-05, "times_normal": 2.3}}, {"type": "Feature", "geometry": {"type": "Polygon", "coordinates": [[[40.5, 35.0], [40.75, 35.0], [40.75, 35.25], [40.5, 35.25], [40.5, 35.0]]]}, "properties": {"cell_id": 62, "probability": 6.4e-05, "expected_events": 0.0001, "normal_probability": 2.4e-05, "times_normal": 2.6}}, {"type": "Feature", "geometry": {"type": "Polygon", "coordinates": [[[43.25, 35.0], [43.5, 35.0], [43.5, 35.25], [43.25, 35.25], [43.25, 35.0]]]}, "properties": {"cell_id": 73, "probability": 0.000149, "expected_events": 0.0001, "normal_probability": 3e-06, "times_normal": 44.1}}, {"type": "Feature", "geometry": {"type": "Polygon", "coordinates": [[[43.5, 35.0], [43.75, 35.0], [43.75, 35.25], [43.5, 35.25], [43.5, 35.0]]]}, "properties": {"cell_id": 74, "probability": 0.000215, "expected_events": 0.0002, "normal_probability": 8e-06, "times_normal": 27.0}}, {"type": "Feature", "geometry": {"type": "Polygon", "coordinates": [[[43.75, 35.0], [44.0, 35.0], [44.0, 35.25], [43.75, 35.25], [43.75, 35.0]]]}, "properties": {"cell_id": 75, "probability": 8.5e-05, "expected_events": 0.0001, "normal_probability": 1.9e-05, "times_normal": 4.5}}, {"type": "Feature", "geometry": {"type": "Polygon", "coordinates": [[[44.0, 35.0], [44.25, 35.0], [44.25, 35.25], [44.0, 35.25], [44.0, 35.0]]]}, "properties": {"cell_id": 76, "probability": 0.000118, "expected_events": 0.0001, "normal_probability": 2.9e-05, "times_normal": 4.1}}, {"type": "Feature", "geometry": {"type": "Polygon", "coordinates": [[[44.25, 35.0], [44.5, 35.0], [44.5, 35.25], [44.25, 35.25], [44.25, 35.0]]]}, "properties": {"cell_id": 77, "probability": 0.000972, "expected_events": 0.001, "normal_probability": 3.7e-05, "times_normal": 26.4}}, {"type": "Feature", "geometry": {"type": "Polygon", "coordinates": [[[44.5, 35.0], [44.75, 35.0], [44.75, 35.25], [44.5, 35.25], [44.5, 35.0]]]}, "properties": {"cell_id": 78, "probability": 0.004037, "expected_events": 0.004, "normal_probability": 4.6e-05, "times_normal": 88.5}}, {"type": "Feature", "geometry": {"type": "Polygon", "coordinates": [[[44.75, 35.0], [45.0, 35.0], [45.0, 35.25], [44.75, 35.25], [44.75, 35.0]]]}, "properties": {"cell_id": 79, "probability": 0.000389, "expected_events": 0.0004, "normal_probability": 4e-05, "times_normal": 9.8}}, {"type": "Feature", "geometry": {"type": "Polygon", "coordinates": [[[35.0, 35.25], [35.25, 35.25], [35.25, 35.5], [35.0, 35.5], [35.0, 35.25]]]}, "properties": {"cell_id": 1040, "probability": 0.000142, "expected_events": 0.0001, "normal_probability": 3.4e-05, "times_normal": 4.2}}, {"type": "Feature", "geometry": {"type": "Polygon", "coordinates": [[[35.25, 35.25], [35.5, 35.25], [35.5, 35.5], [35.25, 35.5], [35.25, 35.25]]]}, "properties": {"cell_id": 1041, "probability": 0.000329, "expected_events": 0.0003, "normal_probability": 3.6e-05, "times_normal": 9.2}}, {"type": "Feature", "geometry": {"type": "Polygon", "coordinates": [[[35.5, 35.25], [35.75, 35.25], [35.75, 35.5], [35.5, 35.5], [35.5, 35.25]]]}, "properties": {"cell_id": 1042, "probability": 0.000124, "expected_events": 0.0001, "normal_probability": 4.3e-05, "times_normal": 2.9}}, {"type": "Feature", "geometry": {"type": "Polygon", "coordinates": [[[36.5, 35.25], [36.75, 35.25], [36.75, 35.5], [36.5, 35.5], [36.5, 35.25]]]}, "properties": {"cell_id": 1046, "probability": 7.3e-05, "expected_events": 0.0001, "normal_probability": 3.2e-05, "times_normal": 2.3}}, {"type": "Feature", "geometry": {"type": "Polygon", "coordinates": [[[36.75, 35.25], [37.0, 35.25], [37.0, 35.5], [36.75, 35.5], [36.75, 35.25]]]}, "properties": {"cell_id": 1047, "probability": 0.000101, "expected_events": 0.0001, "normal_probability": 3.1e-05, "times_normal": 3.2}}, {"type": "Feature", "geometry": {"type": "Polygon", "coordinates": [[[37.0, 35.25], [37.25, 35.25], [37.25, 35.5], [37.0, 35.5], [37.0, 35.25]]]}, "properties": {"cell_id": 1048, "probability": 9.1e-05, "expected_events": 0.0001, "normal_probability": 3.7e-05, "times_normal": 2.4}}, {"type": "Feature", "geometry": {"type": "Polygon", "coordinates": [[[38.0, 35.25], [38.25, 35.25], [38.25, 35.5], [38.0, 35.5], [38.0, 35.25]]]}, "properties": {"cell_id": 1052, "probability": 6.5e-05, "expected_events": 0.0001, "normal_probability": 3e-05, "times_normal": 2.2}}, {"type": "Feature", "geometry": {"type": "Polygon", "coordinates": [[[39.0, 35.25], [39.25, 35.25], [39.25, 35.5], [39.0, 35.5], [39.0, 35.25]]]}, "properties": {"cell_id": 1056, "probability": 6.5e-05, "expected_events": 0.0001, "normal_probability": 2.4e-05, "times_normal": 2.7}}, {"type": "Feature", "geometry": {"type": "Polygon", "coordinates": [[[39.75, 35.25], [40.0, 35.25], [40.0, 35.5], [39.75, 35.5], [39.75, 35.25]]]}, "properties": {"cell_id": 1059, "probability": 6.5e-05, "expected_events": 0.0001, "normal_probability": 3.1e-05, "times_normal": 2.1}}, {"type": "Feature", "geometry": {"type": "Polygon", "coordinates": [[[40.0, 35.25], [40.25, 35.25], [40.25, 35.5], [40.0, 35.5], [40.0, 35.25]]]}, "properties": {"cell_id": 1060, "probability": 6.5e-05, "expected_events": 0.0001, "normal_probability": 2.8e-05, "times_normal": 2.3}}, {"type": "Feature", "geometry": {"type": "Polygon", "coordinates": [[[40.25, 35.25], [40.5, 35.25], [40.5, 35.5], [40.25, 35.5], [40.25, 35.25]]]}, "properties": {"cell_id": 1061, "probability": 6.6e-05, "expected_events": 0.0001, "normal_probability": 2.8e-05, "times_normal": 2.4}}, {"type": "Feature", "geometry": {"type": "Polygon", "coordinates": [[[40.5, 35.25], [40.75, 35.25], [40.75, 35.5], [40.5, 35.5], [40.5, 35.25]]]}, "properties": {"cell_id": 1062, "probability": 6.5e-05, "expected_events": 0.0001, "normal_probability": 2.1e-05, "times_normal": 3.1}}, {"type": "Feature", "geometry": {"type": "Polygon", "coordinates": [[[41.0, 35.25], [41.25, 35.25], [41.25, 35.5], [41.0, 35.5], [41.0, 35.25]]]}, "properties": {"cell_id": 1064, "probability": 6.5e-05, "expected_events": 0.0001, "normal_probability": 3e-06, "times_normal": 24.2}}, {"type": "Feature", "geometry": {"type": "Polygon", "coordinates": [[[42.75, 35.25], [43.0, 35.25], [43.0, 35.5], [42.75, 35.5], [42.75, 35.25]]]}, "properties": {"cell_id": 1071, "probability": 6.5e-05, "expected_events": 0.0001, "normal_probability": 1.1e-05, "times_normal": 6.1}}, {"type": "Feature", "geometry": {"type": "Polygon", "coordinates": [[[44.0, 35.25], [44.25, 35.25], [44.25, 35.5], [44.0, 35.5], [44.0, 35.25]]]}, "properties": {"cell_id": 1076, "probability": 0.000269, "expected_events": 0.0003, "normal_probability": 3.3e-05, "times_normal": 8.2}}, {"type": "Feature", "geometry": {"type": "Polygon", "coordinates": [[[44.25, 35.25], [44.5, 35.25], [44.5, 35.5], [44.25, 35.5], [44.25, 35.25]]]}, "properties": {"cell_id": 1077, "probability": 0.001443, "expected_events": 0.0014, "normal_probability": 4.8e-05, "times_normal": 30.1}}, {"type": "Feature", "geometry": {"type": "Polygon", "coordinates": [[[44.5, 35.25], [44.75, 35.25], [44.75, 35.5], [44.5, 35.5], [44.5, 35.25]]]}, "properties": {"cell_id": 1078, "probability": 0.002544, "expected_events": 0.0025, "normal_probability": 6.1e-05, "times_normal": 41.4}}, {"type": "Feature", "geometry": {"type": "Polygon", "coordinates": [[[44.75, 35.25], [45.0, 35.25], [45.0, 35.5], [44.75, 35.5], [44.75, 35.25]]]}, "properties": {"cell_id": 1079, "probability": 0.000249, "expected_events": 0.0002, "normal_probability": 5.4e-05, "times_normal": 4.6}}, {"type": "Feature", "geometry": {"type": "Polygon", "coordinates": [[[25.0, 35.5], [25.25, 35.5], [25.25, 35.75], [25.0, 35.75], [25.0, 35.5]]]}, "properties": {"cell_id": 2000, "probability": 0.001096, "expected_events": 0.0011, "normal_probability": 0.000373, "times_normal": 2.9}}, {"type": "Feature", "geometry": {"type": "Polygon", "coordinates": [[[35.0, 35.5], [35.25, 35.5], [35.25, 35.75], [35.0, 35.75], [35.0, 35.5]]]}, "properties": {"cell_id": 2040, "probability": 0.000109, "expected_events": 0.0001, "normal_probability": 5.2e-05, "times_normal": 2.1}}, {"type": "Feature", "geometry": {"type": "Polygon", "coordinates": [[[35.25, 35.5], [35.5, 35.5], [35.5, 35.75], [35.25, 35.75], [35.25, 35.5]]]}, "properties": {"cell_id": 2041, "probability": 0.000197, "expected_events": 0.0002, "normal_probability": 7.2e-05, "times_normal": 2.7}}, {"type": "Feature", "geometry": {"type": "Polygon", "coordinates": [[[36.75, 35.5], [37.0, 35.5], [37.0, 35.75], [36.75, 35.75], [36.75, 35.5]]]}, "properties": {"cell_id": 2047, "probability": 7.5e-05, "expected_events": 0.0001, "normal_probability": 3.7e-05, "times_normal": 2.0}}, {"type": "Feature", "geometry": {"type": "Polygon", "coordinates": [[[38.25, 35.5], [38.5, 35.5], [38.5, 35.75], [38.25, 35.75], [38.25, 35.5]]]}, "properties": {"cell_id": 2053, "probability": 6.5e-05, "expected_events": 0.0001, "normal_probability": 2e-05, "times_normal": 3.3}}, {"type": "Feature", "geometry": {"type": "Polygon", "coordinates": [[[38.5, 35.5], [38.75, 35.5], [38.75, 35.75], [38.5, 35.75], [38.5, 35.5]]]}, "properties": {"cell_id": 2054, "probability": 6.6e-05, "expected_events": 0.0001, "normal_probability": 1.9e-05, "times_normal": 3.4}}, {"type": "Feature", "geometry": {"type": "Polygon", "coordinates": [[[38.75, 35.5], [39.0, 35.5], [39.0, 35.75], [38.75, 35.75], [38.75, 35.5]]]}, "properties": {"cell_id": 2055, "probability": 6.6e-05, "expected_events": 0.0001, "normal_probability": 1.8e-05, "times_normal": 3.6}}, {"type": "Feature", "geometry": {"type": "Polygon", "coordinates": [[[40.0, 35.5], [40.25, 35.5], [40.25, 35.75], [40.0, 35.75], [40.0, 35.5]]]}, "properties": {"cell_id": 2060, "probability": 6.7e-05, "expected_events": 0.0001, "normal_probability": 3.2e-05, "times_normal": 2.1}}, {"type": "Feature", "geometry": {"type": "Polygon", "coordinates": [[[40.25, 35.5], [40.5, 35.5], [40.5, 35.75], [40.25, 35.75], [40.25, 35.5]]]}, "properties": {"cell_id": 2061, "probability": 8e-05, "expected_events": 0.0001, "normal_probability": 3.3e-05, "times_normal": 2.4}}, {"type": "Feature", "geometry": {"type": "Polygon", "coordinates": [[[40.5, 35.5], [40.75, 35.5], [40.75, 35.75], [40.5, 35.75], [40.5, 35.5]]]}, "properties": {"cell_id": 2062, "probability": 6.8e-05, "expected_events": 0.0001, "normal_probability": 3e-05, "times_normal": 2.3}}, {"type": "Feature", "geometry": {"type": "Polygon", "coordinates": [[[40.75, 35.5], [41.0, 35.5], [41.0, 35.75], [40.75, 35.75], [40.75, 35.5]]]}, "properties": {"cell_id": 2063, "probability": 7.2e-05, "expected_events": 0.0001, "normal_probability": 2.1e-05, "times_normal": 3.4}}, {"type": "Feature", "geometry": {"type": "Polygon", "coordinates": [[[41.75, 35.5], [42.0, 35.5], [42.0, 35.75], [41.75, 35.75], [41.75, 35.5]]]}, "properties": {"cell_id": 2067, "probability": 6.5e-05, "expected_events": 0.0001, "normal_probability": 9e-06, "times_normal": 7.3}}, {"type": "Feature", "geometry": {"type": "Polygon", "coordinates": [[[42.5, 35.5], [42.75, 35.5], [42.75, 35.75], [42.5, 35.75], [42.5, 35.5]]]}, "properties": {"cell_id": 2070, "probability": 6.5e-05, "expected_events": 0.0001, "normal_probability": 1.7e-05, "times_normal": 3.8}}, {"type": "Feature", "geometry": {"type": "Polygon", "coordinates": [[[42.75, 35.5], [43.0, 35.5], [43.0, 35.75], [42.75, 35.75], [42.75, 35.5]]]}, "properties": {"cell_id": 2071, "probability": 6.5e-05, "expected_events": 0.0001, "normal_probability": 2e-05, "times_normal": 3.2}}, {"type": "Feature", "geometry": {"type": "Polygon", "coordinates": [[[43.25, 35.5], [43.5, 35.5], [43.5, 35.75], [43.25, 35.75], [43.25, 35.5]]]}, "properties": {"cell_id": 2073, "probability": 6.9e-05, "expected_events": 0.0001, "normal_probability": 3e-05, "times_normal": 2.3}}, {"type": "Feature", "geometry": {"type": "Polygon", "coordinates": [[[43.75, 35.5], [44.0, 35.5], [44.0, 35.75], [43.75, 35.75], [43.75, 35.5]]]}, "properties": {"cell_id": 2075, "probability": 8.3e-05, "expected_events": 0.0001, "normal_probability": 3.7e-05, "times_normal": 2.3}}, {"type": "Feature", "geometry": {"type": "Polygon", "coordinates": [[[44.0, 35.5], [44.25, 35.5], [44.25, 35.75], [44.0, 35.75], [44.0, 35.5]]]}, "properties": {"cell_id": 2076, "probability": 0.000532, "expected_events": 0.0005, "normal_probability": 4.1e-05, "times_normal": 13.0}}, {"type": "Feature", "geometry": {"type": "Polygon", "coordinates": [[[44.25, 35.5], [44.5, 35.5], [44.5, 35.75], [44.25, 35.75], [44.25, 35.5]]]}, "properties": {"cell_id": 2077, "probability": 0.000479, "expected_events": 0.0005, "normal_probability": 4.9e-05, "times_normal": 9.8}}, {"type": "Feature", "geometry": {"type": "Polygon", "coordinates": [[[44.5, 35.5], [44.75, 35.5], [44.75, 35.75], [44.5, 35.75], [44.5, 35.5]]]}, "properties": {"cell_id": 2078, "probability": 0.000161, "expected_events": 0.0002, "normal_probability": 5.6e-05, "times_normal": 2.9}}, {"type": "Feature", "geometry": {"type": "Polygon", "coordinates": [[[44.75, 35.5], [45.0, 35.5], [45.0, 35.75], [44.75, 35.75], [44.75, 35.5]]]}, "properties": {"cell_id": 2079, "probability": 0.000102, "expected_events": 0.0001, "normal_probability": 5.1e-05, "times_normal": 2.0}}, {"type": "Feature", "geometry": {"type": "Polygon", "coordinates": [[[38.25, 35.75], [38.5, 35.75], [38.5, 36.0], [38.25, 36.0], [38.25, 35.75]]]}, "properties": {"cell_id": 3053, "probability": 6.5e-05, "expected_events": 0.0001, "normal_probability": 2.3e-05, "times_normal": 2.9}}, {"type": "Feature", "geometry": {"type": "Polygon", "coordinates": [[[38.5, 35.75], [38.75, 35.75], [38.75, 36.0], [38.5, 36.0], [38.5, 35.75]]]}, "properties": {"cell_id": 3054, "probability": 7.6e-05, "expected_events": 0.0001, "normal_probability": 2.5e-05, "times_normal": 3.0}}, {"type": "Feature", "geometry": {"type": "Polygon", "coordinates": [[[38.75, 35.75], [39.0, 35.75], [39.0, 36.0], [38.75, 36.0], [38.75, 35.75]]]}, "properties": {"cell_id": 3055, "probability": 8e-05, "expected_events": 0.0001, "normal_probability": 2.5e-05, "times_normal": 3.2}}, {"type": "Feature", "geometry": {"type": "Polygon", "coordinates": [[[39.25, 35.75], [39.5, 35.75], [39.5, 36.0], [39.25, 36.0], [39.25, 35.75]]]}, "properties": {"cell_id": 3057, "probability": 6.5e-05, "expected_events": 0.0001, "normal_probability": 2.4e-05, "times_normal": 2.7}}, {"type": "Feature", "geometry": {"type": "Polygon", "coordinates": [[[39.5, 35.75], [39.75, 35.75], [39.75, 36.0], [39.5, 36.0], [39.5, 35.75]]]}, "properties": {"cell_id": 3058, "probability": 6.5e-05, "expected_events": 0.0001, "normal_probability": 3.3e-05, "times_normal": 2.0}}, {"type": "Feature", "geometry": {"type": "Polygon", "coordinates": [[[39.75, 35.75], [40.0, 35.75], [40.0, 36.0], [39.75, 36.0], [39.75, 35.75]]]}, "properties": {"cell_id": 3059, "probability": 7.4e-05, "expected_events": 0.0001, "normal_probability": 3.5e-05, "times_normal": 2.1}}, {"type": "Feature", "geometry": {"type": "Polygon", "coordinates": [[[40.0, 35.75], [40.25, 35.75], [40.25, 36.0], [40.0, 36.0], [40.0, 35.75]]]}, "properties": {"cell_id": 3060, "probability": 8.3e-05, "expected_events": 0.0001, "normal_probability": 3.7e-05, "times_normal": 2.2}}, {"type": "Feature", "geometry": {"type": "Polygon", "coordinates": [[[40.25, 35.75], [40.5, 35.75], [40.5, 36.0], [40.25, 36.0], [40.25, 35.75]]]}, "properties": {"cell_id": 3061, "probability": 0.000124, "expected_events": 0.0001, "normal_probability": 4.9e-05, "times_normal": 2.5}}, {"type": "Feature", "geometry": {"type": "Polygon", "coordinates": [[[42.0, 35.75], [42.25, 35.75], [42.25, 36.0], [42.0, 36.0], [42.0, 35.75]]]}, "properties": {"cell_id": 3068, "probability": 6.5e-05, "expected_events": 0.0001, "normal_probability": 2e-05, "times_normal": 3.2}}, {"type": "Feature", "geometry": {"type": "Polygon", "coordinates": [[[42.25, 35.75], [42.5, 35.75], [42.5, 36.0], [42.25, 36.0], [42.25, 35.75]]]}, "properties": {"cell_id": 3069, "probability": 6.5e-05, "expected_events": 0.0001, "normal_probability": 2e-05, "times_normal": 3.3}}, {"type": "Feature", "geometry": {"type": "Polygon", "coordinates": [[[42.75, 35.75], [43.0, 35.75], [43.0, 36.0], [42.75, 36.0], [42.75, 35.75]]]}, "properties": {"cell_id": 3071, "probability": 6.6e-05, "expected_events": 0.0001, "normal_probability": 2.7e-05, "times_normal": 2.5}}, {"type": "Feature", "geometry": {"type": "Polygon", "coordinates": [[[43.0, 35.75], [43.25, 35.75], [43.25, 36.0], [43.0, 36.0], [43.0, 35.75]]]}, "properties": {"cell_id": 3072, "probability": 8.3e-05, "expected_events": 0.0001, "normal_probability": 3.5e-05, "times_normal": 2.4}}, {"type": "Feature", "geometry": {"type": "Polygon", "coordinates": [[[33.0, 36.0], [33.25, 36.0], [33.25, 36.25], [33.0, 36.25], [33.0, 36.0]]]}, "properties": {"cell_id": 4032, "probability": 6.5e-05, "expected_events": 0.0001, "normal_probability": 2.4e-05, "times_normal": 2.7}}, {"type": "Feature", "geometry": {"type": "Polygon", "coordinates": [[[35.75, 36.0], [36.0, 36.0], [36.0, 36.25], [35.75, 36.25], [35.75, 36.0]]]}, "properties": {"cell_id": 4043, "probability": 0.001706, "expected_events": 0.0017, "normal_probability": 0.000502, "times_normal": 3.4}}, {"type": "Feature", "geometry": {"type": "Polygon", "coordinates": [[[36.0, 36.0], [36.25, 36.0], [36.25, 36.25], [36.0, 36.25], [36.0, 36.0]]]}, "properties": {"cell_id": 4044, "probability": 0.001771, "expected_events": 0.0018, "normal_probability": 0.000462, "times_normal": 3.8}}, {"type": "Feature", "geometry": {"type": "Polygon", "coordinates": [[[38.0, 36.0], [38.25, 36.0], [38.25, 36.25], [38.0, 36.25], [38.0, 36.0]]]}, "properties": {"cell_id": 4052, "probability": 6.5e-05, "expected_events": 0.0001, "normal_probability": 3.2e-05, "times_normal": 2.0}}, {"type": "Feature", "geometry": {"type": "Polygon", "coordinates": [[[38.5, 36.0], [38.75, 36.0], [38.75, 36.25], [38.5, 36.25], [38.5, 36.0]]]}, "properties": {"cell_id": 4054, "probability": 6.5e-05, "expected_events": 0.0001, "normal_probability": 3e-05, "times_normal": 2.2}}, {"type": "Feature", "geometry": {"type": "Polygon", "coordinates": [[[38.75, 36.0], [39.0, 36.0], [39.0, 36.25], [38.75, 36.25], [38.75, 36.0]]]}, "properties": {"cell_id": 4055, "probability": 6.5e-05, "expected_events": 0.0001, "normal_probability": 3e-05, "times_normal": 2.2}}, {"type": "Feature", "geometry": {"type": "Polygon", "coordinates": [[[39.75, 36.0], [40.0, 36.0], [40.0, 36.25], [39.75, 36.25], [39.75, 36.0]]]}, "properties": {"cell_id": 4059, "probability": 8e-05, "expected_events": 0.0001, "normal_probability": 3.3e-05, "times_normal": 2.4}}, {"type": "Feature", "geometry": {"type": "Polygon", "coordinates": [[[42.25, 36.0], [42.5, 36.0], [42.5, 36.25], [42.25, 36.25], [42.25, 36.0]]]}, "properties": {"cell_id": 4069, "probability": 6.5e-05, "expected_events": 0.0001, "normal_probability": 3.2e-05, "times_normal": 2.0}}, {"type": "Feature", "geometry": {"type": "Polygon", "coordinates": [[[42.5, 36.0], [42.75, 36.0], [42.75, 36.25], [42.5, 36.25], [42.5, 36.0]]]}, "properties": {"cell_id": 4070, "probability": 6.5e-05, "expected_events": 0.0001, "normal_probability": 3e-05, "times_normal": 2.2}}, {"type": "Feature", "geometry": {"type": "Polygon", "coordinates": [[[25.25, 36.25], [25.5, 36.25], [25.5, 36.5], [25.25, 36.5], [25.25, 36.25]]]}, "properties": {"cell_id": 5001, "probability": 0.002791, "expected_events": 0.0028, "normal_probability": 0.000708, "times_normal": 3.9}}, {"type": "Feature", "geometry": {"type": "Polygon", "coordinates": [[[25.5, 36.25], [25.75, 36.25], [25.75, 36.5], [25.5, 36.5], [25.5, 36.25]]]}, "properties": {"cell_id": 5002, "probability": 0.003082, "expected_events": 0.0031, "normal_probability": 0.000741, "times_normal": 4.2}}, {"type": "Feature", "geometry": {"type": "Polygon", "coordinates": [[[33.0, 36.25], [33.25, 36.25], [33.25, 36.5], [33.0, 36.5], [33.0, 36.25]]]}, "properties": {"cell_id": 5032, "probability": 6.9e-05, "expected_events": 0.0001, "normal_probability": 1e-05, "times_normal": 6.9}}, {"type": "Feature", "geometry": {"type": "Polygon", "coordinates": [[[36.0, 36.25], [36.25, 36.25], [36.25, 36.5], [36.0, 36.5], [36.0, 36.25]]]}, "properties": {"cell_id": 5044, "probability": 0.00095, "expected_events": 0.001, "normal_probability": 0.000415, "times_normal": 2.3}}, {"type": "Feature", "geometry": {"type": "Polygon", "coordinates": [[[36.25, 36.25], [36.5, 36.25], [36.5, 36.5], [36.25, 36.5], [36.25, 36.25]]]}, "properties": {"cell_id": 5045, "probability": 0.00069, "expected_events": 0.0007, "normal_probability": 0.00027, "times_normal": 2.6}}, {"type": "Feature", "geometry": {"type": "Polygon", "coordinates": [[[39.0, 36.25], [39.25, 36.25], [39.25, 36.5], [39.0, 36.5], [39.0, 36.25]]]}, "properties": {"cell_id": 5056, "probability": 6.5e-05, "expected_events": 0.0001, "normal_probability": 2.6e-05, "times_normal": 2.5}}, {"type": "Feature", "geometry": {"type": "Polygon", "coordinates": [[[39.5, 36.25], [39.75, 36.25], [39.75, 36.5], [39.5, 36.5], [39.5, 36.25]]]}, "properties": {"cell_id": 5058, "probability": 6.6e-05, "expected_events": 0.0001, "normal_probability": 2.3e-05, "times_normal": 2.8}}, {"type": "Feature", "geometry": {"type": "Polygon", "coordinates": [[[25.0, 36.5], [25.25, 36.5], [25.25, 36.75], [25.0, 36.75], [25.0, 36.5]]]}, "properties": {"cell_id": 6000, "probability": 0.000962, "expected_events": 0.001, "normal_probability": 0.000382, "times_normal": 2.5}}, {"type": "Feature", "geometry": {"type": "Polygon", "coordinates": [[[25.25, 36.5], [25.5, 36.5], [25.5, 36.75], [25.25, 36.75], [25.25, 36.5]]]}, "properties": {"cell_id": 6001, "probability": 0.005974, "expected_events": 0.006, "normal_probability": 0.000722, "times_normal": 8.3}}, {"type": "Feature", "geometry": {"type": "Polygon", "coordinates": [[[25.5, 36.5], [25.75, 36.5], [25.75, 36.75], [25.5, 36.75], [25.5, 36.5]]]}, "properties": {"cell_id": 6002, "probability": 0.015192, "expected_events": 0.0153, "normal_probability": 0.000877, "times_normal": 17.3}}, {"type": "Feature", "geometry": {"type": "Polygon", "coordinates": [[[25.75, 36.5], [26.0, 36.5], [26.0, 36.75], [25.75, 36.75], [25.75, 36.5]]]}, "properties": {"cell_id": 6003, "probability": 0.004976, "expected_events": 0.005, "normal_probability": 0.000737, "times_normal": 6.8}}, {"type": "Feature", "geometry": {"type": "Polygon", "coordinates": [[[33.0, 36.5], [33.25, 36.5], [33.25, 36.75], [33.0, 36.75], [33.0, 36.5]]]}, "properties": {"cell_id": 6032, "probability": 6.8e-05, "expected_events": 0.0001, "normal_probability": 2.1e-05, "times_normal": 3.2}}, {"type": "Feature", "geometry": {"type": "Polygon", "coordinates": [[[34.0, 36.5], [34.25, 36.5], [34.25, 36.75], [34.0, 36.75], [34.0, 36.5]]]}, "properties": {"cell_id": 6036, "probability": 0.000496, "expected_events": 0.0005, "normal_probability": 0.000126, "times_normal": 3.9}}, {"type": "Feature", "geometry": {"type": "Polygon", "coordinates": [[[36.25, 36.5], [36.5, 36.5], [36.5, 36.75], [36.25, 36.75], [36.25, 36.5]]]}, "properties": {"cell_id": 6045, "probability": 0.001045, "expected_events": 0.001, "normal_probability": 0.000299, "times_normal": 3.5}}, {"type": "Feature", "geometry": {"type": "Polygon", "coordinates": [[[39.5, 36.5], [39.75, 36.5], [39.75, 36.75], [39.5, 36.75], [39.5, 36.5]]]}, "properties": {"cell_id": 6058, "probability": 6.4e-05, "expected_events": 0.0001, "normal_probability": 2.9e-05, "times_normal": 2.3}}, {"type": "Feature", "geometry": {"type": "Polygon", "coordinates": [[[25.25, 36.75], [25.5, 36.75], [25.5, 37.0], [25.25, 37.0], [25.25, 36.75]]]}, "properties": {"cell_id": 7001, "probability": 0.000748, "expected_events": 0.0007, "normal_probability": 0.000353, "times_normal": 2.1}}, {"type": "Feature", "geometry": {"type": "Polygon", "coordinates": [[[25.5, 36.75], [25.75, 36.75], [25.75, 37.0], [25.5, 37.0], [25.5, 36.75]]]}, "properties": {"cell_id": 7002, "probability": 0.002474, "expected_events": 0.0025, "normal_probability": 0.000472, "times_normal": 5.2}}, {"type": "Feature", "geometry": {"type": "Polygon", "coordinates": [[[25.75, 36.75], [26.0, 36.75], [26.0, 37.0], [25.75, 37.0], [25.75, 36.75]]]}, "properties": {"cell_id": 7003, "probability": 0.001859, "expected_events": 0.0019, "normal_probability": 0.000459, "times_normal": 4.1}}, {"type": "Feature", "geometry": {"type": "Polygon", "coordinates": [[[36.5, 36.75], [36.75, 36.75], [36.75, 37.0], [36.5, 37.0], [36.5, 36.75]]]}, "properties": {"cell_id": 7046, "probability": 0.000926, "expected_events": 0.0009, "normal_probability": 0.000373, "times_normal": 2.5}}, {"type": "Feature", "geometry": {"type": "Polygon", "coordinates": [[[36.75, 36.75], [37.0, 36.75], [37.0, 37.0], [36.75, 37.0], [36.75, 36.75]]]}, "properties": {"cell_id": 7047, "probability": 0.000908, "expected_events": 0.0009, "normal_probability": 0.000364, "times_normal": 2.5}}, {"type": "Feature", "geometry": {"type": "Polygon", "coordinates": [[[37.0, 36.75], [37.25, 36.75], [37.25, 37.0], [37.0, 37.0], [37.0, 36.75]]]}, "properties": {"cell_id": 7048, "probability": 0.00078, "expected_events": 0.0008, "normal_probability": 0.000358, "times_normal": 2.2}}, {"type": "Feature", "geometry": {"type": "Polygon", "coordinates": [[[36.5, 37.0], [36.75, 37.0], [36.75, 37.25], [36.5, 37.25], [36.5, 37.0]]]}, "properties": {"cell_id": 8046, "probability": 0.00276, "expected_events": 0.0028, "normal_probability": 0.000668, "times_normal": 4.1}}, {"type": "Feature", "geometry": {"type": "Polygon", "coordinates": [[[36.75, 37.0], [37.0, 37.0], [37.0, 37.25], [36.75, 37.25], [36.75, 37.0]]]}, "properties": {"cell_id": 8047, "probability": 0.009094, "expected_events": 0.0091, "normal_probability": 0.000782, "times_normal": 11.6}}, {"type": "Feature", "geometry": {"type": "Polygon", "coordinates": [[[37.0, 37.0], [37.25, 37.0], [37.25, 37.25], [37.0, 37.25], [37.0, 37.0]]]}, "properties": {"cell_id": 8048, "probability": 0.005702, "expected_events": 0.0057, "normal_probability": 0.000924, "times_normal": 6.2}}, {"type": "Feature", "geometry": {"type": "Polygon", "coordinates": [[[37.25, 37.0], [37.5, 37.0], [37.5, 37.25], [37.25, 37.25], [37.25, 37.0]]]}, "properties": {"cell_id": 8049, "probability": 0.001594, "expected_events": 0.0016, "normal_probability": 0.000696, "times_normal": 2.3}}, {"type": "Feature", "geometry": {"type": "Polygon", "coordinates": [[[39.75, 37.0], [40.0, 37.0], [40.0, 37.25], [39.75, 37.25], [39.75, 37.0]]]}, "properties": {"cell_id": 8059, "probability": 6.4e-05, "expected_events": 0.0001, "normal_probability": 2.2e-05, "times_normal": 2.9}}, {"type": "Feature", "geometry": {"type": "Polygon", "coordinates": [[[40.25, 37.0], [40.5, 37.0], [40.5, 37.25], [40.25, 37.25], [40.25, 37.0]]]}, "properties": {"cell_id": 8061, "probability": 6.4e-05, "expected_events": 0.0001, "normal_probability": 2.9e-05, "times_normal": 2.2}}, {"type": "Feature", "geometry": {"type": "Polygon", "coordinates": [[[40.75, 37.0], [41.0, 37.0], [41.0, 37.25], [40.75, 37.25], [40.75, 37.0]]]}, "properties": {"cell_id": 8063, "probability": 6.4e-05, "expected_events": 0.0001, "normal_probability": 2.9e-05, "times_normal": 2.2}}, {"type": "Feature", "geometry": {"type": "Polygon", "coordinates": [[[41.25, 37.0], [41.5, 37.0], [41.5, 37.25], [41.25, 37.25], [41.25, 37.0]]]}, "properties": {"cell_id": 8065, "probability": 6.5e-05, "expected_events": 0.0001, "normal_probability": 2.5e-05, "times_normal": 2.6}}, {"type": "Feature", "geometry": {"type": "Polygon", "coordinates": [[[33.25, 37.25], [33.5, 37.25], [33.5, 37.5], [33.25, 37.5], [33.25, 37.25]]]}, "properties": {"cell_id": 9033, "probability": 6.4e-05, "expected_events": 0.0001, "normal_probability": 2.6e-05, "times_normal": 2.5}}, {"type": "Feature", "geometry": {"type": "Polygon", "coordinates": [[[33.5, 37.25], [33.75, 37.25], [33.75, 37.5], [33.5, 37.5], [33.5, 37.25]]]}, "properties": {"cell_id": 9034, "probability": 7.5e-05, "expected_events": 0.0001, "normal_probability": 1.9e-05, "times_normal": 4.0}}, {"type": "Feature", "geometry": {"type": "Polygon", "coordinates": [[[33.75, 37.25], [34.0, 37.25], [34.0, 37.5], [33.75, 37.5], [33.75, 37.25]]]}, "properties": {"cell_id": 9035, "probability": 7.1e-05, "expected_events": 0.0001, "normal_probability": 2.6e-05, "times_normal": 2.8}}, {"type": "Feature", "geometry": {"type": "Polygon", "coordinates": [[[34.0, 37.25], [34.25, 37.25], [34.25, 37.5], [34.0, 37.5], [34.0, 37.25]]]}, "properties": {"cell_id": 9036, "probability": 0.00014, "expected_events": 0.0001, "normal_probability": 4.9e-05, "times_normal": 2.9}}, {"type": "Feature", "geometry": {"type": "Polygon", "coordinates": [[[34.25, 37.25], [34.5, 37.25], [34.5, 37.5], [34.25, 37.5], [34.25, 37.25]]]}, "properties": {"cell_id": 9037, "probability": 0.000916, "expected_events": 0.0009, "normal_probability": 9.1e-05, "times_normal": 10.1}}, {"type": "Feature", "geometry": {"type": "Polygon", "coordinates": [[[36.5, 37.25], [36.75, 37.25], [36.75, 37.5], [36.5, 37.5], [36.5, 37.25]]]}, "properties": {"cell_id": 9046, "probability": 0.001747, "expected_events": 0.0017, "normal_probability": 0.000774, "times_normal": 2.3}}, {"type": "Feature", "geometry": {"type": "Polygon", "coordinates": [[[36.75, 37.25], [37.0, 37.25], [37.0, 37.5], [36.75, 37.5], [36.75, 37.25]]]}, "properties": {"cell_id": 9047, "probability": 0.006948, "expected_events": 0.007, "normal_probability": 0.000873, "times_normal": 8.0}}, {"type": "Feature", "geometry": {"type": "Polygon", "coordinates": [[[37.0, 37.25], [37.25, 37.25], [37.25, 37.5], [37.0, 37.5], [37.0, 37.25]]]}, "properties": {"cell_id": 9048, "probability": 0.007819, "expected_events": 0.0078, "normal_probability": 0.001072, "times_normal": 7.3}}, {"type": "Feature", "geometry": {"type": "Polygon", "coordinates": [[[37.25, 37.25], [37.5, 37.25], [37.5, 37.5], [37.25, 37.5], [37.25, 37.25]]]}, "properties": {"cell_id": 9049, "probability": 0.002256, "expected_events": 0.0023, "normal_probability": 0.00083, "times_normal": 2.7}}, {"type": "Feature", "geometry": {"type": "Polygon", "coordinates": [[[40.25, 37.25], [40.5, 37.25], [40.5, 37.5], [40.25, 37.5], [40.25, 37.25]]]}, "properties": {"cell_id": 9061, "probability": 6.4e-05, "expected_events": 0.0001, "normal_probability": 1.8e-05, "times_normal": 3.6}}, {"type": "Feature", "geometry": {"type": "Polygon", "coordinates": [[[40.5, 37.25], [40.75, 37.25], [40.75, 37.5], [40.5, 37.5], [40.5, 37.25]]]}, "properties": {"cell_id": 9062, "probability": 6.4e-05, "expected_events": 0.0001, "normal_probability": 2.5e-05, "times_normal": 2.6}}, {"type": "Feature", "geometry": {"type": "Polygon", "coordinates": [[[40.75, 37.25], [41.0, 37.25], [41.0, 37.5], [40.75, 37.5], [40.75, 37.25]]]}, "properties": {"cell_id": 9063, "probability": 6.4e-05, "expected_events": 0.0001, "normal_probability": 2.7e-05, "times_normal": 2.4}}, {"type": "Feature", "geometry": {"type": "Polygon", "coordinates": [[[41.75, 37.25], [42.0, 37.25], [42.0, 37.5], [41.75, 37.5], [41.75, 37.25]]]}, "properties": {"cell_id": 9067, "probability": 0.000174, "expected_events": 0.0002, "normal_probability": 6.8e-05, "times_normal": 2.6}}, {"type": "Feature", "geometry": {"type": "Polygon", "coordinates": [[[33.0, 37.5], [33.25, 37.5], [33.25, 37.75], [33.0, 37.75], [33.0, 37.5]]]}, "properties": {"cell_id": 10032, "probability": 6.5e-05, "expected_events": 0.0001, "normal_probability": 3.2e-05, "times_normal": 2.0}}, {"type": "Feature", "geometry": {"type": "Polygon", "coordinates": [[[33.25, 37.5], [33.5, 37.5], [33.5, 37.75], [33.25, 37.75], [33.25, 37.5]]]}, "properties": {"cell_id": 10033, "probability": 6.5e-05, "expected_events": 0.0001, "normal_probability": 2.8e-05, "times_normal": 2.4}}, {"type": "Feature", "geometry": {"type": "Polygon", "coordinates": [[[36.75, 37.5], [37.0, 37.5], [37.0, 37.75], [36.75, 37.75], [36.75, 37.5]]]}, "properties": {"cell_id": 10047, "probability": 0.001341, "expected_events": 0.0013, "normal_probability": 0.000473, "times_normal": 2.8}}, {"type": "Feature", "geometry": {"type": "Polygon", "coordinates": [[[37.0, 37.5], [37.25, 37.5], [37.25, 37.75], [37.0, 37.75], [37.0, 37.5]]]}, "properties": {"cell_id": 10048, "probability": 0.002477, "expected_events": 0.0025, "normal_probability": 0.000563, "times_normal": 4.4}}, {"type": "Feature", "geometry": {"type": "Polygon", "coordinates": [[[37.25, 37.5], [37.5, 37.5], [37.5, 37.75], [37.25, 37.75], [37.25, 37.5]]]}, "properties": {"cell_id": 10049, "probability": 0.001748, "expected_events": 0.0017, "normal_probability": 0.000512, "times_normal": 3.4}}, {"type": "Feature", "geometry": {"type": "Polygon", "coordinates": [[[40.5, 37.5], [40.75, 37.5], [40.75, 37.75], [40.5, 37.75], [40.5, 37.5]]]}, "properties": {"cell_id": 10062, "probability": 6.4e-05, "expected_events": 0.0001, "normal_probability": 2.2e-05, "times_normal": 2.9}}, {"type": "Feature", "geometry": {"type": "Polygon", "coordinates": [[[40.75, 37.5], [41.0, 37.5], [41.0, 37.75], [40.75, 37.75], [40.75, 37.5]]]}, "properties": {"cell_id": 10063, "probability": 6.4e-05, "expected_events": 0.0001, "normal_probability": 3.1e-05, "times_normal": 2.1}}, {"type": "Feature", "geometry": {"type": "Polygon", "coordinates": [[[35.0, 37.75], [35.25, 37.75], [35.25, 38.0], [35.0, 38.0], [35.0, 37.75]]]}, "properties": {"cell_id": 11040, "probability": 0.000391, "expected_events": 0.0004, "normal_probability": 0.00017, "times_normal": 2.3}}, {"type": "Feature", "geometry": {"type": "Polygon", "coordinates": [[[36.0, 37.75], [36.25, 37.75], [36.25, 38.0], [36.0, 38.0], [36.0, 37.75]]]}, "properties": {"cell_id": 11044, "probability": 0.002728, "expected_events": 0.0027, "normal_probability": 0.000427, "times_normal": 6.4}}, {"type": "Feature", "geometry": {"type": "Polygon", "coordinates": [[[36.25, 37.75], [36.5, 37.75], [36.5, 38.0], [36.25, 38.0], [36.25, 37.75]]]}, "properties": {"cell_id": 11045, "probability": 0.004192, "expected_events": 0.0042, "normal_probability": 0.000391, "times_normal": 10.7}}, {"type": "Feature", "geometry": {"type": "Polygon", "coordinates": [[[36.5, 37.75], [36.75, 37.75], [36.75, 38.0], [36.5, 38.0], [36.5, 37.75]]]}, "properties": {"cell_id": 11046, "probability": 0.002768, "expected_events": 0.0028, "normal_probability": 0.000277, "times_normal": 10.0}}, {"type": "Feature", "geometry": {"type": "Polygon", "coordinates": [[[36.75, 37.75], [37.0, 37.75], [37.0, 38.0], [36.75, 38.0], [36.75, 37.75]]]}, "properties": {"cell_id": 11047, "probability": 0.001313, "expected_events": 0.0013, "normal_probability": 0.000218, "times_normal": 6.0}}, {"type": "Feature", "geometry": {"type": "Polygon", "coordinates": [[[37.0, 37.75], [37.25, 37.75], [37.25, 38.0], [37.0, 38.0], [37.0, 37.75]]]}, "properties": {"cell_id": 11048, "probability": 0.002825, "expected_events": 0.0028, "normal_probability": 0.000245, "times_normal": 11.5}}, {"type": "Feature", "geometry": {"type": "Polygon", "coordinates": [[[37.25, 37.75], [37.5, 37.75], [37.5, 38.0], [37.25, 38.0], [37.25, 37.75]]]}, "properties": {"cell_id": 11049, "probability": 0.003485, "expected_events": 0.0035, "normal_probability": 0.000286, "times_normal": 12.2}}, {"type": "Feature", "geometry": {"type": "Polygon", "coordinates": [[[37.5, 37.75], [37.75, 37.75], [37.75, 38.0], [37.5, 38.0], [37.5, 37.75]]]}, "properties": {"cell_id": 11050, "probability": 0.002772, "expected_events": 0.0028, "normal_probability": 0.000318, "times_normal": 8.7}}, {"type": "Feature", "geometry": {"type": "Polygon", "coordinates": [[[37.75, 37.75], [38.0, 37.75], [38.0, 38.0], [37.75, 38.0], [37.75, 37.75]]]}, "properties": {"cell_id": 11051, "probability": 0.001332, "expected_events": 0.0013, "normal_probability": 0.000377, "times_normal": 3.5}}, {"type": "Feature", "geometry": {"type": "Polygon", "coordinates": [[[32.5, 38.0], [32.75, 38.0], [32.75, 38.25], [32.5, 38.25], [32.5, 38.0]]]}, "properties": {"cell_id": 12030, "probability": 0.000223, "expected_events": 0.0002, "normal_probability": 8.9e-05, "times_normal": 2.5}}, {"type": "Feature", "geometry": {"type": "Polygon", "coordinates": [[[36.0, 38.0], [36.25, 38.0], [36.25, 38.25], [36.0, 38.25], [36.0, 38.0]]]}, "properties": {"cell_id": 12044, "probability": 0.000567, "expected_events": 0.0006, "normal_probability": 0.000128, "times_normal": 4.4}}, {"type": "Feature", "geometry": {"type": "Polygon", "coordinates": [[[36.25, 38.0], [36.5, 38.0], [36.5, 38.25], [36.25, 38.25], [36.25, 38.0]]]}, "properties": {"cell_id": 12045, "probability": 0.00329, "expected_events": 0.0033, "normal_probability": 0.00014, "times_normal": 23.5}}, {"type": "Feature", "geometry": {"type": "Polygon", "coordinates": [[[36.5, 38.0], [36.75, 38.0], [36.75, 38.25], [36.5, 38.25], [36.5, 38.0]]]}, "properties": {"cell_id": 12046, "probability": 0.003882, "expected_events": 0.0039, "normal_probability": 0.00013, "times_normal": 29.9}}, {"type": "Feature", "geometry": {"type": "Polygon", "coordinates": [[[36.75, 38.0], [37.0, 38.0], [37.0, 38.25], [36.75, 38.25], [36.75, 38.0]]]}, "properties": {"cell_id": 12047, "probability": 0.002699, "expected_events": 0.0027, "normal_probability": 0.000126, "times_normal": 21.5}}, {"type": "Feature", "geometry": {"type": "Polygon", "coordinates": [[[37.0, 38.0], [37.25, 38.0], [37.25, 38.25], [37.0, 38.25], [37.0, 38.0]]]}, "properties": {"cell_id": 12048, "probability": 0.005634, "expected_events": 0.0057, "normal_probability": 0.000144, "times_normal": 39.2}}, {"type": "Feature", "geometry": {"type": "Polygon", "coordinates": [[[37.25, 38.0], [37.5, 38.0], [37.5, 38.25], [37.25, 38.25], [37.25, 38.0]]]}, "properties": {"cell_id": 12049, "probability": 0.005929, "expected_events": 0.0059, "normal_probability": 0.000173, "times_normal": 34.2}}, {"type": "Feature", "geometry": {"type": "Polygon", "coordinates": [[[37.5, 38.0], [37.75, 38.0], [37.75, 38.25], [37.5, 38.25], [37.5, 38.0]]]}, "properties": {"cell_id": 12050, "probability": 0.003401, "expected_events": 0.0034, "normal_probability": 0.000219, "times_normal": 15.5}}, {"type": "Feature", "geometry": {"type": "Polygon", "coordinates": [[[37.75, 38.0], [38.0, 38.0], [38.0, 38.25], [37.75, 38.25], [37.75, 38.0]]]}, "properties": {"cell_id": 12051, "probability": 0.00277, "expected_events": 0.0028, "normal_probability": 0.0003, "times_normal": 9.2}}, {"type": "Feature", "geometry": {"type": "Polygon", "coordinates": [[[38.0, 38.0], [38.25, 38.0], [38.25, 38.25], [38.0, 38.25], [38.0, 38.0]]]}, "properties": {"cell_id": 12052, "probability": 0.002589, "expected_events": 0.0026, "normal_probability": 0.000424, "times_normal": 6.1}}, {"type": "Feature", "geometry": {"type": "Polygon", "coordinates": [[[38.25, 38.0], [38.5, 38.0], [38.5, 38.25], [38.25, 38.25], [38.25, 38.0]]]}, "properties": {"cell_id": 12053, "probability": 0.005203, "expected_events": 0.0052, "normal_probability": 0.000633, "times_normal": 8.2}}, {"type": "Feature", "geometry": {"type": "Polygon", "coordinates": [[[38.5, 38.0], [38.75, 38.0], [38.75, 38.25], [38.5, 38.25], [38.5, 38.0]]]}, "properties": {"cell_id": 12054, "probability": 0.006536, "expected_events": 0.0066, "normal_probability": 0.000927, "times_normal": 7.0}}, {"type": "Feature", "geometry": {"type": "Polygon", "coordinates": [[[40.5, 38.0], [40.75, 38.0], [40.75, 38.25], [40.5, 38.25], [40.5, 38.0]]]}, "properties": {"cell_id": 12062, "probability": 0.000273, "expected_events": 0.0003, "normal_probability": 0.000111, "times_normal": 2.5}}, {"type": "Feature", "geometry": {"type": "Polygon", "coordinates": [[[33.0, 38.25], [33.25, 38.25], [33.25, 38.5], [33.0, 38.5], [33.0, 38.25]]]}, "properties": {"cell_id": 13032, "probability": 9.2e-05, "expected_events": 0.0001, "normal_probability": 4.3e-05, "times_normal": 2.2}}, {"type": "Feature", "geometry": {"type": "Polygon", "coordinates": [[[36.25, 38.25], [36.5, 38.25], [36.5, 38.5], [36.25, 38.5], [36.25, 38.25]]]}, "properties": {"cell_id": 13045, "probability": 0.000277, "expected_events": 0.0003, "normal_probability": 8.5e-05, "times_normal": 3.3}}, {"type": "Feature", "geometry": {"type": "Polygon", "coordinates": [[[36.5, 38.25], [36.75, 38.25], [36.75, 38.5], [36.5, 38.5], [36.5, 38.25]]]}, "properties": {"cell_id": 13046, "probability": 0.000387, "expected_events": 0.0004, "normal_probability": 0.000101, "times_normal": 3.8}}, {"type": "Feature", "geometry": {"type": "Polygon", "coordinates": [[[36.75, 38.25], [37.0, 38.25], [37.0, 38.5], [36.75, 38.5], [36.75, 38.25]]]}, "properties": {"cell_id": 13047, "probability": 0.000626, "expected_events": 0.0006, "normal_probability": 0.000114, "times_normal": 5.5}}, {"type": "Feature", "geometry": {"type": "Polygon", "coordinates": [[[37.0, 38.25], [37.25, 38.25], [37.25, 38.5], [37.0, 38.5], [37.0, 38.25]]]}, "properties": {"cell_id": 13048, "probability": 0.001413, "expected_events": 0.0014, "normal_probability": 0.000131, "times_normal": 10.8}}, {"type": "Feature", "geometry": {"type": "Polygon", "coordinates": [[[37.25, 38.25], [37.5, 38.25], [37.5, 38.5], [37.25, 38.5], [37.25, 38.25]]]}, "properties": {"cell_id": 13049, "probability": 0.001593, "expected_events": 0.0016, "normal_probability": 0.000143, "times_normal": 11.1}}, {"type": "Feature", "geometry": {"type": "Polygon", "coordinates": [[[37.5, 38.25], [37.75, 38.25], [37.75, 38.5], [37.5, 38.5], [37.5, 38.25]]]}, "properties": {"cell_id": 13050, "probability": 0.001027, "expected_events": 0.001, "normal_probability": 0.000147, "times_normal": 7.0}}, {"type": "Feature", "geometry": {"type": "Polygon", "coordinates": [[[37.75, 38.25], [38.0, 38.25], [38.0, 38.5], [37.75, 38.5], [37.75, 38.25]]]}, "properties": {"cell_id": 13051, "probability": 0.001692, "expected_events": 0.0017, "normal_probability": 0.000167, "times_normal": 10.1}}, {"type": "Feature", "geometry": {"type": "Polygon", "coordinates": [[[38.0, 38.25], [38.25, 38.25], [38.25, 38.5], [38.0, 38.5], [38.0, 38.25]]]}, "properties": {"cell_id": 13052, "probability": 0.002303, "expected_events": 0.0023, "normal_probability": 0.000246, "times_normal": 9.4}}, {"type": "Feature", "geometry": {"type": "Polygon", "coordinates": [[[38.25, 38.25], [38.5, 38.25], [38.5, 38.5], [38.25, 38.5], [38.25, 38.25]]]}, "properties": {"cell_id": 13053, "probability": 0.00391, "expected_events": 0.0039, "normal_probability": 0.000455, "times_normal": 8.6}}, {"type": "Feature", "geometry": {"type": "Polygon", "coordinates": [[[38.5, 38.25], [38.75, 38.25], [38.75, 38.5], [38.5, 38.5], [38.5, 38.25]]]}, "properties": {"cell_id": 13054, "probability": 0.006307, "expected_events": 0.0063, "normal_probability": 0.00088, "times_normal": 7.2}}, {"type": "Feature", "geometry": {"type": "Polygon", "coordinates": [[[38.75, 38.25], [39.0, 38.25], [39.0, 38.5], [38.75, 38.5], [38.75, 38.25]]]}, "properties": {"cell_id": 13055, "probability": 0.003374, "expected_events": 0.0034, "normal_probability": 0.001484, "times_normal": 2.3}}, {"type": "Feature", "geometry": {"type": "Polygon", "coordinates": [[[44.75, 38.25], [45.0, 38.25], [45.0, 38.5], [44.75, 38.5], [44.75, 38.25]]]}, "properties": {"cell_id": 13079, "probability": 0.001013, "expected_events": 0.001, "normal_probability": 0.000235, "times_normal": 4.3}}, {"type": "Feature", "geometry": {"type": "Polygon", "coordinates": [[[36.25, 38.5], [36.5, 38.5], [36.5, 38.75], [36.25, 38.75], [36.25, 38.5]]]}, "properties": {"cell_id": 14045, "probability": 0.00024, "expected_events": 0.0002, "normal_probability": 8.3e-05, "times_normal": 2.9}}, {"type": "Feature", "geometry": {"type": "Polygon", "coordinates": [[[36.5, 38.5], [36.75, 38.5], [36.75, 38.75], [36.5, 38.75], [36.5, 38.5]]]}, "properties": {"cell_id": 14046, "probability": 0.000383, "expected_events": 0.0004, "normal_probability": 9.5e-05, "times_normal": 4.0}}, {"type": "Feature", "geometry": {"type": "Polygon", "coordinates": [[[37.25, 38.5], [37.5, 38.5], [37.5, 38.75], [37.25, 38.75], [37.25, 38.5]]]}, "properties": {"cell_id": 14049, "probability": 0.000314, "expected_events": 0.0003, "normal_probability": 0.000143, "times_normal": 2.2}}, {"type": "Feature", "geometry": {"type": "Polygon", "coordinates": [[[44.75, 38.5], [45.0, 38.5], [45.0, 38.75], [44.75, 38.75], [44.75, 38.5]]]}, "properties": {"cell_id": 14079, "probability": 0.000731, "expected_events": 0.0007, "normal_probability": 0.000276, "times_normal": 2.6}}, {"type": "Feature", "geometry": {"type": "Polygon", "coordinates": [[[36.5, 38.75], [36.75, 38.75], [36.75, 39.0], [36.5, 39.0], [36.5, 38.75]]]}, "properties": {"cell_id": 15046, "probability": 0.000387, "expected_events": 0.0004, "normal_probability": 9.9e-05, "times_normal": 3.9}}, {"type": "Feature", "geometry": {"type": "Polygon", "coordinates": [[[37.0, 38.75], [37.25, 38.75], [37.25, 39.0], [37.0, 39.0], [37.0, 38.75]]]}, "properties": {"cell_id": 15048, "probability": 0.000288, "expected_events": 0.0003, "normal_probability": 0.000135, "times_normal": 2.1}}, {"type": "Feature", "geometry": {"type": "Polygon", "coordinates": [[[37.25, 38.75], [37.5, 38.75], [37.5, 39.0], [37.25, 39.0], [37.25, 38.75]]]}, "properties": {"cell_id": 15049, "probability": 0.000532, "expected_events": 0.0005, "normal_probability": 0.000141, "times_normal": 3.8}}, {"type": "Feature", "geometry": {"type": "Polygon", "coordinates": [[[28.0, 39.0], [28.25, 39.0], [28.25, 39.25], [28.0, 39.25], [28.0, 39.0]]]}, "properties": {"cell_id": 16012, "probability": 0.017939, "expected_events": 0.0181, "normal_probability": 0.001821, "times_normal": 9.8}}, {"type": "Feature", "geometry": {"type": "Polygon", "coordinates": [[[28.25, 39.0], [28.5, 39.0], [28.5, 39.25], [28.25, 39.25], [28.25, 39.0]]]}, "properties": {"cell_id": 16013, "probability": 0.00997, "expected_events": 0.01, "normal_probability": 0.001215, "times_normal": 8.2}}, {"type": "Feature", "geometry": {"type": "Polygon", "coordinates": [[[28.0, 39.25], [28.25, 39.25], [28.25, 39.5], [28.0, 39.5], [28.0, 39.25]]]}, "properties": {"cell_id": 17012, "probability": 0.006957, "expected_events": 0.007, "normal_probability": 0.001835, "times_normal": 3.8}}, {"type": "Feature", "geometry": {"type": "Polygon", "coordinates": [[[34.0, 39.5], [34.25, 39.5], [34.25, 39.75], [34.0, 39.75], [34.0, 39.5]]]}, "properties": {"cell_id": 18036, "probability": 0.000302, "expected_events": 0.0003, "normal_probability": 0.000108, "times_normal": 2.8}}, {"type": "Feature", "geometry": {"type": "Polygon", "coordinates": [[[30.25, 40.0], [30.5, 40.0], [30.5, 40.25], [30.25, 40.25], [30.25, 40.0]]]}, "properties": {"cell_id": 20021, "probability": 0.000507, "expected_events": 0.0005, "normal_probability": 0.000159, "times_normal": 3.2}}, {"type": "Feature", "geometry": {"type": "Polygon", "coordinates": [[[35.75, 40.0], [36.0, 40.0], [36.0, 40.25], [35.75, 40.25], [35.75, 40.0]]]}, "properties": {"cell_id": 20043, "probability": 0.000546, "expected_events": 0.0005, "normal_probability": 0.000191, "times_normal": 2.9}}, {"type": "Feature", "geometry": {"type": "Polygon", "coordinates": [[[36.0, 40.0], [36.25, 40.0], [36.25, 40.25], [36.0, 40.25], [36.0, 40.0]]]}, "properties": {"cell_id": 20044, "probability": 0.000387, "expected_events": 0.0004, "normal_probability": 0.000146, "times_normal": 2.6}}, {"type": "Feature", "geometry": {"type": "Polygon", "coordinates": [[[28.25, 40.5], [28.5, 40.5], [28.5, 40.75], [28.25, 40.75], [28.25, 40.5]]]}, "properties": {"cell_id": 22013, "probability": 0.000845, "expected_events": 0.0008, "normal_probability": 0.000398, "times_normal": 2.1}}, {"type": "Feature", "geometry": {"type": "Polygon", "coordinates": [[[36.5, 40.5], [36.75, 40.5], [36.75, 40.75], [36.5, 40.75], [36.5, 40.5]]]}, "properties": {"cell_id": 22046, "probability": 0.000817, "expected_events": 0.0008, "normal_probability": 0.000272, "times_normal": 3.0}}, {"type": "Feature", "geometry": {"type": "Polygon", "coordinates": [[[36.75, 40.5], [37.0, 40.5], [37.0, 40.75], [36.75, 40.75], [36.75, 40.5]]]}, "properties": {"cell_id": 22047, "probability": 0.001846, "expected_events": 0.0018, "normal_probability": 0.000274, "times_normal": 6.7}}, {"type": "Feature", "geometry": {"type": "Polygon", "coordinates": [[[28.0, 40.75], [28.25, 40.75], [28.25, 41.0], [28.0, 41.0], [28.0, 40.75]]]}, "properties": {"cell_id": 23012, "probability": 0.002908, "expected_events": 0.0029, "normal_probability": 0.000468, "times_normal": 6.2}}, {"type": "Feature", "geometry": {"type": "Polygon", "coordinates": [[[28.25, 40.75], [28.5, 40.75], [28.5, 41.0], [28.25, 41.0], [28.25, 40.75]]]}, "properties": {"cell_id": 23013, "probability": 0.004102, "expected_events": 0.0041, "normal_probability": 0.000328, "times_normal": 12.5}}, {"type": "Feature", "geometry": {"type": "Polygon", "coordinates": [[[33.5, 40.75], [33.75, 40.75], [33.75, 41.0], [33.5, 41.0], [33.5, 40.75]]]}, "properties": {"cell_id": 23034, "probability": 0.001685, "expected_events": 0.0017, "normal_probability": 0.000343, "times_normal": 4.9}}, {"type": "Feature", "geometry": {"type": "Polygon", "coordinates": [[[40.75, 40.75], [41.0, 40.75], [41.0, 41.0], [40.75, 41.0], [40.75, 40.75]]]}, "properties": {"cell_id": 23063, "probability": 0.000121, "expected_events": 0.0001, "normal_probability": 4e-05, "times_normal": 3.0}}, {"type": "Feature", "geometry": {"type": "Polygon", "coordinates": [[[41.0, 40.75], [41.25, 40.75], [41.25, 41.0], [41.0, 41.0], [41.0, 40.75]]]}, "properties": {"cell_id": 23064, "probability": 7.2e-05, "expected_events": 0.0001, "normal_probability": 3.4e-05, "times_normal": 2.1}}, {"type": "Feature", "geometry": {"type": "Polygon", "coordinates": [[[41.25, 40.75], [41.5, 40.75], [41.5, 41.0], [41.25, 41.0], [41.25, 40.75]]]}, "properties": {"cell_id": 23065, "probability": 6.1e-05, "expected_events": 0.0001, "normal_probability": 2.6e-05, "times_normal": 2.3}}, {"type": "Feature", "geometry": {"type": "Polygon", "coordinates": [[[33.5, 41.0], [33.75, 41.0], [33.75, 41.25], [33.5, 41.25], [33.5, 41.0]]]}, "properties": {"cell_id": 24034, "probability": 0.004121, "expected_events": 0.0041, "normal_probability": 0.000241, "times_normal": 17.1}}, {"type": "Feature", "geometry": {"type": "Polygon", "coordinates": [[[33.75, 41.0], [34.0, 41.0], [34.0, 41.25], [33.75, 41.25], [33.75, 41.0]]]}, "properties": {"cell_id": 24035, "probability": 0.000744, "expected_events": 0.0007, "normal_probability": 0.000212, "times_normal": 3.5}}, {"type": "Feature", "geometry": {"type": "Polygon", "coordinates": [[[37.25, 41.0], [37.5, 41.0], [37.5, 41.25], [37.25, 41.25], [37.25, 41.0]]]}, "properties": {"cell_id": 24049, "probability": 7.6e-05, "expected_events": 0.0001, "normal_probability": 2.4e-05, "times_normal": 3.1}}, {"type": "Feature", "geometry": {"type": "Polygon", "coordinates": [[[38.0, 41.0], [38.25, 41.0], [38.25, 41.25], [38.0, 41.25], [38.0, 41.0]]]}, "properties": {"cell_id": 24052, "probability": 6e-05, "expected_events": 0.0001, "normal_probability": 2.3e-05, "times_normal": 2.6}}, {"type": "Feature", "geometry": {"type": "Polygon", "coordinates": [[[38.25, 41.0], [38.5, 41.0], [38.5, 41.25], [38.25, 41.25], [38.25, 41.0]]]}, "properties": {"cell_id": 24053, "probability": 6.1e-05, "expected_events": 0.0001, "normal_probability": 2.6e-05, "times_normal": 2.4}}, {"type": "Feature", "geometry": {"type": "Polygon", "coordinates": [[[38.5, 41.0], [38.75, 41.0], [38.75, 41.25], [38.5, 41.25], [38.5, 41.0]]]}, "properties": {"cell_id": 24054, "probability": 7.2e-05, "expected_events": 0.0001, "normal_probability": 3.5e-05, "times_normal": 2.1}}, {"type": "Feature", "geometry": {"type": "Polygon", "coordinates": [[[39.75, 41.0], [40.0, 41.0], [40.0, 41.25], [39.75, 41.25], [39.75, 41.0]]]}, "properties": {"cell_id": 24059, "probability": 9.9e-05, "expected_events": 0.0001, "normal_probability": 4e-05, "times_normal": 2.5}}, {"type": "Feature", "geometry": {"type": "Polygon", "coordinates": [[[40.75, 41.0], [41.0, 41.0], [41.0, 41.25], [40.75, 41.25], [40.75, 41.0]]]}, "properties": {"cell_id": 24063, "probability": 0.000123, "expected_events": 0.0001, "normal_probability": 4.1e-05, "times_normal": 3.0}}, {"type": "Feature", "geometry": {"type": "Polygon", "coordinates": [[[41.5, 41.0], [41.75, 41.0], [41.75, 41.25], [41.5, 41.25], [41.5, 41.0]]]}, "properties": {"cell_id": 24066, "probability": 6e-05, "expected_events": 0.0001, "normal_probability": 2.2e-05, "times_normal": 2.8}}, {"type": "Feature", "geometry": {"type": "Polygon", "coordinates": [[[28.5, 41.25], [28.75, 41.25], [28.75, 41.5], [28.5, 41.5], [28.5, 41.25]]]}, "properties": {"cell_id": 25014, "probability": 9.7e-05, "expected_events": 0.0001, "normal_probability": 3.9e-05, "times_normal": 2.5}}, {"type": "Feature", "geometry": {"type": "Polygon", "coordinates": [[[37.0, 41.25], [37.25, 41.25], [37.25, 41.5], [37.0, 41.5], [37.0, 41.25]]]}, "properties": {"cell_id": 25048, "probability": 6e-05, "expected_events": 0.0001, "normal_probability": 1.6e-05, "times_normal": 3.8}}, {"type": "Feature", "geometry": {"type": "Polygon", "coordinates": [[[37.5, 41.25], [37.75, 41.25], [37.75, 41.5], [37.5, 41.5], [37.5, 41.25]]]}, "properties": {"cell_id": 25050, "probability": 6e-05, "expected_events": 0.0001, "normal_probability": 8e-06, "times_normal": 7.7}}, {"type": "Feature", "geometry": {"type": "Polygon", "coordinates": [[[38.75, 41.25], [39.0, 41.25], [39.0, 41.5], [38.75, 41.5], [38.75, 41.25]]]}, "properties": {"cell_id": 25055, "probability": 8.8e-05, "expected_events": 0.0001, "normal_probability": 3.5e-05, "times_normal": 2.5}}, {"type": "Feature", "geometry": {"type": "Polygon", "coordinates": [[[39.75, 41.25], [40.0, 41.25], [40.0, 41.5], [39.75, 41.5], [39.75, 41.25]]]}, "properties": {"cell_id": 25059, "probability": 0.000149, "expected_events": 0.0001, "normal_probability": 2.3e-05, "times_normal": 6.5}}, {"type": "Feature", "geometry": {"type": "Polygon", "coordinates": [[[40.25, 41.25], [40.5, 41.25], [40.5, 41.5], [40.25, 41.5], [40.25, 41.25]]]}, "properties": {"cell_id": 25061, "probability": 6.1e-05, "expected_events": 0.0001, "normal_probability": 2.5e-05, "times_normal": 2.4}}, {"type": "Feature", "geometry": {"type": "Polygon", "coordinates": [[[28.25, 41.5], [28.5, 41.5], [28.5, 41.75], [28.25, 41.75], [28.25, 41.5]]]}, "properties": {"cell_id": 26013, "probability": 6.1e-05, "expected_events": 0.0001, "normal_probability": 2.9e-05, "times_normal": 2.1}}, {"type": "Feature", "geometry": {"type": "Polygon", "coordinates": [[[28.5, 41.5], [28.75, 41.5], [28.75, 41.75], [28.5, 41.75], [28.5, 41.5]]]}, "properties": {"cell_id": 26014, "probability": 6.9e-05, "expected_events": 0.0001, "normal_probability": 2.2e-05, "times_normal": 3.1}}, {"type": "Feature", "geometry": {"type": "Polygon", "coordinates": [[[28.75, 41.5], [29.0, 41.5], [29.0, 41.75], [28.75, 41.75], [28.75, 41.5]]]}, "properties": {"cell_id": 26015, "probability": 6.4e-05, "expected_events": 0.0001, "normal_probability": 1.6e-05, "times_normal": 4.1}}, {"type": "Feature", "geometry": {"type": "Polygon", "coordinates": [[[29.0, 41.5], [29.25, 41.5], [29.25, 41.75], [29.0, 41.75], [29.0, 41.5]]]}, "properties": {"cell_id": 26016, "probability": 0.000116, "expected_events": 0.0001, "normal_probability": 1.5e-05, "times_normal": 8.0}}, {"type": "Feature", "geometry": {"type": "Polygon", "coordinates": [[[29.5, 41.5], [29.75, 41.5], [29.75, 41.75], [29.5, 41.75], [29.5, 41.5]]]}, "properties": {"cell_id": 26018, "probability": 6.2e-05, "expected_events": 0.0001, "normal_probability": 1.5e-05, "times_normal": 4.0}}, {"type": "Feature", "geometry": {"type": "Polygon", "coordinates": [[[31.0, 41.5], [31.25, 41.5], [31.25, 41.75], [31.0, 41.75], [31.0, 41.5]]]}, "properties": {"cell_id": 26024, "probability": 6e-05, "expected_events": 0.0001, "normal_probability": 1.8e-05, "times_normal": 3.4}}, {"type": "Feature", "geometry": {"type": "Polygon", "coordinates": [[[31.25, 41.5], [31.5, 41.5], [31.5, 41.75], [31.25, 41.75], [31.25, 41.5]]]}, "properties": {"cell_id": 26025, "probability": 6e-05, "expected_events": 0.0001, "normal_probability": 2.2e-05, "times_normal": 2.8}}, {"type": "Feature", "geometry": {"type": "Polygon", "coordinates": [[[34.5, 41.5], [34.75, 41.5], [34.75, 41.75], [34.5, 41.75], [34.5, 41.5]]]}, "properties": {"cell_id": 26038, "probability": 6e-05, "expected_events": 0.0001, "normal_probability": 2.6e-05, "times_normal": 2.3}}, {"type": "Feature", "geometry": {"type": "Polygon", "coordinates": [[[35.25, 41.5], [35.5, 41.5], [35.5, 41.75], [35.25, 41.75], [35.25, 41.5]]]}, "properties": {"cell_id": 26041, "probability": 6e-05, "expected_events": 0.0001, "normal_probability": 2.8e-05, "times_normal": 2.1}}, {"type": "Feature", "geometry": {"type": "Polygon", "coordinates": [[[36.5, 41.5], [36.75, 41.5], [36.75, 41.75], [36.5, 41.75], [36.5, 41.5]]]}, "properties": {"cell_id": 26046, "probability": 6.1e-05, "expected_events": 0.0001, "normal_probability": 2.1e-05, "times_normal": 2.9}}, {"type": "Feature", "geometry": {"type": "Polygon", "coordinates": [[[38.0, 41.5], [38.25, 41.5], [38.25, 41.75], [38.0, 41.75], [38.0, 41.5]]]}, "properties": {"cell_id": 26052, "probability": 6e-05, "expected_events": 0.0001, "normal_probability": 9e-06, "times_normal": 6.6}}, {"type": "Feature", "geometry": {"type": "Polygon", "coordinates": [[[39.25, 41.5], [39.5, 41.5], [39.5, 41.75], [39.25, 41.75], [39.25, 41.5]]]}, "properties": {"cell_id": 26057, "probability": 6e-05, "expected_events": 0.0001, "normal_probability": 1.4e-05, "times_normal": 4.3}}, {"type": "Feature", "geometry": {"type": "Polygon", "coordinates": [[[39.75, 41.5], [40.0, 41.5], [40.0, 41.75], [39.75, 41.75], [39.75, 41.5]]]}, "properties": {"cell_id": 26059, "probability": 6.1e-05, "expected_events": 0.0001, "normal_probability": 1.1e-05, "times_normal": 5.7}}, {"type": "Feature", "geometry": {"type": "Polygon", "coordinates": [[[41.75, 41.5], [42.0, 41.5], [42.0, 41.75], [41.75, 41.75], [41.75, 41.5]]]}, "properties": {"cell_id": 26067, "probability": 6.3e-05, "expected_events": 0.0001, "normal_probability": 2.8e-05, "times_normal": 2.2}}, {"type": "Feature", "geometry": {"type": "Polygon", "coordinates": [[[42.0, 41.5], [42.25, 41.5], [42.25, 41.75], [42.0, 41.75], [42.0, 41.5]]]}, "properties": {"cell_id": 26068, "probability": 9.3e-05, "expected_events": 0.0001, "normal_probability": 3.9e-05, "times_normal": 2.4}}, {"type": "Feature", "geometry": {"type": "Polygon", "coordinates": [[[28.0, 41.75], [28.25, 41.75], [28.25, 42.0], [28.0, 42.0], [28.0, 41.75]]]}, "properties": {"cell_id": 27012, "probability": 6e-05, "expected_events": 0.0001, "normal_probability": 2.2e-05, "times_normal": 2.7}}, {"type": "Feature", "geometry": {"type": "Polygon", "coordinates": [[[30.25, 41.75], [30.5, 41.75], [30.5, 42.0], [30.25, 42.0], [30.25, 41.75]]]}, "properties": {"cell_id": 27021, "probability": 6.1e-05, "expected_events": 0.0001, "normal_probability": 5e-06, "times_normal": 12.2}}, {"type": "Feature", "geometry": {"type": "Polygon", "coordinates": [[[31.0, 41.75], [31.25, 41.75], [31.25, 42.0], [31.0, 42.0], [31.0, 41.75]]]}, "properties": {"cell_id": 27024, "probability": 6.1e-05, "expected_events": 0.0001, "normal_probability": 6e-06, "times_normal": 9.8}}, {"type": "Feature", "geometry": {"type": "Polygon", "coordinates": [[[31.5, 41.75], [31.75, 41.75], [31.75, 42.0], [31.5, 42.0], [31.5, 41.75]]]}, "properties": {"cell_id": 27026, "probability": 6e-05, "expected_events": 0.0001, "normal_probability": 1.1e-05, "times_normal": 5.5}}, {"type": "Feature", "geometry": {"type": "Polygon", "coordinates": [[[31.75, 41.75], [32.0, 41.75], [32.0, 42.0], [31.75, 42.0], [31.75, 41.75]]]}, "properties": {"cell_id": 27027, "probability": 6e-05, "expected_events": 0.0001, "normal_probability": 2.5e-05, "times_normal": 2.4}}, {"type": "Feature", "geometry": {"type": "Polygon", "coordinates": [[[33.75, 41.75], [34.0, 41.75], [34.0, 42.0], [33.75, 42.0], [33.75, 41.75]]]}, "properties": {"cell_id": 27035, "probability": 6e-05, "expected_events": 0.0001, "normal_probability": 2.5e-05, "times_normal": 2.4}}, {"type": "Feature", "geometry": {"type": "Polygon", "coordinates": [[[34.0, 41.75], [34.25, 41.75], [34.25, 42.0], [34.0, 42.0], [34.0, 41.75]]]}, "properties": {"cell_id": 27036, "probability": 6e-05, "expected_events": 0.0001, "normal_probability": 2.2e-05, "times_normal": 2.7}}, {"type": "Feature", "geometry": {"type": "Polygon", "coordinates": [[[34.25, 41.75], [34.5, 41.75], [34.5, 42.0], [34.25, 42.0], [34.25, 41.75]]]}, "properties": {"cell_id": 27037, "probability": 6e-05, "expected_events": 0.0001, "normal_probability": 2.2e-05, "times_normal": 2.7}}, {"type": "Feature", "geometry": {"type": "Polygon", "coordinates": [[[34.75, 41.75], [35.0, 41.75], [35.0, 42.0], [34.75, 42.0], [34.75, 41.75]]]}, "properties": {"cell_id": 27039, "probability": 6e-05, "expected_events": 0.0001, "normal_probability": 1.2e-05, "times_normal": 4.9}}, {"type": "Feature", "geometry": {"type": "Polygon", "coordinates": [[[36.25, 41.75], [36.5, 41.75], [36.5, 42.0], [36.25, 42.0], [36.25, 41.75]]]}, "properties": {"cell_id": 27045, "probability": 6e-05, "expected_events": 0.0001, "normal_probability": 2.3e-05, "times_normal": 2.6}}, {"type": "Feature", "geometry": {"type": "Polygon", "coordinates": [[[36.5, 41.75], [36.75, 41.75], [36.75, 42.0], [36.5, 42.0], [36.5, 41.75]]]}, "properties": {"cell_id": 27046, "probability": 6e-05, "expected_events": 0.0001, "normal_probability": 1.7e-05, "times_normal": 3.6}}, {"type": "Feature", "geometry": {"type": "Polygon", "coordinates": [[[36.75, 41.75], [37.0, 41.75], [37.0, 42.0], [36.75, 42.0], [36.75, 41.75]]]}, "properties": {"cell_id": 27047, "probability": 7.4e-05, "expected_events": 0.0001, "normal_probability": 1.1e-05, "times_normal": 6.8}}, {"type": "Feature", "geometry": {"type": "Polygon", "coordinates": [[[37.25, 41.75], [37.5, 41.75], [37.5, 42.0], [37.25, 42.0], [37.25, 41.75]]]}, "properties": {"cell_id": 27049, "probability": 6e-05, "expected_events": 0.0001, "normal_probability": 7e-06, "times_normal": 8.7}}, {"type": "Feature", "geometry": {"type": "Polygon", "coordinates": [[[37.75, 41.75], [38.0, 41.75], [38.0, 42.0], [37.75, 42.0], [37.75, 41.75]]]}, "properties": {"cell_id": 27051, "probability": 6e-05, "expected_events": 0.0001, "normal_probability": 8e-06, "times_normal": 7.8}}, {"type": "Feature", "geometry": {"type": "Polygon", "coordinates": [[[38.5, 41.75], [38.75, 41.75], [38.75, 42.0], [38.5, 42.0], [38.5, 41.75]]]}, "properties": {"cell_id": 27054, "probability": 6.4e-05, "expected_events": 0.0001, "normal_probability": 9e-06, "times_normal": 7.2}}, {"type": "Feature", "geometry": {"type": "Polygon", "coordinates": [[[40.25, 41.75], [40.5, 41.75], [40.5, 42.0], [40.25, 42.0], [40.25, 41.75]]]}, "properties": {"cell_id": 27061, "probability": 6e-05, "expected_events": 0.0001, "normal_probability": 2.2e-05, "times_normal": 2.8}}, {"type": "Feature", "geometry": {"type": "Polygon", "coordinates": [[[41.75, 41.75], [42.0, 41.75], [42.0, 42.0], [41.75, 42.0], [41.75, 41.75]]]}, "properties": {"cell_id": 27067, "probability": 6.4e-05, "expected_events": 0.0001, "normal_probability": 2.5e-05, "times_normal": 2.6}}, {"type": "Feature", "geometry": {"type": "Polygon", "coordinates": [[[42.0, 41.75], [42.25, 41.75], [42.25, 42.0], [42.0, 42.0], [42.0, 41.75]]]}, "properties": {"cell_id": 27068, "probability": 0.000108, "expected_events": 0.0001, "normal_probability": 3.8e-05, "times_normal": 2.8}}, {"type": "Feature", "geometry": {"type": "Polygon", "coordinates": [[[27.0, 42.0], [27.25, 42.0], [27.25, 42.25], [27.0, 42.25], [27.0, 42.0]]]}, "properties": {"cell_id": 28008, "probability": 5.9e-05, "expected_events": 0.0001, "normal_probability": 2.4e-05, "times_normal": 2.5}}, {"type": "Feature", "geometry": {"type": "Polygon", "coordinates": [[[28.0, 42.0], [28.25, 42.0], [28.25, 42.25], [28.0, 42.25], [28.0, 42.0]]]}, "properties": {"cell_id": 28012, "probability": 5.9e-05, "expected_events": 0.0001, "normal_probability": 1.4e-05, "times_normal": 4.3}}, {"type": "Feature", "geometry": {"type": "Polygon", "coordinates": [[[29.25, 42.0], [29.5, 42.0], [29.5, 42.25], [29.25, 42.25], [29.25, 42.0]]]}, "properties": {"cell_id": 28017, "probability": 6e-05, "expected_events": 0.0001, "normal_probability": 1.4e-05, "times_normal": 4.4}}, {"type": "Feature", "geometry": {"type": "Polygon", "coordinates": [[[29.5, 42.0], [29.75, 42.0], [29.75, 42.25], [29.5, 42.25], [29.5, 42.0]]]}, "properties": {"cell_id": 28018, "probability": 6e-05, "expected_events": 0.0001, "normal_probability": 1.6e-05, "times_normal": 3.7}}, {"type": "Feature", "geometry": {"type": "Polygon", "coordinates": [[[30.25, 42.0], [30.5, 42.0], [30.5, 42.25], [30.25, 42.25], [30.25, 42.0]]]}, "properties": {"cell_id": 28021, "probability": 5.9e-05, "expected_events": 0.0001, "normal_probability": 7e-06, "times_normal": 8.8}}, {"type": "Feature", "geometry": {"type": "Polygon", "coordinates": [[[30.5, 42.0], [30.75, 42.0], [30.75, 42.25], [30.5, 42.25], [30.5, 42.0]]]}, "properties": {"cell_id": 28022, "probability": 6e-05, "expected_events": 0.0001, "normal_probability": 5e-06, "times_normal": 11.8}}, {"type": "Feature", "geometry": {"type": "Polygon", "coordinates": [[[31.0, 42.0], [31.25, 42.0], [31.25, 42.25], [31.0, 42.25], [31.0, 42.0]]]}, "properties": {"cell_id": 28024, "probability": 7.8e-05, "expected_events": 0.0001, "normal_probability": 8e-06, "times_normal": 9.9}}, {"type": "Feature", "geometry": {"type": "Polygon", "coordinates": [[[31.25, 42.0], [31.5, 42.0], [31.5, 42.25], [31.25, 42.25], [31.25, 42.0]]]}, "properties": {"cell_id": 28025, "probability": 6.1e-05, "expected_events": 0.0001, "normal_probability": 9e-06, "times_normal": 7.1}}, {"type": "Feature", "geometry": {"type": "Polygon", "coordinates": [[[33.0, 42.0], [33.25, 42.0], [33.25, 42.25], [33.0, 42.25], [33.0, 42.0]]]}, "properties": {"cell_id": 28032, "probability": 5.9e-05, "expected_events": 0.0001, "normal_probability": 2.4e-05, "times_normal": 2.5}}, {"type": "Feature", "geometry": {"type": "Polygon", "coordinates": [[[33.25, 42.0], [33.5, 42.0], [33.5, 42.25], [33.25, 42.25], [33.25, 42.0]]]}, "properties": {"cell_id": 28033, "probability": 5.9e-05, "expected_events": 0.0001, "normal_probability": 2.2e-05, "times_normal": 2.7}}, {"type": "Feature", "geometry": {"type": "Polygon", "coordinates": [[[33.75, 42.0], [34.0, 42.0], [34.0, 42.25], [33.75, 42.25], [33.75, 42.0]]]}, "properties": {"cell_id": 28035, "probability": 5.9e-05, "expected_events": 0.0001, "normal_probability": 1.9e-05, "times_normal": 3.2}}, {"type": "Feature", "geometry": {"type": "Polygon", "coordinates": [[[34.0, 42.0], [34.25, 42.0], [34.25, 42.25], [34.0, 42.25], [34.0, 42.0]]]}, "properties": {"cell_id": 28036, "probability": 5.9e-05, "expected_events": 0.0001, "normal_probability": 1.8e-05, "times_normal": 3.3}}, {"type": "Feature", "geometry": {"type": "Polygon", "coordinates": [[[35.0, 42.0], [35.25, 42.0], [35.25, 42.25], [35.0, 42.25], [35.0, 42.0]]]}, "properties": {"cell_id": 28040, "probability": 5.9e-05, "expected_events": 0.0001, "normal_probability": 8e-06, "times_normal": 7.1}}, {"type": "Feature", "geometry": {"type": "Polygon", "coordinates": [[[35.25, 42.0], [35.5, 42.0], [35.5, 42.25], [35.25, 42.25], [35.25, 42.0]]]}, "properties": {"cell_id": 28041, "probability": 5.9e-05, "expected_events": 0.0001, "normal_probability": 1.1e-05, "times_normal": 5.4}}, {"type": "Feature", "geometry": {"type": "Polygon", "coordinates": [[[35.5, 42.0], [35.75, 42.0], [35.75, 42.25], [35.5, 42.25], [35.5, 42.0]]]}, "properties": {"cell_id": 28042, "probability": 5.9e-05, "expected_events": 0.0001, "normal_probability": 1.4e-05, "times_normal": 4.2}}, {"type": "Feature", "geometry": {"type": "Polygon", "coordinates": [[[36.75, 42.0], [37.0, 42.0], [37.0, 42.25], [36.75, 42.25], [36.75, 42.0]]]}, "properties": {"cell_id": 28047, "probability": 6.7e-05, "expected_events": 0.0001, "normal_probability": 7e-06, "times_normal": 9.1}}, {"type": "Feature", "geometry": {"type": "Polygon", "coordinates": [[[37.0, 42.0], [37.25, 42.0], [37.25, 42.25], [37.0, 42.25], [37.0, 42.0]]]}, "properties": {"cell_id": 28048, "probability": 6.7e-05, "expected_events": 0.0001, "normal_probability": 6e-06, "times_normal": 10.9}}, {"type": "Feature", "geometry": {"type": "Polygon", "coordinates": [[[38.5, 42.0], [38.75, 42.0], [38.75, 42.25], [38.5, 42.25], [38.5, 42.0]]]}, "properties": {"cell_id": 28054, "probability": 6e-05, "expected_events": 0.0001, "normal_probability": 1e-05, "times_normal": 6.1}}, {"type": "Feature", "geometry": {"type": "Polygon", "coordinates": [[[42.0, 42.0], [42.25, 42.0], [42.25, 42.25], [42.0, 42.25], [42.0, 42.0]]]}, "properties": {"cell_id": 28068, "probability": 6.3e-05, "expected_events": 0.0001, "normal_probability": 3e-05, "times_normal": 2.1}}, {"type": "Feature", "geometry": {"type": "Polygon", "coordinates": [[[29.0, 42.25], [29.25, 42.25], [29.25, 42.5], [29.0, 42.5], [29.0, 42.25]]]}, "properties": {"cell_id": 29016, "probability": 5.9e-05, "expected_events": 0.0001, "normal_probability": 1.2e-05, "times_normal": 4.8}}, {"type": "Feature", "geometry": {"type": "Polygon", "coordinates": [[[29.5, 42.25], [29.75, 42.25], [29.75, 42.5], [29.5, 42.5], [29.5, 42.25]]]}, "properties": {"cell_id": 29018, "probability": 5.9e-05, "expected_events": 0.0001, "normal_probability": 1.4e-05, "times_normal": 4.3}}, {"type": "Feature", "geometry": {"type": "Polygon", "coordinates": [[[29.75, 42.25], [30.0, 42.25], [30.0, 42.5], [29.75, 42.5], [29.75, 42.25]]]}, "properties": {"cell_id": 29019, "probability": 5.9e-05, "expected_events": 0.0001, "normal_probability": 1.2e-05, "times_normal": 5.0}}, {"type": "Feature", "geometry": {"type": "Polygon", "coordinates": [[[30.75, 42.25], [31.0, 42.25], [31.0, 42.5], [30.75, 42.5], [30.75, 42.25]]]}, "properties": {"cell_id": 29023, "probability": 5.9e-05, "expected_events": 0.0001, "normal_probability": 1e-05, "times_normal": 5.9}}, {"type": "Feature", "geometry": {"type": "Polygon", "coordinates": [[[31.0, 42.25], [31.25, 42.25], [31.25, 42.5], [31.0, 42.5], [31.0, 42.25]]]}, "properties": {"cell_id": 29024, "probability": 6e-05, "expected_events": 0.0001, "normal_probability": 1.4e-05, "times_normal": 4.3}}, {"type": "Feature", "geometry": {"type": "Polygon", "coordinates": [[[31.25, 42.25], [31.5, 42.25], [31.5, 42.5], [31.25, 42.5], [31.25, 42.25]]]}, "properties": {"cell_id": 29025, "probability": 6e-05, "expected_events": 0.0001, "normal_probability": 1.4e-05, "times_normal": 4.3}}, {"type": "Feature", "geometry": {"type": "Polygon", "coordinates": [[[31.75, 42.25], [32.0, 42.25], [32.0, 42.5], [31.75, 42.5], [31.75, 42.25]]]}, "properties": {"cell_id": 29027, "probability": 0.000161, "expected_events": 0.0002, "normal_probability": 1.1e-05, "times_normal": 14.0}}, {"type": "Feature", "geometry": {"type": "Polygon", "coordinates": [[[32.5, 42.25], [32.75, 42.25], [32.75, 42.5], [32.5, 42.5], [32.5, 42.25]]]}, "properties": {"cell_id": 29030, "probability": 5.9e-05, "expected_events": 0.0001, "normal_probability": 2.6e-05, "times_normal": 2.3}}, {"type": "Feature", "geometry": {"type": "Polygon", "coordinates": [[[32.75, 42.25], [33.0, 42.25], [33.0, 42.5], [32.75, 42.5], [32.75, 42.25]]]}, "properties": {"cell_id": 29031, "probability": 5.9e-05, "expected_events": 0.0001, "normal_probability": 2.2e-05, "times_normal": 2.8}}, {"type": "Feature", "geometry": {"type": "Polygon", "coordinates": [[[34.25, 42.25], [34.5, 42.25], [34.5, 42.5], [34.25, 42.5], [34.25, 42.25]]]}, "properties": {"cell_id": 29037, "probability": 5.9e-05, "expected_events": 0.0001, "normal_probability": 1.3e-05, "times_normal": 4.4}}, {"type": "Feature", "geometry": {"type": "Polygon", "coordinates": [[[34.5, 42.25], [34.75, 42.25], [34.75, 42.5], [34.5, 42.5], [34.5, 42.25]]]}, "properties": {"cell_id": 29038, "probability": 5.9e-05, "expected_events": 0.0001, "normal_probability": 1.2e-05, "times_normal": 5.1}}, {"type": "Feature", "geometry": {"type": "Polygon", "coordinates": [[[36.0, 42.25], [36.25, 42.25], [36.25, 42.5], [36.0, 42.5], [36.0, 42.25]]]}, "properties": {"cell_id": 29044, "probability": 6.2e-05, "expected_events": 0.0001, "normal_probability": 2.4e-05, "times_normal": 2.6}}, {"type": "Feature", "geometry": {"type": "Polygon", "coordinates": [[[36.25, 42.25], [36.5, 42.25], [36.5, 42.5], [36.25, 42.5], [36.25, 42.25]]]}, "properties": {"cell_id": 29045, "probability": 6.3e-05, "expected_events": 0.0001, "normal_probability": 2.1e-05, "times_normal": 3.0}}, {"type": "Feature", "geometry": {"type": "Polygon", "coordinates": [[[42.0, 42.25], [42.25, 42.25], [42.25, 42.5], [42.0, 42.5], [42.0, 42.25]]]}, "properties": {"cell_id": 29068, "probability": 0.000108, "expected_events": 0.0001, "normal_probability": 3.2e-05, "times_normal": 3.3}}, {"type": "Feature", "geometry": {"type": "Polygon", "coordinates": [[[25.5, 42.5], [25.75, 42.5], [25.75, 42.75], [25.5, 42.75], [25.5, 42.5]]]}, "properties": {"cell_id": 30002, "probability": 5.9e-05, "expected_events": 0.0001, "normal_probability": 2.7e-05, "times_normal": 2.2}}, {"type": "Feature", "geometry": {"type": "Polygon", "coordinates": [[[27.25, 42.5], [27.5, 42.5], [27.5, 42.75], [27.25, 42.75], [27.25, 42.5]]]}, "properties": {"cell_id": 30009, "probability": 5.9e-05, "expected_events": 0.0001, "normal_probability": 1.3e-05, "times_normal": 4.5}}, {"type": "Feature", "geometry": {"type": "Polygon", "coordinates": [[[27.75, 42.5], [28.0, 42.5], [28.0, 42.75], [27.75, 42.75], [27.75, 42.5]]]}, "properties": {"cell_id": 30011, "probability": 7.6e-05, "expected_events": 0.0001, "normal_probability": 2.1e-05, "times_normal": 3.7}}, {"type": "Feature", "geometry": {"type": "Polygon", "coordinates": [[[28.0, 42.5], [28.25, 42.5], [28.25, 42.75], [28.0, 42.75], [28.0, 42.5]]]}, "properties": {"cell_id": 30012, "probability": 6.3e-05, "expected_events": 0.0001, "normal_probability": 2.2e-05, "times_normal": 2.9}}, {"type": "Feature", "geometry": {"type": "Polygon", "coordinates": [[[28.5, 42.5], [28.75, 42.5], [28.75, 42.75], [28.5, 42.75], [28.5, 42.5]]]}, "properties": {"cell_id": 30014, "probability": 5.9e-05, "expected_events": 0.0001, "normal_probability": 2.1e-05, "times_normal": 2.9}}, {"type": "Feature", "geometry": {"type": "Polygon", "coordinates": [[[28.75, 42.5], [29.0, 42.5], [29.0, 42.75], [28.75, 42.75], [28.75, 42.5]]]}, "properties": {"cell_id": 30015, "probability": 5.9e-05, "expected_events": 0.0001, "normal_probability": 2.3e-05, "times_normal": 2.6}}, {"type": "Feature", "geometry": {"type": "Polygon", "coordinates": [[[29.0, 42.5], [29.25, 42.5], [29.25, 42.75], [29.0, 42.75], [29.0, 42.5]]]}, "properties": {"cell_id": 30016, "probability": 5.9e-05, "expected_events": 0.0001, "normal_probability": 2e-05, "times_normal": 2.9}}, {"type": "Feature", "geometry": {"type": "Polygon", "coordinates": [[[31.5, 42.5], [31.75, 42.5], [31.75, 42.75], [31.5, 42.75], [31.5, 42.5]]]}, "properties": {"cell_id": 30026, "probability": 6.5e-05, "expected_events": 0.0001, "normal_probability": 1.4e-05, "times_normal": 4.8}}, {"type": "Feature", "geometry": {"type": "Polygon", "coordinates": [[[32.0, 42.5], [32.25, 42.5], [32.25, 42.75], [32.0, 42.75], [32.0, 42.5]]]}, "properties": {"cell_id": 30028, "probability": 6.6e-05, "expected_events": 0.0001, "normal_probability": 9e-06, "times_normal": 7.1}}, {"type": "Feature", "geometry": {"type": "Polygon", "coordinates": [[[32.5, 42.5], [32.75, 42.5], [32.75, 42.75], [32.5, 42.75], [32.5, 42.5]]]}, "properties": {"cell_id": 30030, "probability": 5.9e-05, "expected_events": 0.0001, "normal_probability": 8e-06, "times_normal": 7.5}}, {"type": "Feature", "geometry": {"type": "Polygon", "coordinates": [[[33.5, 42.5], [33.75, 42.5], [33.75, 42.75], [33.5, 42.75], [33.5, 42.5]]]}, "properties": {"cell_id": 30034, "probability": 5.9e-05, "expected_events": 0.0001, "normal_probability": 6e-06, "times_normal": 9.2}}, {"type": "Feature", "geometry": {"type": "Polygon", "coordinates": [[[35.25, 42.5], [35.5, 42.5], [35.5, 42.75], [35.25, 42.75], [35.25, 42.5]]]}, "properties": {"cell_id": 30041, "probability": 5.9e-05, "expected_events": 0.0001, "normal_probability": 1.3e-05, "times_normal": 4.6}}, {"type": "Feature", "geometry": {"type": "Polygon", "coordinates": [[[35.75, 42.5], [36.0, 42.5], [36.0, 42.75], [35.75, 42.75], [35.75, 42.5]]]}, "properties": {"cell_id": 30043, "probability": 5.9e-05, "expected_events": 0.0001, "normal_probability": 2.8e-05, "times_normal": 2.1}}, {"type": "Feature", "geometry": {"type": "Polygon", "coordinates": [[[36.25, 42.5], [36.5, 42.5], [36.5, 42.75], [36.25, 42.75], [36.25, 42.5]]]}, "properties": {"cell_id": 30045, "probability": 6.2e-05, "expected_events": 0.0001, "normal_probability": 2.4e-05, "times_normal": 2.5}}, {"type": "Feature", "geometry": {"type": "Polygon", "coordinates": [[[37.0, 42.5], [37.25, 42.5], [37.25, 42.75], [37.0, 42.75], [37.0, 42.5]]]}, "properties": {"cell_id": 30048, "probability": 5.9e-05, "expected_events": 0.0001, "normal_probability": 1e-05, "times_normal": 6.0}}, {"type": "Feature", "geometry": {"type": "Polygon", "coordinates": [[[37.25, 42.5], [37.5, 42.5], [37.5, 42.75], [37.25, 42.75], [37.25, 42.5]]]}, "properties": {"cell_id": 30049, "probability": 5.9e-05, "expected_events": 0.0001, "normal_probability": 9e-06, "times_normal": 6.6}}, {"type": "Feature", "geometry": {"type": "Polygon", "coordinates": [[[39.5, 42.5], [39.75, 42.5], [39.75, 42.75], [39.5, 42.75], [39.5, 42.5]]]}, "properties": {"cell_id": 30058, "probability": 5.9e-05, "expected_events": 0.0001, "normal_probability": 1.6e-05, "times_normal": 3.6}}, {"type": "Feature", "geometry": {"type": "Polygon", "coordinates": [[[39.75, 42.5], [40.0, 42.5], [40.0, 42.75], [39.75, 42.75], [39.75, 42.5]]]}, "properties": {"cell_id": 30059, "probability": 5.9e-05, "expected_events": 0.0001, "normal_probability": 1.9e-05, "times_normal": 3.1}}, {"type": "Feature", "geometry": {"type": "Polygon", "coordinates": [[[40.0, 42.5], [40.25, 42.5], [40.25, 42.75], [40.0, 42.75], [40.0, 42.5]]]}, "properties": {"cell_id": 30060, "probability": 5.9e-05, "expected_events": 0.0001, "normal_probability": 2e-05, "times_normal": 2.9}}, {"type": "Feature", "geometry": {"type": "Polygon", "coordinates": [[[25.0, 42.75], [25.25, 42.75], [25.25, 43.0], [25.0, 43.0], [25.0, 42.75]]]}, "properties": {"cell_id": 31000, "probability": 5.5e-05, "expected_events": 0.0001, "normal_probability": 1e-05, "times_normal": 5.2}}, {"type": "Feature", "geometry": {"type": "Polygon", "coordinates": [[[25.25, 42.75], [25.5, 42.75], [25.5, 43.0], [25.25, 43.0], [25.25, 42.75]]]}, "properties": {"cell_id": 31001, "probability": 5.7e-05, "expected_events": 0.0001, "normal_probability": 1.3e-05, "times_normal": 4.5}}, {"type": "Feature", "geometry": {"type": "Polygon", "coordinates": [[[25.5, 42.75], [25.75, 42.75], [25.75, 43.0], [25.5, 43.0], [25.5, 42.75]]]}, "properties": {"cell_id": 31002, "probability": 5.7e-05, "expected_events": 0.0001, "normal_probability": 1.4e-05, "times_normal": 4.2}}, {"type": "Feature", "geometry": {"type": "Polygon", "coordinates": [[[27.5, 42.75], [27.75, 42.75], [27.75, 43.0], [27.5, 43.0], [27.5, 42.75]]]}, "properties": {"cell_id": 31010, "probability": 5.7e-05, "expected_events": 0.0001, "normal_probability": 1.5e-05, "times_normal": 3.9}}, {"type": "Feature", "geometry": {"type": "Polygon", "coordinates": [[[28.0, 42.75], [28.25, 42.75], [28.25, 43.0], [28.0, 43.0], [28.0, 42.75]]]}, "properties": {"cell_id": 31012, "probability": 5.7e-05, "expected_events": 0.0001, "normal_probability": 2.1e-05, "times_normal": 2.7}}, {"type": "Feature", "geometry": {"type": "Polygon", "coordinates": [[[28.5, 42.75], [28.75, 42.75], [28.75, 43.0], [28.5, 43.0], [28.5, 42.75]]]}, "properties": {"cell_id": 31014, "probability": 5.7e-05, "expected_events": 0.0001, "normal_probability": 2.5e-05, "times_normal": 2.2}}, {"type": "Feature", "geometry": {"type": "Polygon", "coordinates": [[[29.0, 42.75], [29.25, 42.75], [29.25, 43.0], [29.0, 43.0], [29.0, 42.75]]]}, "properties": {"cell_id": 31016, "probability": 5.7e-05, "expected_events": 0.0001, "normal_probability": 2.1e-05, "times_normal": 2.8}}, {"type": "Feature", "geometry": {"type": "Polygon", "coordinates": [[[31.25, 42.75], [31.5, 42.75], [31.5, 43.0], [31.25, 43.0], [31.25, 42.75]]]}, "properties": {"cell_id": 31025, "probability": 5.7e-05, "expected_events": 0.0001, "normal_probability": 1.1e-05, "times_normal": 5.3}}, {"type": "Feature", "geometry": {"type": "Polygon", "coordinates": [[[31.5, 42.75], [31.75, 42.75], [31.75, 43.0], [31.5, 43.0], [31.5, 42.75]]]}, "properties": {"cell_id": 31026, "probability": 5.8e-05, "expected_events": 0.0001, "normal_probability": 1.1e-05, "times_normal": 5.1}}, {"type": "Feature", "geometry": {"type": "Polygon", "coordinates": [[[35.25, 42.75], [35.5, 42.75], [35.5, 43.0], [35.25, 43.0], [35.25, 42.75]]]}, "properties": {"cell_id": 31041, "probability": 5.7e-05, "expected_events": 0.0001, "normal_probability": 8e-06, "times_normal": 6.8}}, {"type": "Feature", "geometry": {"type": "Polygon", "coordinates": [[[35.75, 42.75], [36.0, 42.75], [36.0, 43.0], [35.75, 43.0], [35.75, 42.75]]]}, "properties": {"cell_id": 31043, "probability": 5.7e-05, "expected_events": 0.0001, "normal_probability": 1.9e-05, "times_normal": 3.1}}, {"type": "Feature", "geometry": {"type": "Polygon", "coordinates": [[[36.25, 42.75], [36.5, 42.75], [36.5, 43.0], [36.25, 43.0], [36.25, 42.75]]]}, "properties": {"cell_id": 31045, "probability": 5.7e-05, "expected_events": 0.0001, "normal_probability": 1.7e-05, "times_normal": 3.4}}, {"type": "Feature", "geometry": {"type": "Polygon", "coordinates": [[[38.5, 42.75], [38.75, 42.75], [38.75, 43.0], [38.5, 43.0], [38.5, 42.75]]]}, "properties": {"cell_id": 31054, "probability": 5.7e-05, "expected_events": 0.0001, "normal_probability": 5e-06, "times_normal": 12.3}}, {"type": "Feature", "geometry": {"type": "Polygon", "coordinates": [[[39.5, 42.75], [39.75, 42.75], [39.75, 43.0], [39.5, 43.0], [39.5, 42.75]]]}, "properties": {"cell_id": 31058, "probability": 5.7e-05, "expected_events": 0.0001, "normal_probability": 2.3e-05, "times_normal": 2.5}}, {"type": "Feature", "geometry": {"type": "Polygon", "coordinates": [[[40.25, 42.75], [40.5, 42.75], [40.5, 43.0], [40.25, 43.0], [40.25, 42.75]]]}, "properties": {"cell_id": 31061, "probability": 5.7e-05, "expected_events": 0.0001, "normal_probability": 1.6e-05, "times_normal": 3.5}}, {"type": "Feature", "geometry": {"type": "Polygon", "coordinates": [[[40.5, 42.75], [40.75, 42.75], [40.75, 43.0], [40.5, 43.0], [40.5, 42.75]]]}, "properties": {"cell_id": 31062, "probability": 5.7e-05, "expected_events": 0.0001, "normal_probability": 2.3e-05, "times_normal": 2.5}}, {"type": "Feature", "geometry": {"type": "Polygon", "coordinates": [[[42.0, 42.75], [42.25, 42.75], [42.25, 43.0], [42.0, 43.0], [42.0, 42.75]]]}, "properties": {"cell_id": 31068, "probability": 5.8e-05, "expected_events": 0.0001, "normal_probability": 2.9e-05, "times_normal": 2.0}}]}