{"type": "FeatureCollection", "properties": {"origin": "2026-08-24T00:00:00Z", "window_days": 7, "target_magnitude": 4.5, "model": "ETAS", "mode": "live", "fingerprint": {"method": "analytic-branching", "etas_params_sha256": "5ab1f75edccd7c968858fcf5e72371a267130853f383035820b6095ba0f5281a", "branching_nominal": 0.8209, "branching_effective": 0.8125, "commit": "5331b7d00fdafb353b6046fc5467d47e95351a7b", "worktree": "dirty", "randomness": "none in the branching computation; the ETAS state EM step is SEEDED from the origin date"}, "min_times_normal": 2.0, "cells_before_threshold": 180, "cells_published": 129, "disclaimer": "Bu bir OLASILIK tahminidir, kesin deprem tahmini de\u011fildir. Belirli bir tarih, yer ve b\u00fcy\u00fckl\u00fckte deprem olaca\u011f\u0131n\u0131 \u00f6ng\u00f6rmez ve bilimsel olarak b\u00f6yle bir \u00f6ng\u00f6r\u00fc m\u00fcmk\u00fcn de\u011fildir. Verilen de\u011ferler, belirtilen zaman penceresinde ilgili h\u00fccrede e\u015fik b\u00fcy\u00fckl\u00fc\u011f\u00fcn \u00fczerinde deprem olma olas\u0131l\u0131\u011f\u0131d\u0131r. Y\u00f6ntem ve s\u0131n\u0131rl\u0131l\u0131klar: docs/ROADMAP.md", "note": "GECIS ARSIVI: eski simulasyonlu yol (n_sim=500), yalnizca karsilastirma icin"}, "features": [{"type": "Feature", "geometry": {"type": "Polygon", "coordinates": [[[25.25, 35.0], [25.5, 35.0], [25.5, 35.25], [25.25, 35.25], [25.25, 35.0]]]}, "properties": {"cell_id": 1, "probability": 0.002, "expected_events": 0.002, "normal_probability": 0.000608, "times_normal": 3.3}}, {"type": "Feature", "geometry": {"type": "Polygon", "coordinates": [[[25.5, 35.0], [25.75, 35.0], [25.75, 35.25], [25.5, 35.25], [25.5, 35.0]]]}, "properties": {"cell_id": 2, "probability": 0.002, "expected_events": 0.004, "normal_probability": 0.000773, "times_normal": 2.6}}, {"type": "Feature", "geometry": {"type": "Polygon", "coordinates": [[[26.0, 35.0], [26.25, 35.0], [26.25, 35.25], [26.0, 35.25], [26.0, 35.0]]]}, "properties": {"cell_id": 4, "probability": 0.004, "expected_events": 0.004, "normal_probability": 0.00125, "times_normal": 3.2}}, {"type": "Feature", "geometry": {"type": "Polygon", "coordinates": [[[32.5, 35.0], [32.75, 35.0], [32.75, 35.25], [32.5, 35.25], [32.5, 35.0]]]}, "properties": {"cell_id": 30, "probability": 0.002, "expected_events": 0.002, "normal_probability": 0.000248, "times_normal": 8.1}}, {"type": "Feature", "geometry": {"type": "Polygon", "coordinates": [[[44.25, 35.0], [44.5, 35.0], [44.5, 35.25], [44.25, 35.25], [44.25, 35.0]]]}, "properties": {"cell_id": 77, "probability": 0.002, "expected_events": 0.002, "normal_probability": 3.7e-05, "times_normal": 54.4}}, {"type": "Feature", "geometry": {"type": "Polygon", "coordinates": [[[44.5, 35.0], [44.75, 35.0], [44.75, 35.25], [44.5, 35.25], [44.5, 35.0]]]}, "properties": {"cell_id": 78, "probability": 0.002, "expected_events": 0.002, "normal_probability": 4.6e-05, "times_normal": 43.9}}, {"type": "Feature", "geometry": {"type": "Polygon", "coordinates": [[[25.25, 35.25], [25.5, 35.25], [25.5, 35.5], [25.25, 35.5], [25.25, 35.25]]]}, "properties": {"cell_id": 1001, "probability": 0.002, "expected_events": 0.002, "normal_probability": 0.000634, "times_normal": 3.2}}, {"type": "Feature", "geometry": {"type": "Polygon", "coordinates": [[[27.0, 35.25], [27.25, 35.25], [27.25, 35.5], [27.0, 35.5], [27.0, 35.25]]]}, "properties": {"cell_id": 1008, "probability": 0.006, "expected_events": 0.008, "normal_probability": 0.00288, "times_normal": 2.1}}, {"type": "Feature", "geometry": {"type": "Polygon", "coordinates": [[[28.5, 35.25], [28.75, 35.25], [28.75, 35.5], [28.5, 35.5], [28.5, 35.25]]]}, "properties": {"cell_id": 1014, "probability": 0.002, "expected_events": 0.002, "normal_probability": 0.000537, "times_normal": 3.7}}, {"type": "Feature", "geometry": {"type": "Polygon", "coordinates": [[[44.5, 35.25], [44.75, 35.25], [44.75, 35.5], [44.5, 35.5], [44.5, 35.25]]]}, "properties": {"cell_id": 1078, "probability": 0.002, "expected_events": 0.002, "normal_probability": 6.1e-05, "times_normal": 32.5}}, {"type": "Feature", "geometry": {"type": "Polygon", "coordinates": [[[25.0, 35.5], [25.25, 35.5], [25.25, 35.75], [25.0, 35.75], [25.0, 35.5]]]}, "properties": {"cell_id": 2000, "probability": 0.002, "expected_events": 0.002, "normal_probability": 0.000373, "times_normal": 5.4}}, {"type": "Feature", "geometry": {"type": "Polygon", "coordinates": [[[25.5, 35.5], [25.75, 35.5], [25.75, 35.75], [25.5, 35.75], [25.5, 35.5]]]}, "properties": {"cell_id": 2002, "probability": 0.002, "expected_events": 0.002, "normal_probability": 0.000782, "times_normal": 2.6}}, {"type": "Feature", "geometry": {"type": "Polygon", "coordinates": [[[28.0, 35.5], [28.25, 35.5], [28.25, 35.75], [28.0, 35.75], [28.0, 35.5]]]}, "properties": {"cell_id": 2012, "probability": 0.002, "expected_events": 0.002, "normal_probability": 0.000995, "times_normal": 2.0}}, {"type": "Feature", "geometry": {"type": "Polygon", "coordinates": [[[30.0, 35.5], [30.25, 35.5], [30.25, 35.75], [30.0, 35.75], [30.0, 35.5]]]}, "properties": {"cell_id": 2020, "probability": 0.002, "expected_events": 0.002, "normal_probability": 0.000328, "times_normal": 6.1}}, {"type": "Feature", "geometry": {"type": "Polygon", "coordinates": [[[31.5, 35.5], [31.75, 35.5], [31.75, 35.75], [31.5, 35.75], [31.5, 35.5]]]}, "properties": {"cell_id": 2026, "probability": 0.002, "expected_events": 0.002, "normal_probability": 0.000618, "times_normal": 3.2}}, {"type": "Feature", "geometry": {"type": "Polygon", "coordinates": [[[44.0, 35.5], [44.25, 35.5], [44.25, 35.75], [44.0, 35.75], [44.0, 35.5]]]}, "properties": {"cell_id": 2076, "probability": 0.002, "expected_events": 0.002, "normal_probability": 4.1e-05, "times_normal": 49.0}}, {"type": "Feature", "geometry": {"type": "Polygon", "coordinates": [[[25.25, 35.75], [25.5, 35.75], [25.5, 36.0], [25.25, 36.0], [25.25, 35.75]]]}, "properties": {"cell_id": 3001, "probability": 0.002, "expected_events": 0.002, "normal_probability": 0.000517, "times_normal": 3.9}}, {"type": "Feature", "geometry": {"type": "Polygon", "coordinates": [[[28.75, 35.75], [29.0, 35.75], [29.0, 36.0], [28.75, 36.0], [28.75, 35.75]]]}, "properties": {"cell_id": 3015, "probability": 0.002, "expected_events": 0.002, "normal_probability": 0.000673, "times_normal": 3.0}}, {"type": "Feature", "geometry": {"type": "Polygon", "coordinates": [[[29.0, 35.75], [29.25, 35.75], [29.25, 36.0], [29.0, 36.0], [29.0, 35.75]]]}, "properties": {"cell_id": 3016, "probability": 0.004, "expected_events": 0.006, "normal_probability": 0.000631, "times_normal": 6.3}}, {"type": "Feature", "geometry": {"type": "Polygon", "coordinates": [[[30.0, 35.75], [30.25, 35.75], [30.25, 36.0], [30.0, 36.0], [30.0, 35.75]]]}, "properties": {"cell_id": 3020, "probability": 0.002, "expected_events": 0.002, "normal_probability": 0.000461, "times_normal": 4.3}}, {"type": "Feature", "geometry": {"type": "Polygon", "coordinates": [[[30.25, 35.75], [30.5, 35.75], [30.5, 36.0], [30.25, 36.0], [30.25, 35.75]]]}, "properties": {"cell_id": 3021, "probability": 0.002, "expected_events": 0.002, "normal_probability": 0.000471, "times_normal": 4.2}}, {"type": "Feature", "geometry": {"type": "Polygon", "coordinates": [[[31.75, 35.75], [32.0, 35.75], [32.0, 36.0], [31.75, 36.0], [31.75, 35.75]]]}, "properties": {"cell_id": 3027, "probability": 0.002, "expected_events": 0.002, "normal_probability": 0.000445, "times_normal": 4.5}}, {"type": "Feature", "geometry": {"type": "Polygon", "coordinates": [[[34.25, 35.75], [34.5, 35.75], [34.5, 36.0], [34.25, 36.0], [34.25, 35.75]]]}, "properties": {"cell_id": 3037, "probability": 0.002, "expected_events": 0.002, "normal_probability": 6.1e-05, "times_normal": 33.0}}, {"type": "Feature", "geometry": {"type": "Polygon", "coordinates": [[[25.75, 36.0], [26.0, 36.0], [26.0, 36.25], [25.75, 36.25], [25.75, 36.0]]]}, "properties": {"cell_id": 4003, "probability": 0.002, "expected_events": 0.002, "normal_probability": 0.000466, "times_normal": 4.3}}, {"type": "Feature", "geometry": {"type": "Polygon", "coordinates": [[[28.25, 36.0], [28.5, 36.0], [28.5, 36.25], [28.25, 36.25], [28.25, 36.0]]]}, "properties": {"cell_id": 4013, "probability": 0.002, "expected_events": 0.002, "normal_probability": 0.000979, "times_normal": 2.0}}, {"type": "Feature", "geometry": {"type": "Polygon", "coordinates": [[[36.0, 36.0], [36.25, 36.0], [36.25, 36.25], [36.0, 36.25], [36.0, 36.0]]]}, "properties": {"cell_id": 4044, "probability": 0.002, "expected_events": 0.002, "normal_probability": 0.000462, "times_normal": 4.3}}, {"type": "Feature", "geometry": {"type": "Polygon", "coordinates": [[[25.0, 36.25], [25.25, 36.25], [25.25, 36.5], [25.0, 36.5], [25.0, 36.25]]]}, "properties": {"cell_id": 5000, "probability": 0.002, "expected_events": 0.002, "normal_probability": 0.000475, "times_normal": 4.2}}, {"type": "Feature", "geometry": {"type": "Polygon", "coordinates": [[[25.25, 36.25], [25.5, 36.25], [25.5, 36.5], [25.25, 36.5], [25.25, 36.25]]]}, "properties": {"cell_id": 5001, "probability": 0.002, "expected_events": 0.002, "normal_probability": 0.000708, "times_normal": 2.8}}, {"type": "Feature", "geometry": {"type": "Polygon", "coordinates": [[[25.5, 36.25], [25.75, 36.25], [25.75, 36.5], [25.5, 36.5], [25.5, 36.25]]]}, "properties": {"cell_id": 5002, "probability": 0.002, "expected_events": 0.002, "normal_probability": 0.000741, "times_normal": 2.7}}, {"type": "Feature", "geometry": {"type": "Polygon", "coordinates": [[[35.75, 36.25], [36.0, 36.25], [36.0, 36.5], [35.75, 36.5], [35.75, 36.25]]]}, "properties": {"cell_id": 5043, "probability": 0.002, "expected_events": 0.002, "normal_probability": 0.000456, "times_normal": 4.4}}, {"type": "Feature", "geometry": {"type": "Polygon", "coordinates": [[[36.0, 36.25], [36.25, 36.25], [36.25, 36.5], [36.0, 36.5], [36.0, 36.25]]]}, "properties": {"cell_id": 5044, "probability": 0.002, "expected_events": 0.002, "normal_probability": 0.000415, "times_normal": 4.8}}, {"type": "Feature", "geometry": {"type": "Polygon", "coordinates": [[[25.25, 36.5], [25.5, 36.5], [25.5, 36.75], [25.25, 36.75], [25.25, 36.5]]]}, "properties": {"cell_id": 6001, "probability": 0.002, "expected_events": 0.002, "normal_probability": 0.000722, "times_normal": 2.8}}, {"type": "Feature", "geometry": {"type": "Polygon", "coordinates": [[[25.5, 36.5], [25.75, 36.5], [25.75, 36.75], [25.5, 36.75], [25.5, 36.5]]]}, "properties": {"cell_id": 6002, "probability": 0.012, "expected_events": 0.014, "normal_probability": 0.000877, "times_normal": 13.7}}, {"type": "Feature", "geometry": {"type": "Polygon", "coordinates": [[[25.75, 36.5], [26.0, 36.5], [26.0, 36.75], [25.75, 36.75], [25.75, 36.5]]]}, "properties": {"cell_id": 6003, "probability": 0.004, "expected_events": 0.004, "normal_probability": 0.000737, "times_normal": 5.4}}, {"type": "Feature", "geometry": {"type": "Polygon", "coordinates": [[[27.0, 36.5], [27.25, 36.5], [27.25, 36.75], [27.0, 36.75], [27.0, 36.5]]]}, "properties": {"cell_id": 6008, "probability": 0.004, "expected_events": 0.004, "normal_probability": 0.001803, "times_normal": 2.2}}, {"type": "Feature", "geometry": {"type": "Polygon", "coordinates": [[[30.5, 36.5], [30.75, 36.5], [30.75, 36.75], [30.5, 36.75], [30.5, 36.5]]]}, "properties": {"cell_id": 6022, "probability": 0.004, "expected_events": 0.004, "normal_probability": 0.00037, "times_normal": 10.8}}, {"type": "Feature", "geometry": {"type": "Polygon", "coordinates": [[[36.0, 36.5], [36.25, 36.5], [36.25, 36.75], [36.0, 36.75], [36.0, 36.5]]]}, "properties": {"cell_id": 6044, "probability": 0.002, "expected_events": 0.002, "normal_probability": 0.0004, "times_normal": 5.0}}, {"type": "Feature", "geometry": {"type": "Polygon", "coordinates": [[[36.25, 36.5], [36.5, 36.5], [36.5, 36.75], [36.25, 36.75], [36.25, 36.5]]]}, "properties": {"cell_id": 6045, "probability": 0.002, "expected_events": 0.002, "normal_probability": 0.000299, "times_normal": 6.7}}, {"type": "Feature", "geometry": {"type": "Polygon", "coordinates": [[[40.25, 36.5], [40.5, 36.5], [40.5, 36.75], [40.25, 36.75], [40.25, 36.5]]]}, "properties": {"cell_id": 6061, "probability": 0.002, "expected_events": 0.002, "normal_probability": 9.4e-05, "times_normal": 21.2}}, {"type": "Feature", "geometry": {"type": "Polygon", "coordinates": [[[42.25, 36.5], [42.5, 36.5], [42.5, 36.75], [42.25, 36.75], [42.25, 36.5]]]}, "properties": {"cell_id": 6069, "probability": 0.002, "expected_events": 0.002, "normal_probability": 0.000111, "times_normal": 18.0}}, {"type": "Feature", "geometry": {"type": "Polygon", "coordinates": [[[25.0, 36.75], [25.25, 36.75], [25.25, 37.0], [25.0, 37.0], [25.0, 36.75]]]}, "properties": {"cell_id": 7000, "probability": 0.002, "expected_events": 0.002, "normal_probability": 0.000179, "times_normal": 11.1}}, {"type": "Feature", "geometry": {"type": "Polygon", "coordinates": [[[25.5, 36.75], [25.75, 36.75], [25.75, 37.0], [25.5, 37.0], [25.5, 36.75]]]}, "properties": {"cell_id": 7002, "probability": 0.002, "expected_events": 0.004, "normal_probability": 0.000472, "times_normal": 4.2}}, {"type": "Feature", "geometry": {"type": "Polygon", "coordinates": [[[36.75, 36.75], [37.0, 36.75], [37.0, 37.0], [36.75, 37.0], [36.75, 36.75]]]}, "properties": {"cell_id": 7047, "probability": 0.004, "expected_events": 0.006, "normal_probability": 0.000364, "times_normal": 11.0}}, {"type": "Feature", "geometry": {"type": "Polygon", "coordinates": [[[37.0, 36.75], [37.25, 36.75], [37.25, 37.0], [37.0, 37.0], [37.0, 36.75]]]}, "properties": {"cell_id": 7048, "probability": 0.002, "expected_events": 0.002, "normal_probability": 0.000358, "times_normal": 5.6}}, {"type": "Feature", "geometry": {"type": "Polygon", "coordinates": [[[30.0, 37.0], [30.25, 37.0], [30.25, 37.25], [30.0, 37.25], [30.0, 37.0]]]}, "properties": {"cell_id": 8020, "probability": 0.004, "expected_events": 0.004, "normal_probability": 0.000625, "times_normal": 6.4}}, {"type": "Feature", "geometry": {"type": "Polygon", "coordinates": [[[30.25, 37.0], [30.5, 37.0], [30.5, 37.25], [30.25, 37.25], [30.25, 37.0]]]}, "properties": {"cell_id": 8021, "probability": 0.002, "expected_events": 0.002, "normal_probability": 0.000646, "times_normal": 3.1}}, {"type": "Feature", "geometry": {"type": "Polygon", "coordinates": [[[30.75, 37.0], [31.0, 37.0], [31.0, 37.25], [30.75, 37.25], [30.75, 37.0]]]}, "properties": {"cell_id": 8023, "probability": 0.002, "expected_events": 0.002, "normal_probability": 0.000607, "times_normal": 3.3}}, {"type": "Feature", "geometry": {"type": "Polygon", "coordinates": [[[31.0, 37.0], [31.25, 37.0], [31.25, 37.25], [31.0, 37.25], [31.0, 37.0]]]}, "properties": {"cell_id": 8024, "probability": 0.002, "expected_events": 0.002, "normal_probability": 0.000508, "times_normal": 3.9}}, {"type": "Feature", "geometry": {"type": "Polygon", "coordinates": [[[36.5, 37.0], [36.75, 37.0], [36.75, 37.25], [36.5, 37.25], [36.5, 37.0]]]}, "properties": {"cell_id": 8046, "probability": 0.002, "expected_events": 0.002, "normal_probability": 0.000668, "times_normal": 3.0}}, {"type": "Feature", "geometry": {"type": "Polygon", "coordinates": [[[36.75, 37.0], [37.0, 37.0], [37.0, 37.25], [36.75, 37.25], [36.75, 37.0]]]}, "properties": {"cell_id": 8047, "probability": 0.01, "expected_events": 0.012, "normal_probability": 0.000782, "times_normal": 12.8}}, {"type": "Feature", "geometry": {"type": "Polygon", "coordinates": [[[37.0, 37.0], [37.25, 37.0], [37.25, 37.25], [37.0, 37.25], [37.0, 37.0]]]}, "properties": {"cell_id": 8048, "probability": 0.008, "expected_events": 0.008, "normal_probability": 0.000924, "times_normal": 8.7}}, {"type": "Feature", "geometry": {"type": "Polygon", "coordinates": [[[37.25, 37.0], [37.5, 37.0], [37.5, 37.25], [37.25, 37.25], [37.25, 37.0]]]}, "properties": {"cell_id": 8049, "probability": 0.002, "expected_events": 0.002, "normal_probability": 0.000696, "times_normal": 2.9}}, {"type": "Feature", "geometry": {"type": "Polygon", "coordinates": [[[34.25, 37.25], [34.5, 37.25], [34.5, 37.5], [34.25, 37.5], [34.25, 37.25]]]}, "properties": {"cell_id": 9037, "probability": 0.002, "expected_events": 0.002, "normal_probability": 9.1e-05, "times_normal": 22.0}}, {"type": "Feature", "geometry": {"type": "Polygon", "coordinates": [[[35.5, 37.25], [35.75, 37.25], [35.75, 37.5], [35.5, 37.5], [35.5, 37.25]]]}, "properties": {"cell_id": 9042, "probability": 0.002, "expected_events": 0.002, "normal_probability": 0.000796, "times_normal": 2.5}}, {"type": "Feature", "geometry": {"type": "Polygon", "coordinates": [[[36.5, 37.25], [36.75, 37.25], [36.75, 37.5], [36.5, 37.5], [36.5, 37.25]]]}, "properties": {"cell_id": 9046, "probability": 0.002, "expected_events": 0.002, "normal_probability": 0.000774, "times_normal": 2.6}}, {"type": "Feature", "geometry": {"type": "Polygon", "coordinates": [[[36.75, 37.25], [37.0, 37.25], [37.0, 37.5], [36.75, 37.5], [36.75, 37.25]]]}, "properties": {"cell_id": 9047, "probability": 0.008, "expected_events": 0.008, "normal_probability": 0.000873, "times_normal": 9.2}}, {"type": "Feature", "geometry": {"type": "Polygon", "coordinates": [[[37.0, 37.25], [37.25, 37.25], [37.25, 37.5], [37.0, 37.5], [37.0, 37.25]]]}, "properties": {"cell_id": 9048, "probability": 0.014, "expected_events": 0.016, "normal_probability": 0.001072, "times_normal": 13.1}}, {"type": "Feature", "geometry": {"type": "Polygon", "coordinates": [[[37.25, 37.25], [37.5, 37.25], [37.5, 37.5], [37.25, 37.5], [37.25, 37.25]]]}, "properties": {"cell_id": 9049, "probability": 0.002, "expected_events": 0.004, "normal_probability": 0.00083, "times_normal": 2.4}}, {"type": "Feature", "geometry": {"type": "Polygon", "coordinates": [[[41.75, 37.25], [42.0, 37.25], [42.0, 37.5], [41.75, 37.5], [41.75, 37.25]]]}, "properties": {"cell_id": 9067, "probability": 0.002, "expected_events": 0.002, "normal_probability": 6.8e-05, "times_normal": 29.5}}, {"type": "Feature", "geometry": {"type": "Polygon", "coordinates": [[[43.75, 37.25], [44.0, 37.25], [44.0, 37.5], [43.75, 37.5], [43.75, 37.25]]]}, "properties": {"cell_id": 9075, "probability": 0.002, "expected_events": 0.004, "normal_probability": 0.000458, "times_normal": 4.4}}, {"type": "Feature", "geometry": {"type": "Polygon", "coordinates": [[[30.0, 37.5], [30.25, 37.5], [30.25, 37.75], [30.0, 37.75], [30.0, 37.5]]]}, "properties": {"cell_id": 10020, "probability": 0.002, "expected_events": 0.002, "normal_probability": 0.000646, "times_normal": 3.1}}, {"type": "Feature", "geometry": {"type": "Polygon", "coordinates": [[[35.75, 37.5], [36.0, 37.5], [36.0, 37.75], [35.75, 37.75], [35.75, 37.5]]]}, "properties": {"cell_id": 10043, "probability": 0.002, "expected_events": 0.002, "normal_probability": 0.000855, "times_normal": 2.3}}, {"type": "Feature", "geometry": {"type": "Polygon", "coordinates": [[[36.0, 37.5], [36.25, 37.5], [36.25, 37.75], [36.0, 37.75], [36.0, 37.5]]]}, "properties": {"cell_id": 10044, "probability": 0.002, "expected_events": 0.002, "normal_probability": 0.000935, "times_normal": 2.1}}, {"type": "Feature", "geometry": {"type": "Polygon", "coordinates": [[[28.5, 37.75], [28.75, 37.75], [28.75, 38.0], [28.5, 38.0], [28.5, 37.75]]]}, "properties": {"cell_id": 11014, "probability": 0.002, "expected_events": 0.002, "normal_probability": 0.000919, "times_normal": 2.2}}, {"type": "Feature", "geometry": {"type": "Polygon", "coordinates": [[[35.75, 37.75], [36.0, 37.75], [36.0, 38.0], [35.75, 38.0], [35.75, 37.75]]]}, "properties": {"cell_id": 11043, "probability": 0.002, "expected_events": 0.002, "normal_probability": 0.000374, "times_normal": 5.3}}, {"type": "Feature", "geometry": {"type": "Polygon", "coordinates": [[[36.0, 37.75], [36.25, 37.75], [36.25, 38.0], [36.0, 38.0], [36.0, 37.75]]]}, "properties": {"cell_id": 11044, "probability": 0.006, "expected_events": 0.006, "normal_probability": 0.000427, "times_normal": 14.1}}, {"type": "Feature", "geometry": {"type": "Polygon", "coordinates": [[[36.25, 37.75], [36.5, 37.75], [36.5, 38.0], [36.25, 38.0], [36.25, 37.75]]]}, "properties": {"cell_id": 11045, "probability": 0.004, "expected_events": 0.004, "normal_probability": 0.000391, "times_normal": 10.2}}, {"type": "Feature", "geometry": {"type": "Polygon", "coordinates": [[[37.0, 37.75], [37.25, 37.75], [37.25, 38.0], [37.0, 38.0], [37.0, 37.75]]]}, "properties": {"cell_id": 11048, "probability": 0.008, "expected_events": 0.008, "normal_probability": 0.000245, "times_normal": 32.6}}, {"type": "Feature", "geometry": {"type": "Polygon", "coordinates": [[[37.25, 37.75], [37.5, 37.75], [37.5, 38.0], [37.25, 38.0], [37.25, 37.75]]]}, "properties": {"cell_id": 11049, "probability": 0.004, "expected_events": 0.004, "normal_probability": 0.000286, "times_normal": 14.0}}, {"type": "Feature", "geometry": {"type": "Polygon", "coordinates": [[[42.25, 37.75], [42.5, 37.75], [42.5, 38.0], [42.25, 38.0], [42.25, 37.75]]]}, "properties": {"cell_id": 11069, "probability": 0.002, "expected_events": 0.002, "normal_probability": 0.000263, "times_normal": 7.6}}, {"type": "Feature", "geometry": {"type": "Polygon", "coordinates": [[[25.75, 38.0], [26.0, 38.0], [26.0, 38.25], [25.75, 38.25], [25.75, 38.0]]]}, "properties": {"cell_id": 12003, "probability": 0.002, "expected_events": 0.002, "normal_probability": 0.000556, "times_normal": 3.6}}, {"type": "Feature", "geometry": {"type": "Polygon", "coordinates": [[[32.5, 38.0], [32.75, 38.0], [32.75, 38.25], [32.5, 38.25], [32.5, 38.0]]]}, "properties": {"cell_id": 12030, "probability": 0.002, "expected_events": 0.004, "normal_probability": 8.9e-05, "times_normal": 22.4}}, {"type": "Feature", "geometry": {"type": "Polygon", "coordinates": [[[36.0, 38.0], [36.25, 38.0], [36.25, 38.25], [36.0, 38.25], [36.0, 38.0]]]}, "properties": {"cell_id": 12044, "probability": 0.002, "expected_events": 0.002, "normal_probability": 0.000128, "times_normal": 15.6}}, {"type": "Feature", "geometry": {"type": "Polygon", "coordinates": [[[36.25, 38.0], [36.5, 38.0], [36.5, 38.25], [36.25, 38.25], [36.25, 38.0]]]}, "properties": {"cell_id": 12045, "probability": 0.002, "expected_events": 0.002, "normal_probability": 0.00014, "times_normal": 14.3}}, {"type": "Feature", "geometry": {"type": "Polygon", "coordinates": [[[36.5, 38.0], [36.75, 38.0], [36.75, 38.25], [36.5, 38.25], [36.5, 38.0]]]}, "properties": {"cell_id": 12046, "probability": 0.004, "expected_events": 0.004, "normal_probability": 0.00013, "times_normal": 30.8}}, {"type": "Feature", "geometry": {"type": "Polygon", "coordinates": [[[36.75, 38.0], [37.0, 38.0], [37.0, 38.25], [36.75, 38.25], [36.75, 38.0]]]}, "properties": {"cell_id": 12047, "probability": 0.004, "expected_events": 0.004, "normal_probability": 0.000126, "times_normal": 31.8}}, {"type": "Feature", "geometry": {"type": "Polygon", "coordinates": [[[37.0, 38.0], [37.25, 38.0], [37.25, 38.25], [37.0, 38.25], [37.0, 38.0]]]}, "properties": {"cell_id": 12048, "probability": 0.004, "expected_events": 0.004, "normal_probability": 0.000144, "times_normal": 27.8}}, {"type": "Feature", "geometry": {"type": "Polygon", "coordinates": [[[37.25, 38.0], [37.5, 38.0], [37.5, 38.25], [37.25, 38.25], [37.25, 38.0]]]}, "properties": {"cell_id": 12049, "probability": 0.002, "expected_events": 0.002, "normal_probability": 0.000173, "times_normal": 11.6}}, {"type": "Feature", "geometry": {"type": "Polygon", "coordinates": [[[37.5, 38.0], [37.75, 38.0], [37.75, 38.25], [37.5, 38.25], [37.5, 38.0]]]}, "properties": {"cell_id": 12050, "probability": 0.01, "expected_events": 0.012, "normal_probability": 0.000219, "times_normal": 45.6}}, {"type": "Feature", "geometry": {"type": "Polygon", "coordinates": [[[37.75, 38.0], [38.0, 38.0], [38.0, 38.25], [37.75, 38.25], [37.75, 38.0]]]}, "properties": {"cell_id": 12051, "probability": 0.004, "expected_events": 0.006, "normal_probability": 0.0003, "times_normal": 13.3}}, {"type": "Feature", "geometry": {"type": "Polygon", "coordinates": [[[38.0, 38.0], [38.25, 38.0], [38.25, 38.25], [38.0, 38.25], [38.0, 38.0]]]}, "properties": {"cell_id": 12052, "probability": 0.002, "expected_events": 0.002, "normal_probability": 0.000424, "times_normal": 4.7}}, {"type": "Feature", "geometry": {"type": "Polygon", "coordinates": [[[38.5, 38.0], [38.75, 38.0], [38.75, 38.25], [38.5, 38.25], [38.5, 38.0]]]}, "properties": {"cell_id": 12054, "probability": 0.008, "expected_events": 0.008, "normal_probability": 0.000927, "times_normal": 8.6}}, {"type": "Feature", "geometry": {"type": "Polygon", "coordinates": [[[42.0, 38.0], [42.25, 38.0], [42.25, 38.25], [42.0, 38.25], [42.0, 38.0]]]}, "properties": {"cell_id": 12068, "probability": 0.002, "expected_events": 0.002, "normal_probability": 0.000185, "times_normal": 10.8}}, {"type": "Feature", "geometry": {"type": "Polygon", "coordinates": [[[33.0, 38.25], [33.25, 38.25], [33.25, 38.5], [33.0, 38.5], [33.0, 38.25]]]}, "properties": {"cell_id": 13032, "probability": 0.002, "expected_events": 0.002, "normal_probability": 4.3e-05, "times_normal": 47.0}}, {"type": "Feature", "geometry": {"type": "Polygon", "coordinates": [[[36.75, 38.25], [37.0, 38.25], [37.0, 38.5], [36.75, 38.5], [36.75, 38.25]]]}, "properties": {"cell_id": 13047, "probability": 0.002, "expected_events": 0.004, "normal_probability": 0.000114, "times_normal": 17.6}}, {"type": "Feature", "geometry": {"type": "Polygon", "coordinates": [[[37.0, 38.25], [37.25, 38.25], [37.25, 38.5], [37.0, 38.5], [37.0, 38.25]]]}, "properties": {"cell_id": 13048, "probability": 0.002, "expected_events": 0.002, "normal_probability": 0.000131, "times_normal": 15.2}}, {"type": "Feature", "geometry": {"type": "Polygon", "coordinates": [[[36.0, 38.5], [36.25, 38.5], [36.25, 38.75], [36.0, 38.75], [36.0, 38.5]]]}, "properties": {"cell_id": 14044, "probability": 0.002, "expected_events": 0.002, "normal_probability": 0.00011, "times_normal": 18.2}}, {"type": "Feature", "geometry": {"type": "Polygon", "coordinates": [[[36.25, 38.5], [36.5, 38.5], [36.5, 38.75], [36.25, 38.75], [36.25, 38.5]]]}, "properties": {"cell_id": 14045, "probability": 0.002, "expected_events": 0.002, "normal_probability": 8.3e-05, "times_normal": 24.1}}, {"type": "Feature", "geometry": {"type": "Polygon", "coordinates": [[[37.75, 38.75], [38.0, 38.75], [38.0, 39.0], [37.75, 39.0], [37.75, 38.75]]]}, "properties": {"cell_id": 15051, "probability": 0.002, "expected_events": 0.002, "normal_probability": 0.000212, "times_normal": 9.5}}, {"type": "Feature", "geometry": {"type": "Polygon", "coordinates": [[[38.0, 38.75], [38.25, 38.75], [38.25, 39.0], [38.0, 39.0], [38.0, 38.75]]]}, "properties": {"cell_id": 15052, "probability": 0.002, "expected_events": 0.002, "normal_probability": 0.000235, "times_normal": 8.5}}, {"type": "Feature", "geometry": {"type": "Polygon", "coordinates": [[[44.5, 38.75], [44.75, 38.75], [44.75, 39.0], [44.5, 39.0], [44.5, 38.75]]]}, "properties": {"cell_id": 15078, "probability": 0.002, "expected_events": 0.002, "normal_probability": 0.000347, "times_normal": 5.8}}, {"type": "Feature", "geometry": {"type": "Polygon", "coordinates": [[[44.75, 38.75], [45.0, 38.75], [45.0, 39.0], [44.75, 39.0], [44.75, 38.75]]]}, "properties": {"cell_id": 15079, "probability": 0.002, "expected_events": 0.002, "normal_probability": 0.000226, "times_normal": 8.9}}, {"type": "Feature", "geometry": {"type": "Polygon", "coordinates": [[[25.5, 39.0], [25.75, 39.0], [25.75, 39.25], [25.5, 39.25], [25.5, 39.0]]]}, "properties": {"cell_id": 16002, "probability": 0.004, "expected_events": 0.004, "normal_probability": 0.001451, "times_normal": 2.8}}, {"type": "Feature", "geometry": {"type": "Polygon", "coordinates": [[[28.0, 39.0], [28.25, 39.0], [28.25, 39.25], [28.0, 39.25], [28.0, 39.0]]]}, "properties": {"cell_id": 16012, "probability": 0.01, "expected_events": 0.014, "normal_probability": 0.001821, "times_normal": 5.5}}, {"type": "Feature", "geometry": {"type": "Polygon", "coordinates": [[[28.25, 39.0], [28.5, 39.0], [28.5, 39.25], [28.25, 39.25], [28.25, 39.0]]]}, "properties": {"cell_id": 16013, "probability": 0.012, "expected_events": 0.012, "normal_probability": 0.001215, "times_normal": 9.9}}, {"type": "Feature", "geometry": {"type": "Polygon", "coordinates": [[[28.0, 39.25], [28.25, 39.25], [28.25, 39.5], [28.0, 39.5], [28.0, 39.25]]]}, "properties": {"cell_id": 17012, "probability": 0.004, "expected_events": 0.006, "normal_probability": 0.001835, "times_normal": 2.2}}, {"type": "Feature", "geometry": {"type": "Polygon", "coordinates": [[[28.25, 39.25], [28.5, 39.25], [28.5, 39.5], [28.25, 39.5], [28.25, 39.25]]]}, "properties": {"cell_id": 17013, "probability": 0.004, "expected_events": 0.004, "normal_probability": 0.001267, "times_normal": 3.2}}, {"type": "Feature", "geometry": {"type": "Polygon", "coordinates": [[[28.75, 39.25], [29.0, 39.25], [29.0, 39.5], [28.75, 39.5], [28.75, 39.25]]]}, "properties": {"cell_id": 17015, "probability": 0.004, "expected_events": 0.004, "normal_probability": 0.00193, "times_normal": 2.1}}, {"type": "Feature", "geometry": {"type": "Polygon", "coordinates": [[[39.0, 39.25], [39.25, 39.25], [39.25, 39.5], [39.0, 39.5], [39.0, 39.25]]]}, "properties": {"cell_id": 17056, "probability": 0.002, "expected_events": 0.002, "normal_probability": 0.000368, "times_normal": 5.4}}, {"type": "Feature", "geometry": {"type": "Polygon", "coordinates": [[[37.5, 39.5], [37.75, 39.5], [37.75, 39.75], [37.5, 39.75], [37.5, 39.5]]]}, "properties": {"cell_id": 18050, "probability": 0.002, "expected_events": 0.002, "normal_probability": 0.000198, "times_normal": 10.1}}, {"type": "Feature", "geometry": {"type": "Polygon", "coordinates": [[[37.0, 39.75], [37.25, 39.75], [37.25, 40.0], [37.0, 40.0], [37.0, 39.75]]]}, "properties": {"cell_id": 19048, "probability": 0.002, "expected_events": 0.002, "normal_probability": 0.000135, "times_normal": 14.8}}, {"type": "Feature", "geometry": {"type": "Polygon", "coordinates": [[[39.0, 39.75], [39.25, 39.75], [39.25, 40.0], [39.0, 40.0], [39.0, 39.75]]]}, "properties": {"cell_id": 19056, "probability": 0.002, "expected_events": 0.002, "normal_probability": 0.000595, "times_normal": 3.4}}, {"type": "Feature", "geometry": {"type": "Polygon", "coordinates": [[[40.0, 39.75], [40.25, 39.75], [40.25, 40.0], [40.0, 40.0], [40.0, 39.75]]]}, "properties": {"cell_id": 19060, "probability": 0.002, "expected_events": 0.002, "normal_probability": 0.000608, "times_normal": 3.3}}, {"type": "Feature", "geometry": {"type": "Polygon", "coordinates": [[[28.75, 40.0], [29.0, 40.0], [29.0, 40.25], [28.75, 40.25], [28.75, 40.0]]]}, "properties": {"cell_id": 20015, "probability": 0.002, "expected_events": 0.002, "normal_probability": 0.000482, "times_normal": 4.1}}, {"type": "Feature", "geometry": {"type": "Polygon", "coordinates": [[[33.0, 40.0], [33.25, 40.0], [33.25, 40.25], [33.0, 40.25], [33.0, 40.0]]]}, "properties": {"cell_id": 20032, "probability": 0.002, "expected_events": 0.002, "normal_probability": 0.000392, "times_normal": 5.1}}, {"type": "Feature", "geometry": {"type": "Polygon", "coordinates": [[[39.5, 40.0], [39.75, 40.0], [39.75, 40.25], [39.5, 40.25], [39.5, 40.0]]]}, "properties": {"cell_id": 20058, "probability": 0.002, "expected_events": 0.002, "normal_probability": 0.000341, "times_normal": 5.9}}, {"type": "Feature", "geometry": {"type": "Polygon", "coordinates": [[[27.0, 40.25], [27.25, 40.25], [27.25, 40.5], [27.0, 40.5], [27.0, 40.25]]]}, "properties": {"cell_id": 21008, "probability": 0.002, "expected_events": 0.002, "normal_probability": 0.000524, "times_normal": 3.8}}, {"type": "Feature", "geometry": {"type": "Polygon", "coordinates": [[[28.75, 40.25], [29.0, 40.25], [29.0, 40.5], [28.75, 40.5], [28.75, 40.25]]]}, "properties": {"cell_id": 21015, "probability": 0.002, "expected_events": 0.002, "normal_probability": 0.000798, "times_normal": 2.5}}, {"type": "Feature", "geometry": {"type": "Polygon", "coordinates": [[[35.5, 40.25], [35.75, 40.25], [35.75, 40.5], [35.5, 40.5], [35.5, 40.25]]]}, "properties": {"cell_id": 21042, "probability": 0.002, "expected_events": 0.002, "normal_probability": 0.000393, "times_normal": 5.1}}, {"type": "Feature", "geometry": {"type": "Polygon", "coordinates": [[[43.0, 40.25], [43.25, 40.25], [43.25, 40.5], [43.0, 40.5], [43.0, 40.25]]]}, "properties": {"cell_id": 21072, "probability": 0.002, "expected_events": 0.002, "normal_probability": 0.000108, "times_normal": 18.5}}, {"type": "Feature", "geometry": {"type": "Polygon", "coordinates": [[[27.5, 40.5], [27.75, 40.5], [27.75, 40.75], [27.5, 40.75], [27.5, 40.5]]]}, "properties": {"cell_id": 22010, "probability": 0.002, "expected_events": 0.002, "normal_probability": 0.000907, "times_normal": 2.2}}, {"type": "Feature", "geometry": {"type": "Polygon", "coordinates": [[[28.25, 40.5], [28.5, 40.5], [28.5, 40.75], [28.25, 40.75], [28.25, 40.5]]]}, "properties": {"cell_id": 22013, "probability": 0.002, "expected_events": 0.004, "normal_probability": 0.000398, "times_normal": 5.0}}, {"type": "Feature", "geometry": {"type": "Polygon", "coordinates": [[[35.0, 40.5], [35.25, 40.5], [35.25, 40.75], [35.0, 40.75], [35.0, 40.5]]]}, "properties": {"cell_id": 22040, "probability": 0.002, "expected_events": 0.002, "normal_probability": 0.000949, "times_normal": 2.1}}, {"type": "Feature", "geometry": {"type": "Polygon", "coordinates": [[[36.5, 40.5], [36.75, 40.5], [36.75, 40.75], [36.5, 40.75], [36.5, 40.5]]]}, "properties": {"cell_id": 22046, "probability": 0.002, "expected_events": 0.002, "normal_probability": 0.000272, "times_normal": 7.3}}, {"type": "Feature", "geometry": {"type": "Polygon", "coordinates": [[[42.25, 40.5], [42.5, 40.5], [42.5, 40.75], [42.25, 40.75], [42.25, 40.5]]]}, "properties": {"cell_id": 22069, "probability": 0.002, "expected_events": 0.002, "normal_probability": 0.000243, "times_normal": 8.2}}, {"type": "Feature", "geometry": {"type": "Polygon", "coordinates": [[[27.75, 40.75], [28.0, 40.75], [28.0, 41.0], [27.75, 41.0], [27.75, 40.75]]]}, "properties": {"cell_id": 23011, "probability": 0.002, "expected_events": 0.002, "normal_probability": 0.000699, "times_normal": 2.9}}, {"type": "Feature", "geometry": {"type": "Polygon", "coordinates": [[[28.25, 40.75], [28.5, 40.75], [28.5, 41.0], [28.25, 41.0], [28.25, 40.75]]]}, "properties": {"cell_id": 23013, "probability": 0.012, "expected_events": 0.012, "normal_probability": 0.000328, "times_normal": 36.6}}, {"type": "Feature", "geometry": {"type": "Polygon", "coordinates": [[[28.5, 40.75], [28.75, 40.75], [28.75, 41.0], [28.5, 41.0], [28.5, 40.75]]]}, "properties": {"cell_id": 23014, "probability": 0.002, "expected_events": 0.002, "normal_probability": 0.000398, "times_normal": 5.0}}, {"type": "Feature", "geometry": {"type": "Polygon", "coordinates": [[[33.75, 40.75], [34.0, 40.75], [34.0, 41.0], [33.75, 41.0], [33.75, 40.75]]]}, "properties": {"cell_id": 23035, "probability": 0.002, "expected_events": 0.002, "normal_probability": 0.000267, "times_normal": 7.5}}, {"type": "Feature", "geometry": {"type": "Polygon", "coordinates": [[[36.5, 40.75], [36.75, 40.75], [36.75, 41.0], [36.5, 41.0], [36.5, 40.75]]]}, "properties": {"cell_id": 23046, "probability": 0.002, "expected_events": 0.002, "normal_probability": 0.000175, "times_normal": 11.4}}, {"type": "Feature", "geometry": {"type": "Polygon", "coordinates": [[[43.0, 40.75], [43.25, 40.75], [43.25, 41.0], [43.0, 41.0], [43.0, 40.75]]]}, "properties": {"cell_id": 23072, "probability": 0.002, "expected_events": 0.002, "normal_probability": 8.8e-05, "times_normal": 22.6}}, {"type": "Feature", "geometry": {"type": "Polygon", "coordinates": [[[44.0, 40.75], [44.25, 40.75], [44.25, 41.0], [44.0, 41.0], [44.0, 40.75]]]}, "properties": {"cell_id": 23076, "probability": 0.002, "expected_events": 0.002, "normal_probability": 0.000126, "times_normal": 15.9}}, {"type": "Feature", "geometry": {"type": "Polygon", "coordinates": [[[43.75, 41.0], [44.0, 41.0], [44.0, 41.25], [43.75, 41.25], [43.75, 41.0]]]}, "properties": {"cell_id": 24075, "probability": 0.002, "expected_events": 0.002, "normal_probability": 0.000292, "times_normal": 6.8}}, {"type": "Feature", "geometry": {"type": "Polygon", "coordinates": [[[44.0, 41.0], [44.25, 41.0], [44.25, 41.25], [44.0, 41.25], [44.0, 41.0]]]}, "properties": {"cell_id": 24076, "probability": 0.002, "expected_events": 0.002, "normal_probability": 0.000253, "times_normal": 7.9}}, {"type": "Feature", "geometry": {"type": "Polygon", "coordinates": [[[43.75, 41.25], [44.0, 41.25], [44.0, 41.5], [43.75, 41.5], [43.75, 41.25]]]}, "properties": {"cell_id": 25075, "probability": 0.002, "expected_events": 0.002, "normal_probability": 0.000333, "times_normal": 6.0}}, {"type": "Feature", "geometry": {"type": "Polygon", "coordinates": [[[32.75, 41.5], [33.0, 41.5], [33.0, 41.75], [32.75, 41.75], [32.75, 41.5]]]}, "properties": {"cell_id": 26031, "probability": 0.002, "expected_events": 0.002, "normal_probability": 7.1e-05, "times_normal": 28.0}}, {"type": "Feature", "geometry": {"type": "Polygon", "coordinates": [[[44.25, 42.25], [44.5, 42.25], [44.5, 42.5], [44.25, 42.5], [44.25, 42.25]]]}, "properties": {"cell_id": 29077, "probability": 0.002, "expected_events": 0.002, "normal_probability": 0.000166, "times_normal": 12.0}}, {"type": "Feature", "geometry": {"type": "Polygon", "coordinates": [[[44.5, 42.25], [44.75, 42.25], [44.75, 42.5], [44.5, 42.5], [44.5, 42.25]]]}, "properties": {"cell_id": 29078, "probability": 0.002, "expected_events": 0.002, "normal_probability": 0.000129, "times_normal": 15.5}}, {"type": "Feature", "geometry": {"type": "Polygon", "coordinates": [[[44.75, 42.75], [45.0, 42.75], [45.0, 43.0], [44.75, 43.0], [44.75, 42.75]]]}, "properties": {"cell_id": 31079, "probability": 0.002, "expected_events": 0.002, "normal_probability": 4.3e-05, "times_normal": 46.8}}]}