{"type": "FeatureCollection", "properties": {"origin": "2026-08-30T00:00:00Z", "window_days": 7, "target_magnitude": 4.5, "model": "ETAS", "mode": "live", "fingerprint": {"method": "analytic-branching", "etas_params_sha256": "35958f30919b5e6ab7340baf05be24aae941dda95de831d3a23decfc8d843027", "catalog_sha256": "671d685cb49945386a1314d027bab3bff518461654aeff9f635e483118540330", "catalog_last_event": "2026-08-29 22:35:19+00:00", "branching_nominal": 0.8209, "branching_effective": 0.8125, "commit": "7d9ee9eb997c48dc13921e65d6f9aedb5cbbce10", "worktree": "clean", "randomness": "none in the branching computation; the ETAS state EM step is SEEDED from the origin date"}, "min_times_normal": 2.0, "kapsam": {"izgara_hucre": 2560, "kapsam_disi_elenen": 1116, "sinir_kaynagi": "Natural Earth 10m admin-0 countries", "lisans": "Natural Earth — kamu malı (public domain)", "kaynak_sha256": "239eec57ac17f100a11e2536cffc56752c318b50ae765b0918ff7aab4ce8f255", "sinir_sha256": "6526abdc33181eedaafb4975d68732102d7805b0de5c5307401f15ec181a1e90", "tampon_derece": 0.125, "gerekce": "katalog tamlığı sınır dışında ölçülmüş biçimde düşüktür (küçük olayların ~%46'sı kayıtsız); temel oran düşük kestirildiği için 'normalin kaç katı' şişer -- V43"}, "cells_before_threshold": 1444, "cells_published": 109, "disclaimer": "Bu bir OLASILIK tahminidir, kesin deprem tahmini değildir. Belirli bir tarih, yer ve büyüklükte deprem olacağını öngörmez ve bilimsel olarak böyle bir öngörü mümkün değildir. Verilen değerler, belirtilen zaman penceresinde ilgili hücrede eşik büyüklüğün üzerinde deprem olma olasılığıdır. Yöntem ve sınırlılıklar: metodoloji.html"}, "features": [{"type": "Feature", "geometry": {"type": "Polygon", "coordinates": [[[33.0, 36.0], [33.25, 36.0], [33.25, 36.25], [33.0, 36.25], [33.0, 36.0]]]}, "properties": {"cell_id": 4032, "probability": 6.5e-05, "expected_events": 0.0001, "normal_probability": 2.4e-05, "times_normal": 2.7}}, {"type": "Feature", "geometry": {"type": "Polygon", "coordinates": [[[35.75, 36.0], [36.0, 36.0], [36.0, 36.25], [35.75, 36.25], [35.75, 36.0]]]}, "properties": {"cell_id": 4043, "probability": 0.001657, "expected_events": 0.0017, "normal_probability": 0.000502, "times_normal": 3.3}}, {"type": "Feature", "geometry": {"type": "Polygon", "coordinates": [[[36.0, 36.0], [36.25, 36.0], [36.25, 36.25], [36.0, 36.25], [36.0, 36.0]]]}, "properties": {"cell_id": 4044, "probability": 0.001755, "expected_events": 0.0018, "normal_probability": 0.000462, "times_normal": 3.8}}, {"type": "Feature", "geometry": {"type": "Polygon", "coordinates": [[[33.0, 36.25], [33.25, 36.25], [33.25, 36.5], [33.0, 36.5], [33.0, 36.25]]]}, "properties": {"cell_id": 5032, "probability": 6.9e-05, "expected_events": 0.0001, "normal_probability": 1e-05, "times_normal": 6.9}}, {"type": "Feature", "geometry": {"type": "Polygon", "coordinates": [[[36.0, 36.25], [36.25, 36.25], [36.25, 36.5], [36.0, 36.5], [36.0, 36.25]]]}, "properties": {"cell_id": 5044, "probability": 0.000941, "expected_events": 0.0009, "normal_probability": 0.000415, "times_normal": 2.3}}, {"type": "Feature", "geometry": {"type": "Polygon", "coordinates": [[[36.25, 36.25], [36.5, 36.25], [36.5, 36.5], [36.25, 36.5], [36.25, 36.25]]]}, "properties": {"cell_id": 5045, "probability": 0.000679, "expected_events": 0.0007, "normal_probability": 0.00027, "times_normal": 2.5}}, {"type": "Feature", "geometry": {"type": "Polygon", "coordinates": [[[33.0, 36.5], [33.25, 36.5], [33.25, 36.75], [33.0, 36.75], [33.0, 36.5]]]}, "properties": {"cell_id": 6032, "probability": 6.8e-05, "expected_events": 0.0001, "normal_probability": 2.1e-05, "times_normal": 3.2}}, {"type": "Feature", "geometry": {"type": "Polygon", "coordinates": [[[34.0, 36.5], [34.25, 36.5], [34.25, 36.75], [34.0, 36.75], [34.0, 36.5]]]}, "properties": {"cell_id": 6036, "probability": 0.000417, "expected_events": 0.0004, "normal_probability": 0.000126, "times_normal": 3.3}}, {"type": "Feature", "geometry": {"type": "Polygon", "coordinates": [[[36.25, 36.5], [36.5, 36.5], [36.5, 36.75], [36.25, 36.75], [36.25, 36.5]]]}, "properties": {"cell_id": 6045, "probability": 0.000967, "expected_events": 0.001, "normal_probability": 0.000299, "times_normal": 3.2}}, {"type": "Feature", "geometry": {"type": "Polygon", "coordinates": [[[36.5, 36.75], [36.75, 36.75], [36.75, 37.0], [36.5, 37.0], [36.5, 36.75]]]}, "properties": {"cell_id": 7046, "probability": 0.000907, "expected_events": 0.0009, "normal_probability": 0.000373, "times_normal": 2.4}}, {"type": "Feature", "geometry": {"type": "Polygon", "coordinates": [[[36.75, 36.75], [37.0, 36.75], [37.0, 37.0], [36.75, 37.0], [36.75, 36.75]]]}, "properties": {"cell_id": 7047, "probability": 0.000869, "expected_events": 0.0009, "normal_probability": 0.000364, "times_normal": 2.4}}, {"type": "Feature", "geometry": {"type": "Polygon", "coordinates": [[[37.0, 36.75], [37.25, 36.75], [37.25, 37.0], [37.0, 37.0], [37.0, 36.75]]]}, "properties": {"cell_id": 7048, "probability": 0.000764, "expected_events": 0.0008, "normal_probability": 0.000358, "times_normal": 2.1}}, {"type": "Feature", "geometry": {"type": "Polygon", "coordinates": [[[36.5, 37.0], [36.75, 37.0], [36.75, 37.25], [36.5, 37.25], [36.5, 37.0]]]}, "properties": {"cell_id": 8046, "probability": 0.002682, "expected_events": 0.0027, "normal_probability": 0.000668, "times_normal": 4.0}}, {"type": "Feature", "geometry": {"type": "Polygon", "coordinates": [[[36.75, 37.0], [37.0, 37.0], [37.0, 37.25], [36.75, 37.25], [36.75, 37.0]]]}, "properties": {"cell_id": 8047, "probability": 0.00825, "expected_events": 0.0083, "normal_probability": 0.000782, "times_normal": 10.5}}, {"type": "Feature", "geometry": {"type": "Polygon", "coordinates": [[[37.0, 37.0], [37.25, 37.0], [37.25, 37.25], [37.0, 37.25], [37.0, 37.0]]]}, "properties": {"cell_id": 8048, "probability": 0.00551, "expected_events": 0.0055, "normal_probability": 0.000924, "times_normal": 6.0}}, {"type": "Feature", "geometry": {"type": "Polygon", "coordinates": [[[37.25, 37.0], [37.5, 37.0], [37.5, 37.25], [37.25, 37.25], [37.25, 37.0]]]}, "properties": {"cell_id": 8049, "probability": 0.001577, "expected_events": 0.0016, "normal_probability": 0.000696, "times_normal": 2.3}}, {"type": "Feature", "geometry": {"type": "Polygon", "coordinates": [[[39.75, 37.0], [40.0, 37.0], [40.0, 37.25], [39.75, 37.25], [39.75, 37.0]]]}, "properties": {"cell_id": 8059, "probability": 6.4e-05, "expected_events": 0.0001, "normal_probability": 2.2e-05, "times_normal": 2.9}}, {"type": "Feature", "geometry": {"type": "Polygon", "coordinates": [[[40.25, 37.0], [40.5, 37.0], [40.5, 37.25], [40.25, 37.25], [40.25, 37.0]]]}, "properties": {"cell_id": 8061, "probability": 6.4e-05, "expected_events": 0.0001, "normal_probability": 2.9e-05, "times_normal": 2.2}}, {"type": "Feature", "geometry": {"type": "Polygon", "coordinates": [[[40.75, 37.0], [41.0, 37.0], [41.0, 37.25], [40.75, 37.25], [40.75, 37.0]]]}, "properties": {"cell_id": 8063, "probability": 6.4e-05, "expected_events": 0.0001, "normal_probability": 2.9e-05, "times_normal": 2.2}}, {"type": "Feature", "geometry": {"type": "Polygon", "coordinates": [[[41.25, 37.0], [41.5, 37.0], [41.5, 37.25], [41.25, 37.25], [41.25, 37.0]]]}, "properties": {"cell_id": 8065, "probability": 6.5e-05, "expected_events": 0.0001, "normal_probability": 2.5e-05, "times_normal": 2.6}}, {"type": "Feature", "geometry": {"type": "Polygon", "coordinates": [[[33.25, 37.25], [33.5, 37.25], [33.5, 37.5], [33.25, 37.5], [33.25, 37.25]]]}, "properties": {"cell_id": 9033, "probability": 6.4e-05, "expected_events": 0.0001, "normal_probability": 2.6e-05, "times_normal": 2.5}}, {"type": "Feature", "geometry": {"type": "Polygon", "coordinates": [[[33.5, 37.25], [33.75, 37.25], [33.75, 37.5], [33.5, 37.5], [33.5, 37.25]]]}, "properties": {"cell_id": 9034, "probability": 7.4e-05, "expected_events": 0.0001, "normal_probability": 1.9e-05, "times_normal": 4.0}}, {"type": "Feature", "geometry": {"type": "Polygon", "coordinates": [[[33.75, 37.25], [34.0, 37.25], [34.0, 37.5], [33.75, 37.5], [33.75, 37.25]]]}, "properties": {"cell_id": 9035, "probability": 7e-05, "expected_events": 0.0001, "normal_probability": 2.6e-05, "times_normal": 2.7}}, {"type": "Feature", "geometry": {"type": "Polygon", "coordinates": [[[34.0, 37.25], [34.25, 37.25], [34.25, 37.5], [34.0, 37.5], [34.0, 37.25]]]}, "properties": {"cell_id": 9036, "probability": 0.000108, "expected_events": 0.0001, "normal_probability": 4.9e-05, "times_normal": 2.2}}, {"type": "Feature", "geometry": {"type": "Polygon", "coordinates": [[[34.25, 37.25], [34.5, 37.25], [34.5, 37.5], [34.25, 37.5], [34.25, 37.25]]]}, "properties": {"cell_id": 9037, "probability": 0.000559, "expected_events": 0.0006, "normal_probability": 9.1e-05, "times_normal": 6.2}}, {"type": "Feature", "geometry": {"type": "Polygon", "coordinates": [[[36.5, 37.25], [36.75, 37.25], [36.75, 37.5], [36.5, 37.5], [36.5, 37.25]]]}, "properties": {"cell_id": 9046, "probability": 0.001721, "expected_events": 0.0017, "normal_probability": 0.000774, "times_normal": 2.2}}, {"type": "Feature", "geometry": {"type": "Polygon", "coordinates": [[[36.75, 37.25], [37.0, 37.25], [37.0, 37.5], [36.75, 37.5], [36.75, 37.25]]]}, "properties": {"cell_id": 9047, "probability": 0.006812, "expected_events": 0.0068, "normal_probability": 0.000873, "times_normal": 7.8}}, {"type": "Feature", "geometry": {"type": "Polygon", "coordinates": [[[37.0, 37.25], [37.25, 37.25], [37.25, 37.5], [37.0, 37.5], [37.0, 37.25]]]}, "properties": {"cell_id": 9048, "probability": 0.007693, "expected_events": 0.0077, "normal_probability": 0.001072, "times_normal": 7.2}}, {"type": "Feature", "geometry": {"type": "Polygon", "coordinates": [[[37.25, 37.25], [37.5, 37.25], [37.5, 37.5], [37.25, 37.5], [37.25, 37.25]]]}, "properties": {"cell_id": 9049, "probability": 0.00223, "expected_events": 0.0022, "normal_probability": 0.00083, "times_normal": 2.7}}, {"type": "Feature", "geometry": {"type": "Polygon", "coordinates": [[[40.25, 37.25], [40.5, 37.25], [40.5, 37.5], [40.25, 37.5], [40.25, 37.25]]]}, "properties": {"cell_id": 9061, "probability": 6.4e-05, "expected_events": 0.0001, "normal_probability": 1.8e-05, "times_normal": 3.6}}, {"type": "Feature", "geometry": {"type": "Polygon", "coordinates": [[[40.5, 37.25], [40.75, 37.25], [40.75, 37.5], [40.5, 37.5], [40.5, 37.25]]]}, "properties": {"cell_id": 9062, "probability": 6.4e-05, "expected_events": 0.0001, "normal_probability": 2.5e-05, "times_normal": 2.6}}, {"type": "Feature", "geometry": {"type": "Polygon", "coordinates": [[[40.75, 37.25], [41.0, 37.25], [41.0, 37.5], [40.75, 37.5], [40.75, 37.25]]]}, "properties": {"cell_id": 9063, "probability": 6.4e-05, "expected_events": 0.0001, "normal_probability": 2.7e-05, "times_normal": 2.4}}, {"type": "Feature", "geometry": {"type": "Polygon", "coordinates": [[[41.75, 37.25], [42.0, 37.25], [42.0, 37.5], [41.75, 37.5], [41.75, 37.25]]]}, "properties": {"cell_id": 9067, "probability": 0.000174, "expected_events": 0.0002, "normal_probability": 6.8e-05, "times_normal": 2.6}}, {"type": "Feature", "geometry": {"type": "Polygon", "coordinates": [[[33.0, 37.5], [33.25, 37.5], [33.25, 37.75], [33.0, 37.75], [33.0, 37.5]]]}, "properties": {"cell_id": 10032, "probability": 6.5e-05, "expected_events": 0.0001, "normal_probability": 3.2e-05, "times_normal": 2.1}}, {"type": "Feature", "geometry": {"type": "Polygon", "coordinates": [[[33.25, 37.5], [33.5, 37.5], [33.5, 37.75], [33.25, 37.75], [33.25, 37.5]]]}, "properties": {"cell_id": 10033, "probability": 6.6e-05, "expected_events": 0.0001, "normal_probability": 2.8e-05, "times_normal": 2.4}}, {"type": "Feature", "geometry": {"type": "Polygon", "coordinates": [[[36.75, 37.5], [37.0, 37.5], [37.0, 37.75], [36.75, 37.75], [36.75, 37.5]]]}, "properties": {"cell_id": 10047, "probability": 0.001328, "expected_events": 0.0013, "normal_probability": 0.000473, "times_normal": 2.8}}, {"type": "Feature", "geometry": {"type": "Polygon", "coordinates": [[[37.0, 37.5], [37.25, 37.5], [37.25, 37.75], [37.0, 37.75], [37.0, 37.5]]]}, "properties": {"cell_id": 10048, "probability": 0.002445, "expected_events": 0.0024, "normal_probability": 0.000563, "times_normal": 4.3}}, {"type": "Feature", "geometry": {"type": "Polygon", "coordinates": [[[37.25, 37.5], [37.5, 37.5], [37.5, 37.75], [37.25, 37.75], [37.25, 37.5]]]}, "properties": {"cell_id": 10049, "probability": 0.001715, "expected_events": 0.0017, "normal_probability": 0.000512, "times_normal": 3.4}}, {"type": "Feature", "geometry": {"type": "Polygon", "coordinates": [[[40.5, 37.5], [40.75, 37.5], [40.75, 37.75], [40.5, 37.75], [40.5, 37.5]]]}, "properties": {"cell_id": 10062, "probability": 6.4e-05, "expected_events": 0.0001, "normal_probability": 2.2e-05, "times_normal": 2.9}}, {"type": "Feature", "geometry": {"type": "Polygon", "coordinates": [[[40.75, 37.5], [41.0, 37.5], [41.0, 37.75], [40.75, 37.75], [40.75, 37.5]]]}, "properties": {"cell_id": 10063, "probability": 6.4e-05, "expected_events": 0.0001, "normal_probability": 3.1e-05, "times_normal": 2.1}}, {"type": "Feature", "geometry": {"type": "Polygon", "coordinates": [[[35.0, 37.75], [35.25, 37.75], [35.25, 38.0], [35.0, 38.0], [35.0, 37.75]]]}, "properties": {"cell_id": 11040, "probability": 0.000357, "expected_events": 0.0004, "normal_probability": 0.00017, "times_normal": 2.1}}, {"type": "Feature", "geometry": {"type": "Polygon", "coordinates": [[[36.0, 37.75], [36.25, 37.75], [36.25, 38.0], [36.0, 38.0], [36.0, 37.75]]]}, "properties": {"cell_id": 11044, "probability": 0.002618, "expected_events": 0.0026, "normal_probability": 0.000427, "times_normal": 6.1}}, {"type": "Feature", "geometry": {"type": "Polygon", "coordinates": [[[36.25, 37.75], [36.5, 37.75], [36.5, 38.0], [36.25, 38.0], [36.25, 37.75]]]}, "properties": {"cell_id": 11045, "probability": 0.004014, "expected_events": 0.004, "normal_probability": 0.000391, "times_normal": 10.3}}, {"type": "Feature", "geometry": {"type": "Polygon", "coordinates": [[[36.5, 37.75], [36.75, 37.75], [36.75, 38.0], [36.5, 38.0], [36.5, 37.75]]]}, "properties": {"cell_id": 11046, "probability": 0.002736, "expected_events": 0.0027, "normal_probability": 0.000277, "times_normal": 9.9}}, {"type": "Feature", "geometry": {"type": "Polygon", "coordinates": [[[36.75, 37.75], [37.0, 37.75], [37.0, 38.0], [36.75, 38.0], [36.75, 37.75]]]}, "properties": {"cell_id": 11047, "probability": 0.001303, "expected_events": 0.0013, "normal_probability": 0.000218, "times_normal": 6.0}}, {"type": "Feature", "geometry": {"type": "Polygon", "coordinates": [[[37.0, 37.75], [37.25, 37.75], [37.25, 38.0], [37.0, 38.0], [37.0, 37.75]]]}, "properties": {"cell_id": 11048, "probability": 0.002806, "expected_events": 0.0028, "normal_probability": 0.000245, "times_normal": 11.4}}, {"type": "Feature", "geometry": {"type": "Polygon", "coordinates": [[[37.25, 37.75], [37.5, 37.75], [37.5, 38.0], [37.25, 38.0], [37.25, 37.75]]]}, "properties": {"cell_id": 11049, "probability": 0.003455, "expected_events": 0.0035, "normal_probability": 0.000286, "times_normal": 12.1}}, {"type": "Feature", "geometry": {"type": "Polygon", "coordinates": [[[37.5, 37.75], [37.75, 37.75], [37.75, 38.0], [37.5, 38.0], [37.5, 37.75]]]}, "properties": {"cell_id": 11050, "probability": 0.002746, "expected_events": 0.0027, "normal_probability": 0.000318, "times_normal": 8.6}}, {"type": "Feature", "geometry": {"type": "Polygon", "coordinates": [[[37.75, 37.75], [38.0, 37.75], [38.0, 38.0], [37.75, 38.0], [37.75, 37.75]]]}, "properties": {"cell_id": 11051, "probability": 0.001309, "expected_events": 0.0013, "normal_probability": 0.000377, "times_normal": 3.5}}, {"type": "Feature", "geometry": {"type": "Polygon", "coordinates": [[[32.5, 38.0], [32.75, 38.0], [32.75, 38.25], [32.5, 38.25], [32.5, 38.0]]]}, "properties": {"cell_id": 12030, "probability": 0.000222, "expected_events": 0.0002, "normal_probability": 8.9e-05, "times_normal": 2.5}}, {"type": "Feature", "geometry": {"type": "Polygon", "coordinates": [[[36.0, 38.0], [36.25, 38.0], [36.25, 38.25], [36.0, 38.25], [36.0, 38.0]]]}, "properties": {"cell_id": 12044, "probability": 0.00055, "expected_events": 0.0005, "normal_probability": 0.000128, "times_normal": 4.3}}, {"type": "Feature", "geometry": {"type": "Polygon", "coordinates": [[[36.25, 38.0], [36.5, 38.0], [36.5, 38.25], [36.25, 38.25], [36.25, 38.0]]]}, "properties": {"cell_id": 12045, "probability": 0.003151, "expected_events": 0.0032, "normal_probability": 0.00014, "times_normal": 22.5}}, {"type": "Feature", "geometry": {"type": "Polygon", "coordinates": [[[36.5, 38.0], [36.75, 38.0], [36.75, 38.25], [36.5, 38.25], [36.5, 38.0]]]}, "properties": {"cell_id": 12046, "probability": 0.00379, "expected_events": 0.0038, "normal_probability": 0.00013, "times_normal": 29.1}}, {"type": "Feature", "geometry": {"type": "Polygon", "coordinates": [[[36.75, 38.0], [37.0, 38.0], [37.0, 38.25], [36.75, 38.25], [36.75, 38.0]]]}, "properties": {"cell_id": 12047, "probability": 0.002654, "expected_events": 0.0027, "normal_probability": 0.000126, "times_normal": 21.1}}, {"type": "Feature", "geometry": {"type": "Polygon", "coordinates": [[[37.0, 38.0], [37.25, 38.0], [37.25, 38.25], [37.0, 38.25], [37.0, 38.0]]]}, "properties": {"cell_id": 12048, "probability": 0.005593, "expected_events": 0.0056, "normal_probability": 0.000144, "times_normal": 38.9}}, {"type": "Feature", "geometry": {"type": "Polygon", "coordinates": [[[37.25, 38.0], [37.5, 38.0], [37.5, 38.25], [37.25, 38.25], [37.25, 38.0]]]}, "properties": {"cell_id": 12049, "probability": 0.00588, "expected_events": 0.0059, "normal_probability": 0.000173, "times_normal": 34.0}}, {"type": "Feature", "geometry": {"type": "Polygon", "coordinates": [[[37.5, 38.0], [37.75, 38.0], [37.75, 38.25], [37.5, 38.25], [37.5, 38.0]]]}, "properties": {"cell_id": 12050, "probability": 0.003367, "expected_events": 0.0034, "normal_probability": 0.000219, "times_normal": 15.4}}, {"type": "Feature", "geometry": {"type": "Polygon", "coordinates": [[[37.75, 38.0], [38.0, 38.0], [38.0, 38.25], [37.75, 38.25], [37.75, 38.0]]]}, "properties": {"cell_id": 12051, "probability": 0.002749, "expected_events": 0.0028, "normal_probability": 0.0003, "times_normal": 9.2}}, {"type": "Feature", "geometry": {"type": "Polygon", "coordinates": [[[38.0, 38.0], [38.25, 38.0], [38.25, 38.25], [38.0, 38.25], [38.0, 38.0]]]}, "properties": {"cell_id": 12052, "probability": 0.002846, "expected_events": 0.0029, "normal_probability": 0.000424, "times_normal": 6.7}}, {"type": "Feature", "geometry": {"type": "Polygon", "coordinates": [[[38.25, 38.0], [38.5, 38.0], [38.5, 38.25], [38.25, 38.25], [38.25, 38.0]]]}, "properties": {"cell_id": 12053, "probability": 0.01163, "expected_events": 0.0117, "normal_probability": 0.000633, "times_normal": 18.4}}, {"type": "Feature", "geometry": {"type": "Polygon", "coordinates": [[[38.5, 38.0], [38.75, 38.0], [38.75, 38.25], [38.5, 38.25], [38.5, 38.0]]]}, "properties": {"cell_id": 12054, "probability": 0.008072, "expected_events": 0.0081, "normal_probability": 0.000927, "times_normal": 8.7}}, {"type": "Feature", "geometry": {"type": "Polygon", "coordinates": [[[40.5, 38.0], [40.75, 38.0], [40.75, 38.25], [40.5, 38.25], [40.5, 38.0]]]}, "properties": {"cell_id": 12062, "probability": 0.000243, "expected_events": 0.0002, "normal_probability": 0.000111, "times_normal": 2.2}}, {"type": "Feature", "geometry": {"type": "Polygon", "coordinates": [[[33.0, 38.25], [33.25, 38.25], [33.25, 38.5], [33.0, 38.5], [33.0, 38.25]]]}, "properties": {"cell_id": 13032, "probability": 9.2e-05, "expected_events": 0.0001, "normal_probability": 4.3e-05, "times_normal": 2.2}}, {"type": "Feature", "geometry": {"type": "Polygon", "coordinates": [[[36.25, 38.25], [36.5, 38.25], [36.5, 38.5], [36.25, 38.5], [36.25, 38.25]]]}, "properties": {"cell_id": 13045, "probability": 0.000292, "expected_events": 0.0003, "normal_probability": 8.5e-05, "times_normal": 3.4}}, {"type": "Feature", "geometry": {"type": "Polygon", "coordinates": [[[36.5, 38.25], [36.75, 38.25], [36.75, 38.5], [36.5, 38.5], [36.5, 38.25]]]}, "properties": {"cell_id": 13046, "probability": 0.000413, "expected_events": 0.0004, "normal_probability": 0.000101, "times_normal": 4.1}}, {"type": "Feature", "geometry": {"type": "Polygon", "coordinates": [[[36.75, 38.25], [37.0, 38.25], [37.0, 38.5], [36.75, 38.5], [36.75, 38.25]]]}, "properties": {"cell_id": 13047, "probability": 0.00063, "expected_events": 0.0006, "normal_probability": 0.000114, "times_normal": 5.5}}, {"type": "Feature", "geometry": {"type": "Polygon", "coordinates": [[[37.0, 38.25], [37.25, 38.25], [37.25, 38.5], [37.0, 38.5], [37.0, 38.25]]]}, "properties": {"cell_id": 13048, "probability": 0.001405, "expected_events": 0.0014, "normal_probability": 0.000131, "times_normal": 10.7}}, {"type": "Feature", "geometry": {"type": "Polygon", "coordinates": [[[37.25, 38.25], [37.5, 38.25], [37.5, 38.5], [37.25, 38.5], [37.25, 38.25]]]}, "properties": {"cell_id": 13049, "probability": 0.001581, "expected_events": 0.0016, "normal_probability": 0.000143, "times_normal": 11.0}}, {"type": "Feature", "geometry": {"type": "Polygon", "coordinates": [[[37.5, 38.25], [37.75, 38.25], [37.75, 38.5], [37.5, 38.5], [37.5, 38.25]]]}, "properties": {"cell_id": 13050, "probability": 0.000997, "expected_events": 0.001, "normal_probability": 0.000147, "times_normal": 6.8}}, {"type": "Feature", "geometry": {"type": "Polygon", "coordinates": [[[37.75, 38.25], [38.0, 38.25], [38.0, 38.5], [37.75, 38.5], [37.75, 38.25]]]}, "properties": {"cell_id": 13051, "probability": 0.001565, "expected_events": 0.0016, "normal_probability": 0.000167, "times_normal": 9.4}}, {"type": "Feature", "geometry": {"type": "Polygon", "coordinates": [[[38.0, 38.25], [38.25, 38.25], [38.25, 38.5], [38.0, 38.5], [38.0, 38.25]]]}, "properties": {"cell_id": 13052, "probability": 0.002307, "expected_events": 0.0023, "normal_probability": 0.000246, "times_normal": 9.4}}, {"type": "Feature", "geometry": {"type": "Polygon", "coordinates": [[[38.25, 38.25], [38.5, 38.25], [38.5, 38.5], [38.25, 38.5], [38.25, 38.25]]]}, "properties": {"cell_id": 13053, "probability": 0.003907, "expected_events": 0.0039, "normal_probability": 0.000455, "times_normal": 8.6}}, {"type": "Feature", "geometry": {"type": "Polygon", "coordinates": [[[38.5, 38.25], [38.75, 38.25], [38.75, 38.5], [38.5, 38.5], [38.5, 38.25]]]}, "properties": {"cell_id": 13054, "probability": 0.006039, "expected_events": 0.0061, "normal_probability": 0.00088, "times_normal": 6.9}}, {"type": "Feature", "geometry": {"type": "Polygon", "coordinates": [[[38.75, 38.25], [39.0, 38.25], [39.0, 38.5], [38.75, 38.5], [38.75, 38.25]]]}, "properties": {"cell_id": 13055, "probability": 0.003238, "expected_events": 0.0032, "normal_probability": 0.001484, "times_normal": 2.2}}, {"type": "Feature", "geometry": {"type": "Polygon", "coordinates": [[[36.25, 38.5], [36.5, 38.5], [36.5, 38.75], [36.25, 38.75], [36.25, 38.5]]]}, "properties": {"cell_id": 14045, "probability": 0.000918, "expected_events": 0.0009, "normal_probability": 8.3e-05, "times_normal": 11.0}}, {"type": "Feature", "geometry": {"type": "Polygon", "coordinates": [[[36.5, 38.5], [36.75, 38.5], [36.75, 38.75], [36.5, 38.75], [36.5, 38.5]]]}, "properties": {"cell_id": 14046, "probability": 0.002053, "expected_events": 0.0021, "normal_probability": 9.5e-05, "times_normal": 21.5}}, {"type": "Feature", "geometry": {"type": "Polygon", "coordinates": [[[37.25, 38.5], [37.5, 38.5], [37.5, 38.75], [37.25, 38.75], [37.25, 38.5]]]}, "properties": {"cell_id": 14049, "probability": 0.00031, "expected_events": 0.0003, "normal_probability": 0.000143, "times_normal": 2.2}}, {"type": "Feature", "geometry": {"type": "Polygon", "coordinates": [[[36.25, 38.75], [36.5, 38.75], [36.5, 39.0], [36.25, 39.0], [36.25, 38.75]]]}, "properties": {"cell_id": 15045, "probability": 0.000858, "expected_events": 0.0009, "normal_probability": 0.000119, "times_normal": 7.2}}, {"type": "Feature", "geometry": {"type": "Polygon", "coordinates": [[[36.5, 38.75], [36.75, 38.75], [36.75, 39.0], [36.5, 39.0], [36.5, 38.75]]]}, "properties": {"cell_id": 15046, "probability": 0.00208, "expected_events": 0.0021, "normal_probability": 9.9e-05, "times_normal": 21.1}}, {"type": "Feature", "geometry": {"type": "Polygon", "coordinates": [[[37.0, 38.75], [37.25, 38.75], [37.25, 39.0], [37.0, 39.0], [37.0, 38.75]]]}, "properties": {"cell_id": 15048, "probability": 0.000276, "expected_events": 0.0003, "normal_probability": 0.000135, "times_normal": 2.0}}, {"type": "Feature", "geometry": {"type": "Polygon", "coordinates": [[[37.25, 38.75], [37.5, 38.75], [37.5, 39.0], [37.25, 39.0], [37.25, 38.75]]]}, "properties": {"cell_id": 15049, "probability": 0.000512, "expected_events": 0.0005, "normal_probability": 0.000141, "times_normal": 3.6}}, {"type": "Feature", "geometry": {"type": "Polygon", "coordinates": [[[28.0, 39.0], [28.25, 39.0], [28.25, 39.25], [28.0, 39.25], [28.0, 39.0]]]}, "properties": {"cell_id": 16012, "probability": 0.017561, "expected_events": 0.0177, "normal_probability": 0.001821, "times_normal": 9.6}}, {"type": "Feature", "geometry": {"type": "Polygon", "coordinates": [[[28.25, 39.0], [28.5, 39.0], [28.5, 39.25], [28.25, 39.25], [28.25, 39.0]]]}, "properties": {"cell_id": 16013, "probability": 0.009741, "expected_events": 0.0098, "normal_probability": 0.001215, "times_normal": 8.0}}, {"type": "Feature", "geometry": {"type": "Polygon", "coordinates": [[[28.0, 39.25], [28.25, 39.25], [28.25, 39.5], [28.0, 39.5], [28.0, 39.25]]]}, "properties": {"cell_id": 17012, "probability": 0.006794, "expected_events": 0.0068, "normal_probability": 0.001835, "times_normal": 3.7}}, {"type": "Feature", "geometry": {"type": "Polygon", "coordinates": [[[34.0, 39.5], [34.25, 39.5], [34.25, 39.75], [34.0, 39.75], [34.0, 39.5]]]}, "properties": {"cell_id": 18036, "probability": 0.000257, "expected_events": 0.0003, "normal_probability": 0.000108, "times_normal": 2.4}}, {"type": "Feature", "geometry": {"type": "Polygon", "coordinates": [[[30.25, 40.0], [30.5, 40.0], [30.5, 40.25], [30.25, 40.25], [30.25, 40.0]]]}, "properties": {"cell_id": 20021, "probability": 0.000337, "expected_events": 0.0003, "normal_probability": 0.000159, "times_normal": 2.1}}, {"type": "Feature", "geometry": {"type": "Polygon", "coordinates": [[[35.75, 40.0], [36.0, 40.0], [36.0, 40.25], [35.75, 40.25], [35.75, 40.0]]]}, "properties": {"cell_id": 20043, "probability": 0.000541, "expected_events": 0.0005, "normal_probability": 0.000191, "times_normal": 2.8}}, {"type": "Feature", "geometry": {"type": "Polygon", "coordinates": [[[36.0, 40.0], [36.25, 40.0], [36.25, 40.25], [36.0, 40.25], [36.0, 40.0]]]}, "properties": {"cell_id": 20044, "probability": 0.000384, "expected_events": 0.0004, "normal_probability": 0.000146, "times_normal": 2.6}}, {"type": "Feature", "geometry": {"type": "Polygon", "coordinates": [[[36.5, 40.5], [36.75, 40.5], [36.75, 40.75], [36.5, 40.75], [36.5, 40.5]]]}, "properties": {"cell_id": 22046, "probability": 0.000792, "expected_events": 0.0008, "normal_probability": 0.000272, "times_normal": 2.9}}, {"type": "Feature", "geometry": {"type": "Polygon", "coordinates": [[[36.75, 40.5], [37.0, 40.5], [37.0, 40.75], [36.75, 40.75], [36.75, 40.5]]]}, "properties": {"cell_id": 22047, "probability": 0.001785, "expected_events": 0.0018, "normal_probability": 0.000274, "times_normal": 6.5}}, {"type": "Feature", "geometry": {"type": "Polygon", "coordinates": [[[33.5, 40.75], [33.75, 40.75], [33.75, 41.0], [33.5, 41.0], [33.5, 40.75]]]}, "properties": {"cell_id": 23034, "probability": 0.000853, "expected_events": 0.0009, "normal_probability": 0.000343, "times_normal": 2.5}}, {"type": "Feature", "geometry": {"type": "Polygon", "coordinates": [[[40.75, 40.75], [41.0, 40.75], [41.0, 41.0], [40.75, 41.0], [40.75, 40.75]]]}, "properties": {"cell_id": 23063, "probability": 0.000121, "expected_events": 0.0001, "normal_probability": 4e-05, "times_normal": 3.0}}, {"type": "Feature", "geometry": {"type": "Polygon", "coordinates": [[[41.0, 40.75], [41.25, 40.75], [41.25, 41.0], [41.0, 41.0], [41.0, 40.75]]]}, "properties": {"cell_id": 23064, "probability": 7.2e-05, "expected_events": 0.0001, "normal_probability": 3.4e-05, "times_normal": 2.1}}, {"type": "Feature", "geometry": {"type": "Polygon", "coordinates": [[[41.25, 40.75], [41.5, 40.75], [41.5, 41.0], [41.25, 41.0], [41.25, 40.75]]]}, "properties": {"cell_id": 23065, "probability": 6.1e-05, "expected_events": 0.0001, "normal_probability": 2.6e-05, "times_normal": 2.3}}, {"type": "Feature", "geometry": {"type": "Polygon", "coordinates": [[[33.5, 41.0], [33.75, 41.0], [33.75, 41.25], [33.5, 41.25], [33.5, 41.0]]]}, "properties": {"cell_id": 24034, "probability": 0.002048, "expected_events": 0.0021, "normal_probability": 0.000241, "times_normal": 8.5}}, {"type": "Feature", "geometry": {"type": "Polygon", "coordinates": [[[37.25, 41.0], [37.5, 41.0], [37.5, 41.25], [37.25, 41.25], [37.25, 41.0]]]}, "properties": {"cell_id": 24049, "probability": 7.6e-05, "expected_events": 0.0001, "normal_probability": 2.4e-05, "times_normal": 3.1}}, {"type": "Feature", "geometry": {"type": "Polygon", "coordinates": [[[40.75, 41.0], [41.0, 41.0], [41.0, 41.25], [40.75, 41.25], [40.75, 41.0]]]}, "properties": {"cell_id": 24063, "probability": 0.000122, "expected_events": 0.0001, "normal_probability": 4.1e-05, "times_normal": 3.0}}, {"type": "Feature", "geometry": {"type": "Polygon", "coordinates": [[[41.5, 41.0], [41.75, 41.0], [41.75, 41.25], [41.5, 41.25], [41.5, 41.0]]]}, "properties": {"cell_id": 24066, "probability": 6.1e-05, "expected_events": 0.0001, "normal_probability": 2.2e-05, "times_normal": 2.8}}, {"type": "Feature", "geometry": {"type": "Polygon", "coordinates": [[[28.5, 41.25], [28.75, 41.25], [28.75, 41.5], [28.5, 41.5], [28.5, 41.25]]]}, "properties": {"cell_id": 25014, "probability": 9.7e-05, "expected_events": 0.0001, "normal_probability": 3.9e-05, "times_normal": 2.5}}, {"type": "Feature", "geometry": {"type": "Polygon", "coordinates": [[[34.5, 41.5], [34.75, 41.5], [34.75, 41.75], [34.5, 41.75], [34.5, 41.5]]]}, "properties": {"cell_id": 26038, "probability": 6e-05, "expected_events": 0.0001, "normal_probability": 2.6e-05, "times_normal": 2.3}}, {"type": "Feature", "geometry": {"type": "Polygon", "coordinates": [[[35.25, 41.5], [35.5, 41.5], [35.5, 41.75], [35.25, 41.75], [35.25, 41.5]]]}, "properties": {"cell_id": 26041, "probability": 6e-05, "expected_events": 0.0001, "normal_probability": 2.8e-05, "times_normal": 2.1}}, {"type": "Feature", "geometry": {"type": "Polygon", "coordinates": [[[28.0, 41.75], [28.25, 41.75], [28.25, 42.0], [28.0, 42.0], [28.0, 41.75]]]}, "properties": {"cell_id": 27012, "probability": 6e-05, "expected_events": 0.0001, "normal_probability": 2.2e-05, "times_normal": 2.7}}, {"type": "Feature", "geometry": {"type": "Polygon", "coordinates": [[[33.75, 41.75], [34.0, 41.75], [34.0, 42.0], [33.75, 42.0], [33.75, 41.75]]]}, "properties": {"cell_id": 27035, "probability": 6e-05, "expected_events": 0.0001, "normal_probability": 2.5e-05, "times_normal": 2.4}}, {"type": "Feature", "geometry": {"type": "Polygon", "coordinates": [[[34.0, 41.75], [34.25, 41.75], [34.25, 42.0], [34.0, 42.0], [34.0, 41.75]]]}, "properties": {"cell_id": 27036, "probability": 6e-05, "expected_events": 0.0001, "normal_probability": 2.2e-05, "times_normal": 2.7}}, {"type": "Feature", "geometry": {"type": "Polygon", "coordinates": [[[34.25, 41.75], [34.5, 41.75], [34.5, 42.0], [34.25, 42.0], [34.25, 41.75]]]}, "properties": {"cell_id": 27037, "probability": 6e-05, "expected_events": 0.0001, "normal_probability": 2.2e-05, "times_normal": 2.7}}, {"type": "Feature", "geometry": {"type": "Polygon", "coordinates": [[[34.75, 41.75], [35.0, 41.75], [35.0, 42.0], [34.75, 42.0], [34.75, 41.75]]]}, "properties": {"cell_id": 27039, "probability": 6e-05, "expected_events": 0.0001, "normal_probability": 1.2e-05, "times_normal": 4.9}}, {"type": "Feature", "geometry": {"type": "Polygon", "coordinates": [[[27.0, 42.0], [27.25, 42.0], [27.25, 42.25], [27.0, 42.25], [27.0, 42.0]]]}, "properties": {"cell_id": 28008, "probability": 6e-05, "expected_events": 0.0001, "normal_probability": 2.4e-05, "times_normal": 2.5}}, {"type": "Feature", "geometry": {"type": "Polygon", "coordinates": [[[33.25, 42.0], [33.5, 42.0], [33.5, 42.25], [33.25, 42.25], [33.25, 42.0]]]}, "properties": {"cell_id": 28033, "probability": 6e-05, "expected_events": 0.0001, "normal_probability": 2.2e-05, "times_normal": 2.7}}, {"type": "Feature", "geometry": {"type": "Polygon", "coordinates": [[[35.0, 42.0], [35.25, 42.0], [35.25, 42.25], [35.0, 42.25], [35.0, 42.0]]]}, "properties": {"cell_id": 28040, "probability": 6e-05, "expected_events": 0.0001, "normal_probability": 8e-06, "times_normal": 7.1}}]}