{"type": "FeatureCollection", "properties": {"origin": "2026-09-25T15:00:00Z", "window_days": 30, "target_magnitude": 4.5, "model": "ETAS", "mode": "live", "fingerprint": {"method": "analytic-branching", "etas_params_sha256": "35958f30919b5e6ab7340baf05be24aae941dda95de831d3a23decfc8d843027", "catalog_sha256": "bd22acc0973a74a302251ab7688e214b8d6e44fd5a9f37ae8065a78d9cb9ca0b", "catalog_last_event": "2026-09-25 13:39:27+00:00", "branching_nominal": 0.8209, "branching_effective": 0.8125, "commit": "943238267d5cd200548bcc6330c0e46803d75033", "worktree": "clean", "randomness": "none in the branching computation; the ETAS state EM step is SEEDED from the origin date"}, "min_times_normal": 2.0, "kapsam": {"izgara_hucre": 2560, "kapsam_disi_elenen": 1116, "sinir_kaynagi": "Natural Earth 10m admin-0 countries", "lisans": "Natural Earth — kamu malı (public domain)", "kaynak_sha256": "239eec57ac17f100a11e2536cffc56752c318b50ae765b0918ff7aab4ce8f255", "sinir_sha256": "6526abdc33181eedaafb4975d68732102d7805b0de5c5307401f15ec181a1e90", "tampon_derece": 0.125, "gerekce": "katalog tamlığı sınır dışında ölçülmüş biçimde düşüktür (küçük olayların ~%46'sı kayıtsız); temel oran düşük kestirildiği için 'normalin kaç katı' şişer -- V43"}, "cells_before_threshold": 1444, "cells_published": 133, "disclaimer": "Bu bir OLASILIK tahminidir, kesin deprem tahmini değildir. Belirli bir tarih, yer ve büyüklükte deprem olacağını öngörmez ve bilimsel olarak böyle bir öngörü mümkün değildir. Verilen değerler, belirtilen zaman penceresinde ilgili hücrede eşik büyüklüğün üzerinde deprem olma olasılığıdır. Yöntem ve sınırlılıklar: metodoloji.html"}, "features": [{"type": "Feature", "geometry": {"type": "Polygon", "coordinates": [[[35.75, 35.75], [36.0, 35.75], [36.0, 36.0], [35.75, 36.0], [35.75, 35.75]]]}, "properties": {"cell_id": 3043, "probability": 0.0027, "expected_events": 0.0027, "normal_probability": 0.001337, "times_normal": 2.0}}, {"type": "Feature", "geometry": {"type": "Polygon", "coordinates": [[[36.0, 35.75], [36.25, 35.75], [36.25, 36.0], [36.0, 36.0], [36.0, 35.75]]]}, "properties": {"cell_id": 3044, "probability": 0.002506, "expected_events": 0.0025, "normal_probability": 0.001246, "times_normal": 2.0}}, {"type": "Feature", "geometry": {"type": "Polygon", "coordinates": [[[33.0, 36.0], [33.25, 36.0], [33.25, 36.25], [33.0, 36.25], [33.0, 36.0]]]}, "properties": {"cell_id": 4032, "probability": 0.000317, "expected_events": 0.0003, "normal_probability": 0.000102, "times_normal": 3.1}}, {"type": "Feature", "geometry": {"type": "Polygon", "coordinates": [[[35.75, 36.0], [36.0, 36.0], [36.0, 36.25], [35.75, 36.25], [35.75, 36.0]]]}, "properties": {"cell_id": 4043, "probability": 0.00764, "expected_events": 0.0077, "normal_probability": 0.002151, "times_normal": 3.6}}, {"type": "Feature", "geometry": {"type": "Polygon", "coordinates": [[[36.0, 36.0], [36.25, 36.0], [36.25, 36.25], [36.0, 36.25], [36.0, 36.0]]]}, "properties": {"cell_id": 4044, "probability": 0.008076, "expected_events": 0.0081, "normal_probability": 0.001979, "times_normal": 4.1}}, {"type": "Feature", "geometry": {"type": "Polygon", "coordinates": [[[33.0, 36.25], [33.25, 36.25], [33.25, 36.5], [33.0, 36.5], [33.0, 36.25]]]}, "properties": {"cell_id": 5032, "probability": 0.000334, "expected_events": 0.0003, "normal_probability": 4.3e-05, "times_normal": 7.8}}, {"type": "Feature", "geometry": {"type": "Polygon", "coordinates": [[[36.0, 36.25], [36.25, 36.25], [36.25, 36.5], [36.0, 36.5], [36.0, 36.25]]]}, "properties": {"cell_id": 5044, "probability": 0.004347, "expected_events": 0.0044, "normal_probability": 0.001777, "times_normal": 2.4}}, {"type": "Feature", "geometry": {"type": "Polygon", "coordinates": [[[36.25, 36.25], [36.5, 36.25], [36.5, 36.5], [36.25, 36.5], [36.25, 36.25]]]}, "properties": {"cell_id": 5045, "probability": 0.00308, "expected_events": 0.0031, "normal_probability": 0.001158, "times_normal": 2.7}}, {"type": "Feature", "geometry": {"type": "Polygon", "coordinates": [[[33.0, 36.5], [33.25, 36.5], [33.25, 36.75], [33.0, 36.75], [33.0, 36.5]]]}, "properties": {"cell_id": 6032, "probability": 0.000329, "expected_events": 0.0003, "normal_probability": 9.1e-05, "times_normal": 3.6}}, {"type": "Feature", "geometry": {"type": "Polygon", "coordinates": [[[34.0, 36.5], [34.25, 36.5], [34.25, 36.75], [34.0, 36.75], [34.0, 36.5]]]}, "properties": {"cell_id": 6036, "probability": 0.001202, "expected_events": 0.0012, "normal_probability": 0.000541, "times_normal": 2.2}}, {"type": "Feature", "geometry": {"type": "Polygon", "coordinates": [[[36.25, 36.5], [36.5, 36.5], [36.5, 36.75], [36.25, 36.75], [36.25, 36.5]]]}, "properties": {"cell_id": 6045, "probability": 0.004147, "expected_events": 0.0042, "normal_probability": 0.001282, "times_normal": 3.2}}, {"type": "Feature", "geometry": {"type": "Polygon", "coordinates": [[[36.5, 36.75], [36.75, 36.75], [36.75, 37.0], [36.5, 37.0], [36.5, 36.75]]]}, "properties": {"cell_id": 7046, "probability": 0.004266, "expected_events": 0.0043, "normal_probability": 0.001596, "times_normal": 2.7}}, {"type": "Feature", "geometry": {"type": "Polygon", "coordinates": [[[36.75, 36.75], [37.0, 36.75], [37.0, 37.0], [36.75, 37.0], [36.75, 36.75]]]}, "properties": {"cell_id": 7047, "probability": 0.003954, "expected_events": 0.004, "normal_probability": 0.001559, "times_normal": 2.5}}, {"type": "Feature", "geometry": {"type": "Polygon", "coordinates": [[[37.0, 36.75], [37.25, 36.75], [37.25, 37.0], [37.0, 37.0], [37.0, 36.75]]]}, "properties": {"cell_id": 7048, "probability": 0.003631, "expected_events": 0.0036, "normal_probability": 0.001534, "times_normal": 2.4}}, {"type": "Feature", "geometry": {"type": "Polygon", "coordinates": [[[36.5, 37.0], [36.75, 37.0], [36.75, 37.25], [36.5, 37.25], [36.5, 37.0]]]}, "properties": {"cell_id": 8046, "probability": 0.012016, "expected_events": 0.0121, "normal_probability": 0.00286, "times_normal": 4.2}}, {"type": "Feature", "geometry": {"type": "Polygon", "coordinates": [[[36.75, 37.0], [37.0, 37.0], [37.0, 37.25], [36.75, 37.25], [36.75, 37.0]]]}, "properties": {"cell_id": 8047, "probability": 0.030628, "expected_events": 0.0311, "normal_probability": 0.003349, "times_normal": 9.1}}, {"type": "Feature", "geometry": {"type": "Polygon", "coordinates": [[[37.0, 37.0], [37.25, 37.0], [37.25, 37.25], [37.0, 37.25], [37.0, 37.0]]]}, "properties": {"cell_id": 8048, "probability": 0.023983, "expected_events": 0.0243, "normal_probability": 0.003953, "times_normal": 6.1}}, {"type": "Feature", "geometry": {"type": "Polygon", "coordinates": [[[37.25, 37.0], [37.5, 37.0], [37.5, 37.25], [37.25, 37.25], [37.25, 37.0]]]}, "properties": {"cell_id": 8049, "probability": 0.007514, "expected_events": 0.0075, "normal_probability": 0.002978, "times_normal": 2.5}}, {"type": "Feature", "geometry": {"type": "Polygon", "coordinates": [[[38.5, 37.0], [38.75, 37.0], [38.75, 37.25], [38.5, 37.25], [38.5, 37.0]]]}, "properties": {"cell_id": 8054, "probability": 0.003131, "expected_events": 0.0031, "normal_probability": 0.001248, "times_normal": 2.5}}, {"type": "Feature", "geometry": {"type": "Polygon", "coordinates": [[[38.75, 37.0], [39.0, 37.0], [39.0, 37.25], [38.75, 37.25], [38.75, 37.0]]]}, "properties": {"cell_id": 8055, "probability": 0.007595, "expected_events": 0.0076, "normal_probability": 0.001213, "times_normal": 6.3}}, {"type": "Feature", "geometry": {"type": "Polygon", "coordinates": [[[39.0, 37.0], [39.25, 37.0], [39.25, 37.25], [39.0, 37.25], [39.0, 37.0]]]}, "properties": {"cell_id": 8056, "probability": 0.002913, "expected_events": 0.0029, "normal_probability": 0.000792, "times_normal": 3.7}}, {"type": "Feature", "geometry": {"type": "Polygon", "coordinates": [[[39.5, 37.0], [39.75, 37.0], [39.75, 37.25], [39.5, 37.25], [39.5, 37.0]]]}, "properties": {"cell_id": 8058, "probability": 0.000364, "expected_events": 0.0004, "normal_probability": 0.000171, "times_normal": 2.1}}, {"type": "Feature", "geometry": {"type": "Polygon", "coordinates": [[[39.75, 37.0], [40.0, 37.0], [40.0, 37.25], [39.75, 37.25], [39.75, 37.0]]]}, "properties": {"cell_id": 8059, "probability": 0.000319, "expected_events": 0.0003, "normal_probability": 9.3e-05, "times_normal": 3.4}}, {"type": "Feature", "geometry": {"type": "Polygon", "coordinates": [[[40.25, 37.0], [40.5, 37.0], [40.5, 37.25], [40.25, 37.25], [40.25, 37.0]]]}, "properties": {"cell_id": 8061, "probability": 0.000312, "expected_events": 0.0003, "normal_probability": 0.000124, "times_normal": 2.5}}, {"type": "Feature", "geometry": {"type": "Polygon", "coordinates": [[[40.75, 37.0], [41.0, 37.0], [41.0, 37.25], [40.75, 37.25], [40.75, 37.0]]]}, "properties": {"cell_id": 8063, "probability": 0.000312, "expected_events": 0.0003, "normal_probability": 0.000125, "times_normal": 2.5}}, {"type": "Feature", "geometry": {"type": "Polygon", "coordinates": [[[41.25, 37.0], [41.5, 37.0], [41.5, 37.25], [41.25, 37.25], [41.25, 37.0]]]}, "properties": {"cell_id": 8065, "probability": 0.000319, "expected_events": 0.0003, "normal_probability": 0.000109, "times_normal": 2.9}}, {"type": "Feature", "geometry": {"type": "Polygon", "coordinates": [[[33.0, 37.25], [33.25, 37.25], [33.25, 37.5], [33.0, 37.5], [33.0, 37.25]]]}, "properties": {"cell_id": 9032, "probability": 0.000311, "expected_events": 0.0003, "normal_probability": 0.000155, "times_normal": 2.0}}, {"type": "Feature", "geometry": {"type": "Polygon", "coordinates": [[[33.25, 37.25], [33.5, 37.25], [33.5, 37.5], [33.25, 37.5], [33.25, 37.25]]]}, "properties": {"cell_id": 9033, "probability": 0.000313, "expected_events": 0.0003, "normal_probability": 0.00011, "times_normal": 2.9}}, {"type": "Feature", "geometry": {"type": "Polygon", "coordinates": [[[33.5, 37.25], [33.75, 37.25], [33.75, 37.5], [33.5, 37.5], [33.5, 37.25]]]}, "properties": {"cell_id": 9034, "probability": 0.000358, "expected_events": 0.0004, "normal_probability": 8.1e-05, "times_normal": 4.4}}, {"type": "Feature", "geometry": {"type": "Polygon", "coordinates": [[[33.75, 37.25], [34.0, 37.25], [34.0, 37.5], [33.75, 37.5], [33.75, 37.25]]]}, "properties": {"cell_id": 9035, "probability": 0.000334, "expected_events": 0.0003, "normal_probability": 0.000109, "times_normal": 3.0}}, {"type": "Feature", "geometry": {"type": "Polygon", "coordinates": [[[34.25, 37.25], [34.5, 37.25], [34.5, 37.5], [34.25, 37.5], [34.25, 37.25]]]}, "properties": {"cell_id": 9037, "probability": 0.001003, "expected_events": 0.001, "normal_probability": 0.000389, "times_normal": 2.6}}, {"type": "Feature", "geometry": {"type": "Polygon", "coordinates": [[[36.5, 37.25], [36.75, 37.25], [36.75, 37.5], [36.5, 37.5], [36.5, 37.25]]]}, "properties": {"cell_id": 9046, "probability": 0.008184, "expected_events": 0.0082, "normal_probability": 0.003311, "times_normal": 2.5}}, {"type": "Feature", "geometry": {"type": "Polygon", "coordinates": [[[36.75, 37.25], [37.0, 37.25], [37.0, 37.5], [36.75, 37.5], [36.75, 37.25]]]}, "properties": {"cell_id": 9047, "probability": 0.030619, "expected_events": 0.0311, "normal_probability": 0.003736, "times_normal": 8.2}}, {"type": "Feature", "geometry": {"type": "Polygon", "coordinates": [[[37.0, 37.25], [37.25, 37.25], [37.25, 37.5], [37.0, 37.5], [37.0, 37.25]]]}, "properties": {"cell_id": 9048, "probability": 0.034288, "expected_events": 0.0349, "normal_probability": 0.004588, "times_normal": 7.5}}, {"type": "Feature", "geometry": {"type": "Polygon", "coordinates": [[[37.25, 37.25], [37.5, 37.25], [37.5, 37.5], [37.25, 37.5], [37.25, 37.25]]]}, "properties": {"cell_id": 9049, "probability": 0.010475, "expected_events": 0.0105, "normal_probability": 0.003554, "times_normal": 2.9}}, {"type": "Feature", "geometry": {"type": "Polygon", "coordinates": [[[38.5, 37.25], [38.75, 37.25], [38.75, 37.5], [38.5, 37.5], [38.5, 37.25]]]}, "properties": {"cell_id": 9054, "probability": 0.026347, "expected_events": 0.0267, "normal_probability": 0.002141, "times_normal": 12.3}}, {"type": "Feature", "geometry": {"type": "Polygon", "coordinates": [[[38.75, 37.25], [39.0, 37.25], [39.0, 37.5], [38.75, 37.5], [38.75, 37.25]]]}, "properties": {"cell_id": 9055, "probability": 0.121013, "expected_events": 0.129, "normal_probability": 0.001723, "times_normal": 70.2}}, {"type": "Feature", "geometry": {"type": "Polygon", "coordinates": [[[39.0, 37.25], [39.25, 37.25], [39.25, 37.5], [39.0, 37.5], [39.0, 37.25]]]}, "properties": {"cell_id": 9056, "probability": 0.022504, "expected_events": 0.0228, "normal_probability": 0.000862, "times_normal": 26.1}}, {"type": "Feature", "geometry": {"type": "Polygon", "coordinates": [[[39.25, 37.25], [39.5, 37.25], [39.5, 37.5], [39.25, 37.5], [39.25, 37.25]]]}, "properties": {"cell_id": 9057, "probability": 0.001829, "expected_events": 0.0018, "normal_probability": 0.000333, "times_normal": 5.5}}, {"type": "Feature", "geometry": {"type": "Polygon", "coordinates": [[[40.25, 37.25], [40.5, 37.25], [40.5, 37.5], [40.25, 37.5], [40.25, 37.25]]]}, "properties": {"cell_id": 9061, "probability": 0.000311, "expected_events": 0.0003, "normal_probability": 7.5e-05, "times_normal": 4.1}}, {"type": "Feature", "geometry": {"type": "Polygon", "coordinates": [[[40.5, 37.25], [40.75, 37.25], [40.75, 37.5], [40.5, 37.5], [40.5, 37.25]]]}, "properties": {"cell_id": 9062, "probability": 0.000311, "expected_events": 0.0003, "normal_probability": 0.000106, "times_normal": 2.9}}, {"type": "Feature", "geometry": {"type": "Polygon", "coordinates": [[[40.75, 37.25], [41.0, 37.25], [41.0, 37.5], [40.75, 37.5], [40.75, 37.25]]]}, "properties": {"cell_id": 9063, "probability": 0.000311, "expected_events": 0.0003, "normal_probability": 0.000114, "times_normal": 2.7}}, {"type": "Feature", "geometry": {"type": "Polygon", "coordinates": [[[41.75, 37.25], [42.0, 37.25], [42.0, 37.5], [41.75, 37.5], [41.75, 37.25]]]}, "properties": {"cell_id": 9067, "probability": 0.000816, "expected_events": 0.0008, "normal_probability": 0.000291, "times_normal": 2.8}}, {"type": "Feature", "geometry": {"type": "Polygon", "coordinates": [[[33.0, 37.5], [33.25, 37.5], [33.25, 37.75], [33.0, 37.75], [33.0, 37.5]]]}, "properties": {"cell_id": 10032, "probability": 0.000316, "expected_events": 0.0003, "normal_probability": 0.000136, "times_normal": 2.3}}, {"type": "Feature", "geometry": {"type": "Polygon", "coordinates": [[[33.25, 37.5], [33.5, 37.5], [33.5, 37.75], [33.25, 37.75], [33.25, 37.5]]]}, "properties": {"cell_id": 10033, "probability": 0.000319, "expected_events": 0.0003, "normal_probability": 0.000119, "times_normal": 2.7}}, {"type": "Feature", "geometry": {"type": "Polygon", "coordinates": [[[36.0, 37.5], [36.25, 37.5], [36.25, 37.75], [36.0, 37.75], [36.0, 37.5]]]}, "properties": {"cell_id": 10044, "probability": 0.012285, "expected_events": 0.0124, "normal_probability": 0.004002, "times_normal": 3.1}}, {"type": "Feature", "geometry": {"type": "Polygon", "coordinates": [[[36.75, 37.5], [37.0, 37.5], [37.0, 37.75], [36.75, 37.75], [36.75, 37.5]]]}, "properties": {"cell_id": 10047, "probability": 0.006502, "expected_events": 0.0065, "normal_probability": 0.002027, "times_normal": 3.2}}, {"type": "Feature", "geometry": {"type": "Polygon", "coordinates": [[[37.0, 37.5], [37.25, 37.5], [37.25, 37.75], [37.0, 37.75], [37.0, 37.5]]]}, "properties": {"cell_id": 10048, "probability": 0.011316, "expected_events": 0.0114, "normal_probability": 0.002409, "times_normal": 4.7}}, {"type": "Feature", "geometry": {"type": "Polygon", "coordinates": [[[37.25, 37.5], [37.5, 37.5], [37.5, 37.75], [37.25, 37.75], [37.25, 37.5]]]}, "properties": {"cell_id": 10049, "probability": 0.007982, "expected_events": 0.008, "normal_probability": 0.002192, "times_normal": 3.6}}, {"type": "Feature", "geometry": {"type": "Polygon", "coordinates": [[[38.5, 37.5], [38.75, 37.5], [38.75, 37.75], [38.5, 37.75], [38.5, 37.5]]]}, "properties": {"cell_id": 10054, "probability": 0.008039, "expected_events": 0.0081, "normal_probability": 0.002295, "times_normal": 3.5}}, {"type": "Feature", "geometry": {"type": "Polygon", "coordinates": [[[38.75, 37.5], [39.0, 37.5], [39.0, 37.75], [38.75, 37.75], [38.75, 37.5]]]}, "properties": {"cell_id": 10055, "probability": 0.028097, "expected_events": 0.0285, "normal_probability": 0.001722, "times_normal": 16.3}}, {"type": "Feature", "geometry": {"type": "Polygon", "coordinates": [[[39.0, 37.5], [39.25, 37.5], [39.25, 37.75], [39.0, 37.75], [39.0, 37.5]]]}, "properties": {"cell_id": 10056, "probability": 0.007058, "expected_events": 0.0071, "normal_probability": 0.000852, "times_normal": 8.3}}, {"type": "Feature", "geometry": {"type": "Polygon", "coordinates": [[[40.5, 37.5], [40.75, 37.5], [40.75, 37.75], [40.5, 37.75], [40.5, 37.5]]]}, "properties": {"cell_id": 10062, "probability": 0.00031, "expected_events": 0.0003, "normal_probability": 9.4e-05, "times_normal": 3.3}}, {"type": "Feature", "geometry": {"type": "Polygon", "coordinates": [[[40.75, 37.5], [41.0, 37.5], [41.0, 37.75], [40.75, 37.75], [40.75, 37.5]]]}, "properties": {"cell_id": 10063, "probability": 0.00031, "expected_events": 0.0003, "normal_probability": 0.000132, "times_normal": 2.4}}, {"type": "Feature", "geometry": {"type": "Polygon", "coordinates": [[[33.0, 37.75], [33.25, 37.75], [33.25, 38.0], [33.0, 38.0], [33.0, 37.75]]]}, "properties": {"cell_id": 11032, "probability": 0.000357, "expected_events": 0.0004, "normal_probability": 0.00016, "times_normal": 2.2}}, {"type": "Feature", "geometry": {"type": "Polygon", "coordinates": [[[33.25, 37.75], [33.5, 37.75], [33.5, 38.0], [33.25, 38.0], [33.25, 37.75]]]}, "properties": {"cell_id": 11033, "probability": 0.000385, "expected_events": 0.0004, "normal_probability": 0.000174, "times_normal": 2.2}}, {"type": "Feature", "geometry": {"type": "Polygon", "coordinates": [[[35.75, 37.75], [36.0, 37.75], [36.0, 38.0], [35.75, 38.0], [35.75, 37.75]]]}, "properties": {"cell_id": 11043, "probability": 0.004421, "expected_events": 0.0044, "normal_probability": 0.001602, "times_normal": 2.8}}, {"type": "Feature", "geometry": {"type": "Polygon", "coordinates": [[[36.0, 37.75], [36.25, 37.75], [36.25, 38.0], [36.0, 38.0], [36.0, 37.75]]]}, "properties": {"cell_id": 11044, "probability": 0.044286, "expected_events": 0.0453, "normal_probability": 0.001828, "times_normal": 24.2}}, {"type": "Feature", "geometry": {"type": "Polygon", "coordinates": [[[36.25, 37.75], [36.5, 37.75], [36.5, 38.0], [36.25, 38.0], [36.25, 37.75]]]}, "properties": {"cell_id": 11045, "probability": 0.033544, "expected_events": 0.0341, "normal_probability": 0.001673, "times_normal": 20.1}}, {"type": "Feature", "geometry": {"type": "Polygon", "coordinates": [[[36.5, 37.75], [36.75, 37.75], [36.75, 38.0], [36.5, 38.0], [36.5, 37.75]]]}, "properties": {"cell_id": 11046, "probability": 0.013693, "expected_events": 0.0138, "normal_probability": 0.001187, "times_normal": 11.5}}, {"type": "Feature", "geometry": {"type": "Polygon", "coordinates": [[[36.75, 37.75], [37.0, 37.75], [37.0, 38.0], [36.75, 38.0], [36.75, 37.75]]]}, "properties": {"cell_id": 11047, "probability": 0.006451, "expected_events": 0.0065, "normal_probability": 0.000934, "times_normal": 6.9}}, {"type": "Feature", "geometry": {"type": "Polygon", "coordinates": [[[37.0, 37.75], [37.25, 37.75], [37.25, 38.0], [37.0, 38.0], [37.0, 37.75]]]}, "properties": {"cell_id": 11048, "probability": 0.013258, "expected_events": 0.0133, "normal_probability": 0.001051, "times_normal": 12.6}}, {"type": "Feature", "geometry": {"type": "Polygon", "coordinates": [[[37.25, 37.75], [37.5, 37.75], [37.5, 38.0], [37.25, 38.0], [37.25, 37.75]]]}, "properties": {"cell_id": 11049, "probability": 0.016184, "expected_events": 0.0163, "normal_probability": 0.001227, "times_normal": 13.2}}, {"type": "Feature", "geometry": {"type": "Polygon", "coordinates": [[[37.5, 37.75], [37.75, 37.75], [37.75, 38.0], [37.5, 38.0], [37.5, 37.75]]]}, "properties": {"cell_id": 11050, "probability": 0.012848, "expected_events": 0.0129, "normal_probability": 0.001364, "times_normal": 9.4}}, {"type": "Feature", "geometry": {"type": "Polygon", "coordinates": [[[37.75, 37.75], [38.0, 37.75], [38.0, 38.0], [37.75, 38.0], [37.75, 37.75]]]}, "properties": {"cell_id": 11051, "probability": 0.006239, "expected_events": 0.0063, "normal_probability": 0.001613, "times_normal": 3.9}}, {"type": "Feature", "geometry": {"type": "Polygon", "coordinates": [[[32.5, 38.0], [32.75, 38.0], [32.75, 38.25], [32.5, 38.25], [32.5, 38.0]]]}, "properties": {"cell_id": 12030, "probability": 0.001012, "expected_events": 0.001, "normal_probability": 0.000382, "times_normal": 2.7}}, {"type": "Feature", "geometry": {"type": "Polygon", "coordinates": [[[33.0, 38.0], [33.25, 38.0], [33.25, 38.25], [33.0, 38.25], [33.0, 38.0]]]}, "properties": {"cell_id": 12032, "probability": 0.000316, "expected_events": 0.0003, "normal_probability": 0.000151, "times_normal": 2.1}}, {"type": "Feature", "geometry": {"type": "Polygon", "coordinates": [[[36.0, 38.0], [36.25, 38.0], [36.25, 38.25], [36.0, 38.25], [36.0, 38.0]]]}, "properties": {"cell_id": 12044, "probability": 0.004136, "expected_events": 0.0041, "normal_probability": 0.000551, "times_normal": 7.5}}, {"type": "Feature", "geometry": {"type": "Polygon", "coordinates": [[[36.25, 38.0], [36.5, 38.0], [36.5, 38.25], [36.25, 38.25], [36.25, 38.0]]]}, "properties": {"cell_id": 12045, "probability": 0.014572, "expected_events": 0.0147, "normal_probability": 0.0006, "times_normal": 24.3}}, {"type": "Feature", "geometry": {"type": "Polygon", "coordinates": [[[36.5, 38.0], [36.75, 38.0], [36.75, 38.25], [36.5, 38.25], [36.5, 38.0]]]}, "properties": {"cell_id": 12046, "probability": 0.017384, "expected_events": 0.0175, "normal_probability": 0.000557, "times_normal": 31.2}}, {"type": "Feature", "geometry": {"type": "Polygon", "coordinates": [[[36.75, 38.0], [37.0, 38.0], [37.0, 38.25], [36.75, 38.25], [36.75, 38.0]]]}, "properties": {"cell_id": 12047, "probability": 0.012398, "expected_events": 0.0125, "normal_probability": 0.000539, "times_normal": 23.0}}, {"type": "Feature", "geometry": {"type": "Polygon", "coordinates": [[[37.0, 38.0], [37.25, 38.0], [37.25, 38.25], [37.0, 38.25], [37.0, 38.0]]]}, "properties": {"cell_id": 12048, "probability": 0.025729, "expected_events": 0.0261, "normal_probability": 0.000616, "times_normal": 41.8}}, {"type": "Feature", "geometry": {"type": "Polygon", "coordinates": [[[37.25, 38.0], [37.5, 38.0], [37.5, 38.25], [37.25, 38.25], [37.25, 38.0]]]}, "properties": {"cell_id": 12049, "probability": 0.026903, "expected_events": 0.0273, "normal_probability": 0.000742, "times_normal": 36.3}}, {"type": "Feature", "geometry": {"type": "Polygon", "coordinates": [[[37.5, 38.0], [37.75, 38.0], [37.75, 38.25], [37.5, 38.25], [37.5, 38.0]]]}, "properties": {"cell_id": 12050, "probability": 0.015643, "expected_events": 0.0158, "normal_probability": 0.00094, "times_normal": 16.6}}, {"type": "Feature", "geometry": {"type": "Polygon", "coordinates": [[[37.75, 38.0], [38.0, 38.0], [38.0, 38.25], [37.75, 38.25], [37.75, 38.0]]]}, "properties": {"cell_id": 12051, "probability": 0.012597, "expected_events": 0.0127, "normal_probability": 0.001284, "times_normal": 9.8}}, {"type": "Feature", "geometry": {"type": "Polygon", "coordinates": [[[38.0, 38.0], [38.25, 38.0], [38.25, 38.25], [38.0, 38.25], [38.0, 38.0]]]}, "properties": {"cell_id": 12052, "probability": 0.012107, "expected_events": 0.0122, "normal_probability": 0.001817, "times_normal": 6.7}}, {"type": "Feature", "geometry": {"type": "Polygon", "coordinates": [[[38.25, 38.0], [38.5, 38.0], [38.5, 38.25], [38.25, 38.25], [38.25, 38.0]]]}, "properties": {"cell_id": 12053, "probability": 0.025293, "expected_events": 0.0256, "normal_probability": 0.00271, "times_normal": 9.3}}, {"type": "Feature", "geometry": {"type": "Polygon", "coordinates": [[[38.5, 38.0], [38.75, 38.0], [38.75, 38.25], [38.5, 38.25], [38.5, 38.0]]]}, "properties": {"cell_id": 12054, "probability": 0.028297, "expected_events": 0.0287, "normal_probability": 0.003969, "times_normal": 7.1}}, {"type": "Feature", "geometry": {"type": "Polygon", "coordinates": [[[33.0, 38.25], [33.25, 38.25], [33.25, 38.5], [33.0, 38.5], [33.0, 38.25]]]}, "properties": {"cell_id": 13032, "probability": 0.000436, "expected_events": 0.0004, "normal_probability": 0.000182, "times_normal": 2.4}}, {"type": "Feature", "geometry": {"type": "Polygon", "coordinates": [[[36.0, 38.25], [36.25, 38.25], [36.25, 38.5], [36.0, 38.5], [36.0, 38.25]]]}, "properties": {"cell_id": 13044, "probability": 0.00063, "expected_events": 0.0006, "normal_probability": 0.000297, "times_normal": 2.1}}, {"type": "Feature", "geometry": {"type": "Polygon", "coordinates": [[[36.25, 38.25], [36.5, 38.25], [36.5, 38.5], [36.25, 38.5], [36.25, 38.25]]]}, "properties": {"cell_id": 13045, "probability": 0.001416, "expected_events": 0.0014, "normal_probability": 0.000364, "times_normal": 3.9}}, {"type": "Feature", "geometry": {"type": "Polygon", "coordinates": [[[36.5, 38.25], [36.75, 38.25], [36.75, 38.5], [36.5, 38.5], [36.5, 38.25]]]}, "properties": {"cell_id": 13046, "probability": 0.001951, "expected_events": 0.002, "normal_probability": 0.000433, "times_normal": 4.5}}, {"type": "Feature", "geometry": {"type": "Polygon", "coordinates": [[[36.75, 38.25], [37.0, 38.25], [37.0, 38.5], [36.75, 38.5], [36.75, 38.25]]]}, "properties": {"cell_id": 13047, "probability": 0.003068, "expected_events": 0.0031, "normal_probability": 0.000488, "times_normal": 6.3}}, {"type": "Feature", "geometry": {"type": "Polygon", "coordinates": [[[37.0, 38.25], [37.25, 38.25], [37.25, 38.5], [37.0, 38.5], [37.0, 38.25]]]}, "properties": {"cell_id": 13048, "probability": 0.006698, "expected_events": 0.0067, "normal_probability": 0.000563, "times_normal": 11.9}}, {"type": "Feature", "geometry": {"type": "Polygon", "coordinates": [[[37.25, 38.25], [37.5, 38.25], [37.5, 38.5], [37.25, 38.5], [37.25, 38.25]]]}, "properties": {"cell_id": 13049, "probability": 0.007473, "expected_events": 0.0075, "normal_probability": 0.000615, "times_normal": 12.2}}, {"type": "Feature", "geometry": {"type": "Polygon", "coordinates": [[[37.5, 38.25], [37.75, 38.25], [37.75, 38.5], [37.5, 38.5], [37.5, 38.25]]]}, "properties": {"cell_id": 13050, "probability": 0.004537, "expected_events": 0.0045, "normal_probability": 0.00063, "times_normal": 7.2}}, {"type": "Feature", "geometry": {"type": "Polygon", "coordinates": [[[37.75, 38.25], [38.0, 38.25], [38.0, 38.5], [37.75, 38.5], [37.75, 38.25]]]}, "properties": {"cell_id": 13051, "probability": 0.005855, "expected_events": 0.0059, "normal_probability": 0.000716, "times_normal": 8.2}}, {"type": "Feature", "geometry": {"type": "Polygon", "coordinates": [[[38.0, 38.25], [38.25, 38.25], [38.25, 38.5], [38.0, 38.5], [38.0, 38.25]]]}, "properties": {"cell_id": 13052, "probability": 0.010279, "expected_events": 0.0103, "normal_probability": 0.001053, "times_normal": 9.8}}, {"type": "Feature", "geometry": {"type": "Polygon", "coordinates": [[[38.25, 38.25], [38.5, 38.25], [38.5, 38.5], [38.25, 38.5], [38.25, 38.25]]]}, "properties": {"cell_id": 13053, "probability": 0.014054, "expected_events": 0.0142, "normal_probability": 0.001949, "times_normal": 7.2}}, {"type": "Feature", "geometry": {"type": "Polygon", "coordinates": [[[38.5, 38.25], [38.75, 38.25], [38.75, 38.5], [38.5, 38.5], [38.5, 38.25]]]}, "properties": {"cell_id": 13054, "probability": 0.022203, "expected_events": 0.0225, "normal_probability": 0.003768, "times_normal": 5.9}}, {"type": "Feature", "geometry": {"type": "Polygon", "coordinates": [[[38.75, 38.25], [39.0, 38.25], [39.0, 38.5], [38.75, 38.5], [38.75, 38.25]]]}, "properties": {"cell_id": 13055, "probability": 0.012989, "expected_events": 0.0131, "normal_probability": 0.006346, "times_normal": 2.0}}, {"type": "Feature", "geometry": {"type": "Polygon", "coordinates": [[[36.25, 38.5], [36.5, 38.5], [36.5, 38.75], [36.25, 38.75], [36.25, 38.5]]]}, "properties": {"cell_id": 14045, "probability": 0.001628, "expected_events": 0.0016, "normal_probability": 0.000356, "times_normal": 4.6}}, {"type": "Feature", "geometry": {"type": "Polygon", "coordinates": [[[36.5, 38.5], [36.75, 38.5], [36.75, 38.75], [36.5, 38.75], [36.5, 38.5]]]}, "properties": {"cell_id": 14046, "probability": 0.003027, "expected_events": 0.003, "normal_probability": 0.000408, "times_normal": 7.4}}, {"type": "Feature", "geometry": {"type": "Polygon", "coordinates": [[[37.0, 38.5], [37.25, 38.5], [37.25, 38.75], [37.0, 38.75], [37.0, 38.5]]]}, "properties": {"cell_id": 14048, "probability": 0.001148, "expected_events": 0.0011, "normal_probability": 0.00057, "times_normal": 2.0}}, {"type": "Feature", "geometry": {"type": "Polygon", "coordinates": [[[37.25, 38.5], [37.5, 38.5], [37.5, 38.75], [37.25, 38.75], [37.25, 38.5]]]}, "properties": {"cell_id": 14049, "probability": 0.001479, "expected_events": 0.0015, "normal_probability": 0.000613, "times_normal": 2.4}}, {"type": "Feature", "geometry": {"type": "Polygon", "coordinates": [[[36.25, 38.75], [36.5, 38.75], [36.5, 39.0], [36.25, 39.0], [36.25, 38.75]]]}, "properties": {"cell_id": 15045, "probability": 0.001349, "expected_events": 0.0014, "normal_probability": 0.000509, "times_normal": 2.6}}, {"type": "Feature", "geometry": {"type": "Polygon", "coordinates": [[[36.5, 38.75], [36.75, 38.75], [36.75, 39.0], [36.5, 39.0], [36.5, 38.75]]]}, "properties": {"cell_id": 15046, "probability": 0.003033, "expected_events": 0.003, "normal_probability": 0.000423, "times_normal": 7.2}}, {"type": "Feature", "geometry": {"type": "Polygon", "coordinates": [[[37.25, 38.75], [37.5, 38.75], [37.5, 39.0], [37.25, 39.0], [37.25, 38.75]]]}, "properties": {"cell_id": 15049, "probability": 0.002092, "expected_events": 0.0021, "normal_probability": 0.000604, "times_normal": 3.5}}, {"type": "Feature", "geometry": {"type": "Polygon", "coordinates": [[[28.0, 39.0], [28.25, 39.0], [28.25, 39.25], [28.0, 39.25], [28.0, 39.0]]]}, "properties": {"cell_id": 16012, "probability": 0.073937, "expected_events": 0.0768, "normal_probability": 0.007782, "times_normal": 9.5}}, {"type": "Feature", "geometry": {"type": "Polygon", "coordinates": [[[28.25, 39.0], [28.5, 39.0], [28.5, 39.25], [28.25, 39.25], [28.25, 39.0]]]}, "properties": {"cell_id": 16013, "probability": 0.040937, "expected_events": 0.0418, "normal_probability": 0.005196, "times_normal": 7.9}}, {"type": "Feature", "geometry": {"type": "Polygon", "coordinates": [[[28.0, 39.25], [28.25, 39.25], [28.25, 39.5], [28.0, 39.5], [28.0, 39.25]]]}, "properties": {"cell_id": 17012, "probability": 0.029291, "expected_events": 0.0297, "normal_probability": 0.00784, "times_normal": 3.7}}, {"type": "Feature", "geometry": {"type": "Polygon", "coordinates": [[[28.25, 39.25], [28.5, 39.25], [28.5, 39.5], [28.25, 39.5], [28.25, 39.25]]]}, "properties": {"cell_id": 17013, "probability": 0.010841, "expected_events": 0.0109, "normal_probability": 0.005419, "times_normal": 2.0}}, {"type": "Feature", "geometry": {"type": "Polygon", "coordinates": [[[35.75, 40.0], [36.0, 40.0], [36.0, 40.25], [35.75, 40.25], [35.75, 40.0]]]}, "properties": {"cell_id": 20043, "probability": 0.002465, "expected_events": 0.0025, "normal_probability": 0.000818, "times_normal": 3.0}}, {"type": "Feature", "geometry": {"type": "Polygon", "coordinates": [[[36.0, 40.0], [36.25, 40.0], [36.25, 40.25], [36.0, 40.25], [36.0, 40.0]]]}, "properties": {"cell_id": 20044, "probability": 0.001767, "expected_events": 0.0018, "normal_probability": 0.000627, "times_normal": 2.8}}, {"type": "Feature", "geometry": {"type": "Polygon", "coordinates": [[[36.5, 40.5], [36.75, 40.5], [36.75, 40.75], [36.5, 40.75], [36.5, 40.5]]]}, "properties": {"cell_id": 22046, "probability": 0.003231, "expected_events": 0.0032, "normal_probability": 0.001167, "times_normal": 2.8}}, {"type": "Feature", "geometry": {"type": "Polygon", "coordinates": [[[36.75, 40.5], [37.0, 40.5], [37.0, 40.75], [36.75, 40.75], [36.75, 40.5]]]}, "properties": {"cell_id": 22047, "probability": 0.006987, "expected_events": 0.007, "normal_probability": 0.001174, "times_normal": 5.9}}, {"type": "Feature", "geometry": {"type": "Polygon", "coordinates": [[[37.75, 40.75], [38.0, 40.75], [38.0, 41.0], [37.75, 41.0], [37.75, 40.75]]]}, "properties": {"cell_id": 23051, "probability": 0.000296, "expected_events": 0.0003, "normal_probability": 0.000134, "times_normal": 2.2}}, {"type": "Feature", "geometry": {"type": "Polygon", "coordinates": [[[39.75, 40.75], [40.0, 40.75], [40.0, 41.0], [39.75, 41.0], [39.75, 40.75]]]}, "properties": {"cell_id": 23059, "probability": 0.000299, "expected_events": 0.0003, "normal_probability": 0.00014, "times_normal": 2.1}}, {"type": "Feature", "geometry": {"type": "Polygon", "coordinates": [[[40.75, 40.75], [41.0, 40.75], [41.0, 41.0], [40.75, 41.0], [40.75, 40.75]]]}, "properties": {"cell_id": 23063, "probability": 0.000566, "expected_events": 0.0006, "normal_probability": 0.000172, "times_normal": 3.3}}, {"type": "Feature", "geometry": {"type": "Polygon", "coordinates": [[[41.0, 40.75], [41.25, 40.75], [41.25, 41.0], [41.0, 41.0], [41.0, 40.75]]]}, "properties": {"cell_id": 23064, "probability": 0.000348, "expected_events": 0.0003, "normal_probability": 0.000144, "times_normal": 2.4}}, {"type": "Feature", "geometry": {"type": "Polygon", "coordinates": [[[41.25, 40.75], [41.5, 40.75], [41.5, 41.0], [41.25, 41.0], [41.25, 40.75]]]}, "properties": {"cell_id": 23065, "probability": 0.000299, "expected_events": 0.0003, "normal_probability": 0.000112, "times_normal": 2.7}}, {"type": "Feature", "geometry": {"type": "Polygon", "coordinates": [[[41.5, 40.75], [41.75, 40.75], [41.75, 41.0], [41.5, 41.0], [41.5, 40.75]]]}, "properties": {"cell_id": 23066, "probability": 0.000296, "expected_events": 0.0003, "normal_probability": 0.000132, "times_normal": 2.2}}, {"type": "Feature", "geometry": {"type": "Polygon", "coordinates": [[[33.5, 41.0], [33.75, 41.0], [33.75, 41.25], [33.5, 41.25], [33.5, 41.0]]]}, "properties": {"cell_id": 24034, "probability": 0.002887, "expected_events": 0.0029, "normal_probability": 0.001032, "times_normal": 2.8}}, {"type": "Feature", "geometry": {"type": "Polygon", "coordinates": [[[37.25, 41.0], [37.5, 41.0], [37.5, 41.25], [37.25, 41.25], [37.25, 41.0]]]}, "properties": {"cell_id": 24049, "probability": 0.000362, "expected_events": 0.0004, "normal_probability": 0.000103, "times_normal": 3.5}}, {"type": "Feature", "geometry": {"type": "Polygon", "coordinates": [[[40.75, 41.0], [41.0, 41.0], [41.0, 41.25], [40.75, 41.25], [40.75, 41.0]]]}, "properties": {"cell_id": 24063, "probability": 0.000572, "expected_events": 0.0006, "normal_probability": 0.000177, "times_normal": 3.2}}, {"type": "Feature", "geometry": {"type": "Polygon", "coordinates": [[[41.5, 41.0], [41.75, 41.0], [41.75, 41.25], [41.5, 41.25], [41.5, 41.0]]]}, "properties": {"cell_id": 24066, "probability": 0.000295, "expected_events": 0.0003, "normal_probability": 9.3e-05, "times_normal": 3.2}}, {"type": "Feature", "geometry": {"type": "Polygon", "coordinates": [[[28.5, 41.25], [28.75, 41.25], [28.75, 41.5], [28.5, 41.5], [28.5, 41.25]]]}, "properties": {"cell_id": 25014, "probability": 0.000454, "expected_events": 0.0005, "normal_probability": 0.000167, "times_normal": 2.7}}, {"type": "Feature", "geometry": {"type": "Polygon", "coordinates": [[[28.75, 41.25], [29.0, 41.25], [29.0, 41.5], [28.75, 41.5], [28.75, 41.25]]]}, "properties": {"cell_id": 25015, "probability": 0.000331, "expected_events": 0.0003, "normal_probability": 0.000151, "times_normal": 2.2}}, {"type": "Feature", "geometry": {"type": "Polygon", "coordinates": [[[41.5, 41.25], [41.75, 41.25], [41.75, 41.5], [41.5, 41.5], [41.5, 41.25]]]}, "properties": {"cell_id": 25066, "probability": 0.000294, "expected_events": 0.0003, "normal_probability": 0.000136, "times_normal": 2.2}}, {"type": "Feature", "geometry": {"type": "Polygon", "coordinates": [[[28.0, 41.5], [28.25, 41.5], [28.25, 41.75], [28.0, 41.75], [28.0, 41.5]]]}, "properties": {"cell_id": 26012, "probability": 0.000296, "expected_events": 0.0003, "normal_probability": 0.000148, "times_normal": 2.0}}, {"type": "Feature", "geometry": {"type": "Polygon", "coordinates": [[[34.0, 41.5], [34.25, 41.5], [34.25, 41.75], [34.0, 41.75], [34.0, 41.5]]]}, "properties": {"cell_id": 26036, "probability": 0.000293, "expected_events": 0.0003, "normal_probability": 0.00013, "times_normal": 2.2}}, {"type": "Feature", "geometry": {"type": "Polygon", "coordinates": [[[34.5, 41.5], [34.75, 41.5], [34.75, 41.75], [34.5, 41.75], [34.5, 41.5]]]}, "properties": {"cell_id": 26038, "probability": 0.000293, "expected_events": 0.0003, "normal_probability": 0.000113, "times_normal": 2.6}}, {"type": "Feature", "geometry": {"type": "Polygon", "coordinates": [[[35.25, 41.5], [35.5, 41.5], [35.5, 41.75], [35.25, 41.75], [35.25, 41.5]]]}, "properties": {"cell_id": 26041, "probability": 0.000293, "expected_events": 0.0003, "normal_probability": 0.00012, "times_normal": 2.4}}, {"type": "Feature", "geometry": {"type": "Polygon", "coordinates": [[[28.0, 41.75], [28.25, 41.75], [28.25, 42.0], [28.0, 42.0], [28.0, 41.75]]]}, "properties": {"cell_id": 27012, "probability": 0.000291, "expected_events": 0.0003, "normal_probability": 9.4e-05, "times_normal": 3.1}}, {"type": "Feature", "geometry": {"type": "Polygon", "coordinates": [[[33.25, 41.75], [33.5, 41.75], [33.5, 42.0], [33.25, 42.0], [33.25, 41.75]]]}, "properties": {"cell_id": 27033, "probability": 0.000291, "expected_events": 0.0003, "normal_probability": 0.000138, "times_normal": 2.1}}, {"type": "Feature", "geometry": {"type": "Polygon", "coordinates": [[[33.5, 41.75], [33.75, 41.75], [33.75, 42.0], [33.5, 42.0], [33.5, 41.75]]]}, "properties": {"cell_id": 27034, "probability": 0.000291, "expected_events": 0.0003, "normal_probability": 0.000137, "times_normal": 2.1}}, {"type": "Feature", "geometry": {"type": "Polygon", "coordinates": [[[33.75, 41.75], [34.0, 41.75], [34.0, 42.0], [33.75, 42.0], [33.75, 41.75]]]}, "properties": {"cell_id": 27035, "probability": 0.000291, "expected_events": 0.0003, "normal_probability": 0.000107, "times_normal": 2.7}}, {"type": "Feature", "geometry": {"type": "Polygon", "coordinates": [[[34.0, 41.75], [34.25, 41.75], [34.25, 42.0], [34.0, 42.0], [34.0, 41.75]]]}, "properties": {"cell_id": 27036, "probability": 0.000291, "expected_events": 0.0003, "normal_probability": 9.5e-05, "times_normal": 3.0}}, {"type": "Feature", "geometry": {"type": "Polygon", "coordinates": [[[34.25, 41.75], [34.5, 41.75], [34.5, 42.0], [34.25, 42.0], [34.25, 41.75]]]}, "properties": {"cell_id": 27037, "probability": 0.000291, "expected_events": 0.0003, "normal_probability": 9.4e-05, "times_normal": 3.1}}, {"type": "Feature", "geometry": {"type": "Polygon", "coordinates": [[[34.75, 41.75], [35.0, 41.75], [35.0, 42.0], [34.75, 42.0], [34.75, 41.75]]]}, "properties": {"cell_id": 27039, "probability": 0.000291, "expected_events": 0.0003, "normal_probability": 5.2e-05, "times_normal": 5.6}}, {"type": "Feature", "geometry": {"type": "Polygon", "coordinates": [[[27.0, 42.0], [27.25, 42.0], [27.25, 42.25], [27.0, 42.25], [27.0, 42.0]]]}, "properties": {"cell_id": 28008, "probability": 0.00029, "expected_events": 0.0003, "normal_probability": 0.000102, "times_normal": 2.8}}, {"type": "Feature", "geometry": {"type": "Polygon", "coordinates": [[[33.25, 42.0], [33.5, 42.0], [33.5, 42.25], [33.25, 42.25], [33.25, 42.0]]]}, "properties": {"cell_id": 28033, "probability": 0.00029, "expected_events": 0.0003, "normal_probability": 9.5e-05, "times_normal": 3.1}}, {"type": "Feature", "geometry": {"type": "Polygon", "coordinates": [[[35.0, 42.0], [35.25, 42.0], [35.25, 42.25], [35.0, 42.25], [35.0, 42.0]]]}, "properties": {"cell_id": 28040, "probability": 0.00029, "expected_events": 0.0003, "normal_probability": 3.6e-05, "times_normal": 8.1}}]}