{"type": "FeatureCollection", "properties": {"origin": "2026-08-28T17:00:00Z", "window_days": 1, "target_magnitude": 4.5, "model": "ETAS", "mode": "live", "fingerprint": {"method": "analytic-branching", "etas_params_sha256": "35958f30919b5e6ab7340baf05be24aae941dda95de831d3a23decfc8d843027", "catalog_sha256": "6bc46bf60c6a53b23caf663c496c0fa8768486059c0e3b7d05959330367e3827", "catalog_last_event": "2026-08-28 17:19:29+00:00", "branching_nominal": 0.8209, "branching_effective": 0.8125, "commit": "7d9ee9eb997c48dc13921e65d6f9aedb5cbbce10", "worktree": "clean", "randomness": "none in the branching computation; the ETAS state EM step is SEEDED from the origin date"}, "min_times_normal": 2.0, "kapsam": {"izgara_hucre": 2560, "kapsam_disi_elenen": 1116, "sinir_kaynagi": "Natural Earth 10m admin-0 countries", "lisans": "Natural Earth — kamu malı (public domain)", "kaynak_sha256": "239eec57ac17f100a11e2536cffc56752c318b50ae765b0918ff7aab4ce8f255", "sinir_sha256": "6526abdc33181eedaafb4975d68732102d7805b0de5c5307401f15ec181a1e90", "tampon_derece": 0.125, "gerekce": "katalog tamlığı sınır dışında ölçülmüş biçimde düşüktür (küçük olayların ~%46'sı kayıtsız); temel oran düşük kestirildiği için 'normalin kaç katı' şişer -- V43"}, "cells_before_threshold": 1444, "cells_published": 94, "disclaimer": "Bu bir OLASILIK tahminidir, kesin deprem tahmini değildir. Belirli bir tarih, yer ve büyüklükte deprem olacağını öngörmez ve bilimsel olarak böyle bir öngörü mümkün değildir. Verilen değerler, belirtilen zaman penceresinde ilgili hücrede eşik büyüklüğün üzerinde deprem olma olasılığıdır. Yöntem ve sınırlılıklar: metodoloji.html"}, "features": [{"type": "Feature", "geometry": {"type": "Polygon", "coordinates": [[[33.0, 36.0], [33.25, 36.0], [33.25, 36.25], [33.0, 36.25], [33.0, 36.0]]]}, "properties": {"cell_id": 4032, "probability": 8e-06, "expected_events": 0.0, "normal_probability": 3e-06, "times_normal": 2.3}}, {"type": "Feature", "geometry": {"type": "Polygon", "coordinates": [[[35.75, 36.0], [36.0, 36.0], [36.0, 36.25], [35.75, 36.25], [35.75, 36.0]]]}, "properties": {"cell_id": 4043, "probability": 0.000208, "expected_events": 0.0002, "normal_probability": 7.2e-05, "times_normal": 2.9}}, {"type": "Feature", "geometry": {"type": "Polygon", "coordinates": [[[36.0, 36.0], [36.25, 36.0], [36.25, 36.25], [36.0, 36.25], [36.0, 36.0]]]}, "properties": {"cell_id": 4044, "probability": 0.000221, "expected_events": 0.0002, "normal_probability": 6.6e-05, "times_normal": 3.3}}, {"type": "Feature", "geometry": {"type": "Polygon", "coordinates": [[[33.0, 36.25], [33.25, 36.25], [33.25, 36.5], [33.0, 36.5], [33.0, 36.25]]]}, "properties": {"cell_id": 5032, "probability": 8e-06, "expected_events": 0.0, "normal_probability": 1e-06, "times_normal": 5.9}}, {"type": "Feature", "geometry": {"type": "Polygon", "coordinates": [[[36.25, 36.25], [36.5, 36.25], [36.5, 36.5], [36.25, 36.5], [36.25, 36.25]]]}, "properties": {"cell_id": 5045, "probability": 8.4e-05, "expected_events": 0.0001, "normal_probability": 3.9e-05, "times_normal": 2.2}}, {"type": "Feature", "geometry": {"type": "Polygon", "coordinates": [[[33.0, 36.5], [33.25, 36.5], [33.25, 36.75], [33.0, 36.75], [33.0, 36.5]]]}, "properties": {"cell_id": 6032, "probability": 8e-06, "expected_events": 0.0, "normal_probability": 3e-06, "times_normal": 2.8}}, {"type": "Feature", "geometry": {"type": "Polygon", "coordinates": [[[34.0, 36.5], [34.25, 36.5], [34.25, 36.75], [34.0, 36.75], [34.0, 36.5]]]}, "properties": {"cell_id": 6036, "probability": 5.9e-05, "expected_events": 0.0001, "normal_probability": 1.8e-05, "times_normal": 3.3}}, {"type": "Feature", "geometry": {"type": "Polygon", "coordinates": [[[36.25, 36.5], [36.5, 36.5], [36.5, 36.75], [36.25, 36.75], [36.25, 36.5]]]}, "properties": {"cell_id": 6045, "probability": 0.000124, "expected_events": 0.0001, "normal_probability": 4.3e-05, "times_normal": 2.9}}, {"type": "Feature", "geometry": {"type": "Polygon", "coordinates": [[[36.5, 36.75], [36.75, 36.75], [36.75, 37.0], [36.5, 37.0], [36.5, 36.75]]]}, "properties": {"cell_id": 7046, "probability": 0.000111, "expected_events": 0.0001, "normal_probability": 5.3e-05, "times_normal": 2.1}}, {"type": "Feature", "geometry": {"type": "Polygon", "coordinates": [[[36.75, 36.75], [37.0, 36.75], [37.0, 37.0], [36.75, 37.0], [36.75, 36.75]]]}, "properties": {"cell_id": 7047, "probability": 0.000104, "expected_events": 0.0001, "normal_probability": 5.2e-05, "times_normal": 2.0}}, {"type": "Feature", "geometry": {"type": "Polygon", "coordinates": [[[36.5, 37.0], [36.75, 37.0], [36.75, 37.25], [36.5, 37.25], [36.5, 37.0]]]}, "properties": {"cell_id": 8046, "probability": 0.000332, "expected_events": 0.0003, "normal_probability": 9.5e-05, "times_normal": 3.5}}, {"type": "Feature", "geometry": {"type": "Polygon", "coordinates": [[[36.75, 37.0], [37.0, 37.0], [37.0, 37.25], [36.75, 37.25], [36.75, 37.0]]]}, "properties": {"cell_id": 8047, "probability": 0.001102, "expected_events": 0.0011, "normal_probability": 0.000112, "times_normal": 9.9}}, {"type": "Feature", "geometry": {"type": "Polygon", "coordinates": [[[37.0, 37.0], [37.25, 37.0], [37.25, 37.25], [37.0, 37.25], [37.0, 37.0]]]}, "properties": {"cell_id": 8048, "probability": 0.000698, "expected_events": 0.0007, "normal_probability": 0.000132, "times_normal": 5.3}}, {"type": "Feature", "geometry": {"type": "Polygon", "coordinates": [[[39.75, 37.0], [40.0, 37.0], [40.0, 37.25], [39.75, 37.25], [39.75, 37.0]]]}, "properties": {"cell_id": 8059, "probability": 8e-06, "expected_events": 0.0, "normal_probability": 3e-06, "times_normal": 2.5}}, {"type": "Feature", "geometry": {"type": "Polygon", "coordinates": [[[41.25, 37.0], [41.5, 37.0], [41.5, 37.25], [41.25, 37.25], [41.25, 37.0]]]}, "properties": {"cell_id": 8065, "probability": 8e-06, "expected_events": 0.0, "normal_probability": 4e-06, "times_normal": 2.2}}, {"type": "Feature", "geometry": {"type": "Polygon", "coordinates": [[[33.25, 37.25], [33.5, 37.25], [33.5, 37.5], [33.25, 37.5], [33.25, 37.25]]]}, "properties": {"cell_id": 9033, "probability": 8e-06, "expected_events": 0.0, "normal_probability": 4e-06, "times_normal": 2.1}}, {"type": "Feature", "geometry": {"type": "Polygon", "coordinates": [[[33.5, 37.25], [33.75, 37.25], [33.75, 37.5], [33.5, 37.5], [33.5, 37.25]]]}, "properties": {"cell_id": 9034, "probability": 9e-06, "expected_events": 0.0, "normal_probability": 3e-06, "times_normal": 3.4}}, {"type": "Feature", "geometry": {"type": "Polygon", "coordinates": [[[33.75, 37.25], [34.0, 37.25], [34.0, 37.5], [33.75, 37.5], [33.75, 37.25]]]}, "properties": {"cell_id": 9035, "probability": 9e-06, "expected_events": 0.0, "normal_probability": 4e-06, "times_normal": 2.3}}, {"type": "Feature", "geometry": {"type": "Polygon", "coordinates": [[[34.0, 37.25], [34.25, 37.25], [34.25, 37.5], [34.0, 37.5], [34.0, 37.25]]]}, "properties": {"cell_id": 9036, "probability": 1.5e-05, "expected_events": 0.0, "normal_probability": 7e-06, "times_normal": 2.1}}, {"type": "Feature", "geometry": {"type": "Polygon", "coordinates": [[[34.25, 37.25], [34.5, 37.25], [34.5, 37.5], [34.25, 37.5], [34.25, 37.25]]]}, "properties": {"cell_id": 9037, "probability": 9.3e-05, "expected_events": 0.0001, "normal_probability": 1.3e-05, "times_normal": 7.2}}, {"type": "Feature", "geometry": {"type": "Polygon", "coordinates": [[[36.75, 37.25], [37.0, 37.25], [37.0, 37.5], [36.75, 37.5], [36.75, 37.25]]]}, "properties": {"cell_id": 9047, "probability": 0.000858, "expected_events": 0.0009, "normal_probability": 0.000125, "times_normal": 6.9}}, {"type": "Feature", "geometry": {"type": "Polygon", "coordinates": [[[37.0, 37.25], [37.25, 37.25], [37.25, 37.5], [37.0, 37.5], [37.0, 37.25]]]}, "properties": {"cell_id": 9048, "probability": 0.000973, "expected_events": 0.001, "normal_probability": 0.000153, "times_normal": 6.3}}, {"type": "Feature", "geometry": {"type": "Polygon", "coordinates": [[[37.25, 37.25], [37.5, 37.25], [37.5, 37.5], [37.25, 37.5], [37.25, 37.25]]]}, "properties": {"cell_id": 9049, "probability": 0.000272, "expected_events": 0.0003, "normal_probability": 0.000119, "times_normal": 2.3}}, {"type": "Feature", "geometry": {"type": "Polygon", "coordinates": [[[40.25, 37.25], [40.5, 37.25], [40.5, 37.5], [40.25, 37.5], [40.25, 37.25]]]}, "properties": {"cell_id": 9061, "probability": 8e-06, "expected_events": 0.0, "normal_probability": 3e-06, "times_normal": 3.1}}, {"type": "Feature", "geometry": {"type": "Polygon", "coordinates": [[[40.5, 37.25], [40.75, 37.25], [40.75, 37.5], [40.5, 37.5], [40.5, 37.25]]]}, "properties": {"cell_id": 9062, "probability": 8e-06, "expected_events": 0.0, "normal_probability": 4e-06, "times_normal": 2.2}}, {"type": "Feature", "geometry": {"type": "Polygon", "coordinates": [[[40.75, 37.25], [41.0, 37.25], [41.0, 37.5], [40.75, 37.5], [40.75, 37.25]]]}, "properties": {"cell_id": 9063, "probability": 8e-06, "expected_events": 0.0, "normal_probability": 4e-06, "times_normal": 2.1}}, {"type": "Feature", "geometry": {"type": "Polygon", "coordinates": [[[41.75, 37.25], [42.0, 37.25], [42.0, 37.5], [41.75, 37.5], [41.75, 37.25]]]}, "properties": {"cell_id": 9067, "probability": 2.2e-05, "expected_events": 0.0, "normal_probability": 1e-05, "times_normal": 2.2}}, {"type": "Feature", "geometry": {"type": "Polygon", "coordinates": [[[33.25, 37.5], [33.5, 37.5], [33.5, 37.75], [33.25, 37.75], [33.25, 37.5]]]}, "properties": {"cell_id": 10033, "probability": 8e-06, "expected_events": 0.0, "normal_probability": 4e-06, "times_normal": 2.0}}, {"type": "Feature", "geometry": {"type": "Polygon", "coordinates": [[[36.75, 37.5], [37.0, 37.5], [37.0, 37.75], [36.75, 37.75], [36.75, 37.5]]]}, "properties": {"cell_id": 10047, "probability": 0.000158, "expected_events": 0.0002, "normal_probability": 6.8e-05, "times_normal": 2.3}}, {"type": "Feature", "geometry": {"type": "Polygon", "coordinates": [[[37.0, 37.5], [37.25, 37.5], [37.25, 37.75], [37.0, 37.75], [37.0, 37.5]]]}, "properties": {"cell_id": 10048, "probability": 0.000301, "expected_events": 0.0003, "normal_probability": 8e-05, "times_normal": 3.7}}, {"type": "Feature", "geometry": {"type": "Polygon", "coordinates": [[[37.25, 37.5], [37.5, 37.5], [37.5, 37.75], [37.25, 37.75], [37.25, 37.5]]]}, "properties": {"cell_id": 10049, "probability": 0.00021, "expected_events": 0.0002, "normal_probability": 7.3e-05, "times_normal": 2.9}}, {"type": "Feature", "geometry": {"type": "Polygon", "coordinates": [[[40.5, 37.5], [40.75, 37.5], [40.75, 37.75], [40.5, 37.75], [40.5, 37.5]]]}, "properties": {"cell_id": 10062, "probability": 8e-06, "expected_events": 0.0, "normal_probability": 3e-06, "times_normal": 2.5}}, {"type": "Feature", "geometry": {"type": "Polygon", "coordinates": [[[36.0, 37.75], [36.25, 37.75], [36.25, 38.0], [36.0, 38.0], [36.0, 37.75]]]}, "properties": {"cell_id": 11044, "probability": 0.000335, "expected_events": 0.0003, "normal_probability": 6.1e-05, "times_normal": 5.5}}, {"type": "Feature", "geometry": {"type": "Polygon", "coordinates": [[[36.25, 37.75], [36.5, 37.75], [36.5, 38.0], [36.25, 38.0], [36.25, 37.75]]]}, "properties": {"cell_id": 11045, "probability": 0.000515, "expected_events": 0.0005, "normal_probability": 5.6e-05, "times_normal": 9.2}}, {"type": "Feature", "geometry": {"type": "Polygon", "coordinates": [[[36.5, 37.75], [36.75, 37.75], [36.75, 38.0], [36.5, 38.0], [36.5, 37.75]]]}, "properties": {"cell_id": 11046, "probability": 0.000339, "expected_events": 0.0003, "normal_probability": 4e-05, "times_normal": 8.6}}, {"type": "Feature", "geometry": {"type": "Polygon", "coordinates": [[[36.75, 37.75], [37.0, 37.75], [37.0, 38.0], [36.75, 38.0], [36.75, 37.75]]]}, "properties": {"cell_id": 11047, "probability": 0.000154, "expected_events": 0.0002, "normal_probability": 3.1e-05, "times_normal": 5.0}}, {"type": "Feature", "geometry": {"type": "Polygon", "coordinates": [[[37.0, 37.75], [37.25, 37.75], [37.25, 38.0], [37.0, 38.0], [37.0, 37.75]]]}, "properties": {"cell_id": 11048, "probability": 0.000345, "expected_events": 0.0003, "normal_probability": 3.5e-05, "times_normal": 9.9}}, {"type": "Feature", "geometry": {"type": "Polygon", "coordinates": [[[37.25, 37.75], [37.5, 37.75], [37.5, 38.0], [37.25, 38.0], [37.25, 37.75]]]}, "properties": {"cell_id": 11049, "probability": 0.000428, "expected_events": 0.0004, "normal_probability": 4.1e-05, "times_normal": 10.5}}, {"type": "Feature", "geometry": {"type": "Polygon", "coordinates": [[[37.5, 37.75], [37.75, 37.75], [37.75, 38.0], [37.5, 38.0], [37.5, 37.75]]]}, "properties": {"cell_id": 11050, "probability": 0.000341, "expected_events": 0.0003, "normal_probability": 4.5e-05, "times_normal": 7.5}}, {"type": "Feature", "geometry": {"type": "Polygon", "coordinates": [[[37.75, 37.75], [38.0, 37.75], [38.0, 38.0], [37.75, 38.0], [37.75, 37.75]]]}, "properties": {"cell_id": 11051, "probability": 0.00016, "expected_events": 0.0002, "normal_probability": 5.4e-05, "times_normal": 3.0}}, {"type": "Feature", "geometry": {"type": "Polygon", "coordinates": [[[32.5, 38.0], [32.75, 38.0], [32.75, 38.25], [32.5, 38.25], [32.5, 38.0]]]}, "properties": {"cell_id": 12030, "probability": 2.8e-05, "expected_events": 0.0, "normal_probability": 1.3e-05, "times_normal": 2.2}}, {"type": "Feature", "geometry": {"type": "Polygon", "coordinates": [[[36.0, 38.0], [36.25, 38.0], [36.25, 38.25], [36.0, 38.25], [36.0, 38.0]]]}, "properties": {"cell_id": 12044, "probability": 6.4e-05, "expected_events": 0.0001, "normal_probability": 1.8e-05, "times_normal": 3.5}}, {"type": "Feature", "geometry": {"type": "Polygon", "coordinates": [[[36.25, 38.0], [36.5, 38.0], [36.5, 38.25], [36.25, 38.25], [36.25, 38.0]]]}, "properties": {"cell_id": 12045, "probability": 0.000403, "expected_events": 0.0004, "normal_probability": 2e-05, "times_normal": 20.1}}, {"type": "Feature", "geometry": {"type": "Polygon", "coordinates": [[[36.5, 38.0], [36.75, 38.0], [36.75, 38.25], [36.5, 38.25], [36.5, 38.0]]]}, "properties": {"cell_id": 12046, "probability": 0.000476, "expected_events": 0.0005, "normal_probability": 1.9e-05, "times_normal": 25.6}}, {"type": "Feature", "geometry": {"type": "Polygon", "coordinates": [[[36.75, 38.0], [37.0, 38.0], [37.0, 38.25], [36.75, 38.25], [36.75, 38.0]]]}, "properties": {"cell_id": 12047, "probability": 0.000326, "expected_events": 0.0003, "normal_probability": 1.8e-05, "times_normal": 18.1}}, {"type": "Feature", "geometry": {"type": "Polygon", "coordinates": [[[37.0, 38.0], [37.25, 38.0], [37.25, 38.25], [37.0, 38.25], [37.0, 38.0]]]}, "properties": {"cell_id": 12048, "probability": 0.000702, "expected_events": 0.0007, "normal_probability": 2.1e-05, "times_normal": 34.1}}, {"type": "Feature", "geometry": {"type": "Polygon", "coordinates": [[[37.25, 38.0], [37.5, 38.0], [37.5, 38.25], [37.25, 38.25], [37.25, 38.0]]]}, "properties": {"cell_id": 12049, "probability": 0.000738, "expected_events": 0.0007, "normal_probability": 2.5e-05, "times_normal": 29.8}}, {"type": "Feature", "geometry": {"type": "Polygon", "coordinates": [[[37.5, 38.0], [37.75, 38.0], [37.75, 38.25], [37.5, 38.25], [37.5, 38.0]]]}, "properties": {"cell_id": 12050, "probability": 0.000417, "expected_events": 0.0004, "normal_probability": 3.1e-05, "times_normal": 13.3}}, {"type": "Feature", "geometry": {"type": "Polygon", "coordinates": [[[37.75, 38.0], [38.0, 38.0], [38.0, 38.25], [37.75, 38.25], [37.75, 38.0]]]}, "properties": {"cell_id": 12051, "probability": 0.000342, "expected_events": 0.0003, "normal_probability": 4.3e-05, "times_normal": 8.0}}, {"type": "Feature", "geometry": {"type": "Polygon", "coordinates": [[[38.0, 38.0], [38.25, 38.0], [38.25, 38.25], [38.0, 38.25], [38.0, 38.0]]]}, "properties": {"cell_id": 12052, "probability": 0.000371, "expected_events": 0.0004, "normal_probability": 6.1e-05, "times_normal": 6.1}}, {"type": "Feature", "geometry": {"type": "Polygon", "coordinates": [[[38.25, 38.0], [38.5, 38.0], [38.5, 38.25], [38.25, 38.25], [38.25, 38.0]]]}, "properties": {"cell_id": 12053, "probability": 0.002369, "expected_events": 0.0024, "normal_probability": 9e-05, "times_normal": 26.2}}, {"type": "Feature", "geometry": {"type": "Polygon", "coordinates": [[[38.5, 38.0], [38.75, 38.0], [38.75, 38.25], [38.5, 38.25], [38.5, 38.0]]]}, "properties": {"cell_id": 12054, "probability": 0.001263, "expected_events": 0.0013, "normal_probability": 0.000133, "times_normal": 9.5}}, {"type": "Feature", "geometry": {"type": "Polygon", "coordinates": [[[40.5, 38.0], [40.75, 38.0], [40.75, 38.25], [40.5, 38.25], [40.5, 38.0]]]}, "properties": {"cell_id": 12062, "probability": 3.3e-05, "expected_events": 0.0, "normal_probability": 1.6e-05, "times_normal": 2.1}}, {"type": "Feature", "geometry": {"type": "Polygon", "coordinates": [[[36.25, 38.25], [36.5, 38.25], [36.5, 38.5], [36.25, 38.5], [36.25, 38.25]]]}, "properties": {"cell_id": 13045, "probability": 3.5e-05, "expected_events": 0.0, "normal_probability": 1.2e-05, "times_normal": 2.9}}, {"type": "Feature", "geometry": {"type": "Polygon", "coordinates": [[[36.5, 38.25], [36.75, 38.25], [36.75, 38.5], [36.5, 38.5], [36.5, 38.25]]]}, "properties": {"cell_id": 13046, "probability": 5e-05, "expected_events": 0.0, "normal_probability": 1.4e-05, "times_normal": 3.5}}, {"type": "Feature", "geometry": {"type": "Polygon", "coordinates": [[[36.75, 38.25], [37.0, 38.25], [37.0, 38.5], [36.75, 38.5], [36.75, 38.25]]]}, "properties": {"cell_id": 13047, "probability": 7.5e-05, "expected_events": 0.0001, "normal_probability": 1.6e-05, "times_normal": 4.6}}, {"type": "Feature", "geometry": {"type": "Polygon", "coordinates": [[[37.0, 38.25], [37.25, 38.25], [37.25, 38.5], [37.0, 38.5], [37.0, 38.25]]]}, "properties": {"cell_id": 13048, "probability": 0.000172, "expected_events": 0.0002, "normal_probability": 1.9e-05, "times_normal": 9.1}}, {"type": "Feature", "geometry": {"type": "Polygon", "coordinates": [[[37.25, 38.25], [37.5, 38.25], [37.5, 38.5], [37.25, 38.5], [37.25, 38.25]]]}, "properties": {"cell_id": 13049, "probability": 0.000194, "expected_events": 0.0002, "normal_probability": 2.1e-05, "times_normal": 9.4}}, {"type": "Feature", "geometry": {"type": "Polygon", "coordinates": [[[37.5, 38.25], [37.75, 38.25], [37.75, 38.5], [37.5, 38.5], [37.5, 38.25]]]}, "properties": {"cell_id": 13050, "probability": 0.000121, "expected_events": 0.0001, "normal_probability": 2.1e-05, "times_normal": 5.8}}, {"type": "Feature", "geometry": {"type": "Polygon", "coordinates": [[[37.75, 38.25], [38.0, 38.25], [38.0, 38.5], [37.75, 38.5], [37.75, 38.25]]]}, "properties": {"cell_id": 13051, "probability": 0.000203, "expected_events": 0.0002, "normal_probability": 2.4e-05, "times_normal": 8.5}}, {"type": "Feature", "geometry": {"type": "Polygon", "coordinates": [[[38.0, 38.25], [38.25, 38.25], [38.25, 38.5], [38.0, 38.5], [38.0, 38.25]]]}, "properties": {"cell_id": 13052, "probability": 0.000289, "expected_events": 0.0003, "normal_probability": 3.5e-05, "times_normal": 8.2}}, {"type": "Feature", "geometry": {"type": "Polygon", "coordinates": [[[38.25, 38.25], [38.5, 38.25], [38.5, 38.5], [38.25, 38.5], [38.25, 38.25]]]}, "properties": {"cell_id": 13053, "probability": 0.000524, "expected_events": 0.0005, "normal_probability": 6.5e-05, "times_normal": 8.1}}, {"type": "Feature", "geometry": {"type": "Polygon", "coordinates": [[[38.5, 38.25], [38.75, 38.25], [38.75, 38.5], [38.5, 38.5], [38.5, 38.25]]]}, "properties": {"cell_id": 13054, "probability": 0.000797, "expected_events": 0.0008, "normal_probability": 0.000126, "times_normal": 6.3}}, {"type": "Feature", "geometry": {"type": "Polygon", "coordinates": [[[36.25, 38.5], [36.5, 38.5], [36.5, 38.75], [36.25, 38.75], [36.25, 38.5]]]}, "properties": {"cell_id": 14045, "probability": 0.000214, "expected_events": 0.0002, "normal_probability": 1.2e-05, "times_normal": 18.0}}, {"type": "Feature", "geometry": {"type": "Polygon", "coordinates": [[[36.5, 38.5], [36.75, 38.5], [36.75, 38.75], [36.5, 38.75], [36.5, 38.5]]]}, "properties": {"cell_id": 14046, "probability": 0.000515, "expected_events": 0.0005, "normal_probability": 1.4e-05, "times_normal": 37.8}}, {"type": "Feature", "geometry": {"type": "Polygon", "coordinates": [[[36.75, 38.5], [37.0, 38.5], [37.0, 38.75], [36.75, 38.75], [36.75, 38.5]]]}, "properties": {"cell_id": 14047, "probability": 3.4e-05, "expected_events": 0.0, "normal_probability": 1.7e-05, "times_normal": 2.0}}, {"type": "Feature", "geometry": {"type": "Polygon", "coordinates": [[[36.25, 38.75], [36.5, 38.75], [36.5, 39.0], [36.25, 39.0], [36.25, 38.75]]]}, "properties": {"cell_id": 15045, "probability": 0.000208, "expected_events": 0.0002, "normal_probability": 1.7e-05, "times_normal": 12.3}}, {"type": "Feature", "geometry": {"type": "Polygon", "coordinates": [[[36.5, 38.75], [36.75, 38.75], [36.75, 39.0], [36.5, 39.0], [36.5, 38.75]]]}, "properties": {"cell_id": 15046, "probability": 0.000523, "expected_events": 0.0005, "normal_probability": 1.4e-05, "times_normal": 37.1}}, {"type": "Feature", "geometry": {"type": "Polygon", "coordinates": [[[37.25, 38.75], [37.5, 38.75], [37.5, 39.0], [37.25, 39.0], [37.25, 38.75]]]}, "properties": {"cell_id": 15049, "probability": 6.6e-05, "expected_events": 0.0001, "normal_probability": 2e-05, "times_normal": 3.3}}, {"type": "Feature", "geometry": {"type": "Polygon", "coordinates": [[[28.0, 39.0], [28.25, 39.0], [28.25, 39.25], [28.0, 39.25], [28.0, 39.0]]]}, "properties": {"cell_id": 16012, "probability": 0.002265, "expected_events": 0.0023, "normal_probability": 0.00026, "times_normal": 8.7}}, {"type": "Feature", "geometry": {"type": "Polygon", "coordinates": [[[28.25, 39.0], [28.5, 39.0], [28.5, 39.25], [28.25, 39.25], [28.25, 39.0]]]}, "properties": {"cell_id": 16013, "probability": 0.001238, "expected_events": 0.0012, "normal_probability": 0.000174, "times_normal": 7.1}}, {"type": "Feature", "geometry": {"type": "Polygon", "coordinates": [[[28.0, 39.25], [28.25, 39.25], [28.25, 39.5], [28.0, 39.5], [28.0, 39.25]]]}, "properties": {"cell_id": 17012, "probability": 0.000863, "expected_events": 0.0009, "normal_probability": 0.000262, "times_normal": 3.3}}, {"type": "Feature", "geometry": {"type": "Polygon", "coordinates": [[[34.0, 39.5], [34.25, 39.5], [34.25, 39.75], [34.0, 39.75], [34.0, 39.5]]]}, "properties": {"cell_id": 18036, "probability": 3.6e-05, "expected_events": 0.0, "normal_probability": 1.5e-05, "times_normal": 2.3}}, {"type": "Feature", "geometry": {"type": "Polygon", "coordinates": [[[30.25, 40.0], [30.5, 40.0], [30.5, 40.25], [30.25, 40.25], [30.25, 40.0]]]}, "properties": {"cell_id": 20021, "probability": 5.4e-05, "expected_events": 0.0001, "normal_probability": 2.3e-05, "times_normal": 2.4}}, {"type": "Feature", "geometry": {"type": "Polygon", "coordinates": [[[35.75, 40.0], [36.0, 40.0], [36.0, 40.25], [35.75, 40.25], [35.75, 40.0]]]}, "properties": {"cell_id": 20043, "probability": 6.8e-05, "expected_events": 0.0001, "normal_probability": 2.7e-05, "times_normal": 2.5}}, {"type": "Feature", "geometry": {"type": "Polygon", "coordinates": [[[36.0, 40.0], [36.25, 40.0], [36.25, 40.25], [36.0, 40.25], [36.0, 40.0]]]}, "properties": {"cell_id": 20044, "probability": 4.8e-05, "expected_events": 0.0, "normal_probability": 2.1e-05, "times_normal": 2.3}}, {"type": "Feature", "geometry": {"type": "Polygon", "coordinates": [[[36.5, 40.5], [36.75, 40.5], [36.75, 40.75], [36.5, 40.75], [36.5, 40.5]]]}, "properties": {"cell_id": 22046, "probability": 0.0001, "expected_events": 0.0001, "normal_probability": 3.9e-05, "times_normal": 2.6}}, {"type": "Feature", "geometry": {"type": "Polygon", "coordinates": [[[36.75, 40.5], [37.0, 40.5], [37.0, 40.75], [36.75, 40.75], [36.75, 40.5]]]}, "properties": {"cell_id": 22047, "probability": 0.000231, "expected_events": 0.0002, "normal_probability": 3.9e-05, "times_normal": 5.9}}, {"type": "Feature", "geometry": {"type": "Polygon", "coordinates": [[[33.5, 40.75], [33.75, 40.75], [33.75, 41.0], [33.5, 41.0], [33.5, 40.75]]]}, "properties": {"cell_id": 23034, "probability": 0.000152, "expected_events": 0.0002, "normal_probability": 4.9e-05, "times_normal": 3.1}}, {"type": "Feature", "geometry": {"type": "Polygon", "coordinates": [[[40.75, 40.75], [41.0, 40.75], [41.0, 41.0], [40.75, 41.0], [40.75, 40.75]]]}, "properties": {"cell_id": 23063, "probability": 1.5e-05, "expected_events": 0.0, "normal_probability": 6e-06, "times_normal": 2.6}}, {"type": "Feature", "geometry": {"type": "Polygon", "coordinates": [[[33.5, 41.0], [33.75, 41.0], [33.75, 41.25], [33.5, 41.25], [33.5, 41.0]]]}, "properties": {"cell_id": 24034, "probability": 0.000373, "expected_events": 0.0004, "normal_probability": 3.4e-05, "times_normal": 10.8}}, {"type": "Feature", "geometry": {"type": "Polygon", "coordinates": [[[33.75, 41.0], [34.0, 41.0], [34.0, 41.25], [33.75, 41.25], [33.75, 41.0]]]}, "properties": {"cell_id": 24035, "probability": 6.6e-05, "expected_events": 0.0001, "normal_probability": 3e-05, "times_normal": 2.2}}, {"type": "Feature", "geometry": {"type": "Polygon", "coordinates": [[[37.25, 41.0], [37.5, 41.0], [37.5, 41.25], [37.25, 41.25], [37.25, 41.0]]]}, "properties": {"cell_id": 24049, "probability": 9e-06, "expected_events": 0.0, "normal_probability": 3e-06, "times_normal": 2.7}}, {"type": "Feature", "geometry": {"type": "Polygon", "coordinates": [[[40.75, 41.0], [41.0, 41.0], [41.0, 41.25], [40.75, 41.25], [40.75, 41.0]]]}, "properties": {"cell_id": 24063, "probability": 1.5e-05, "expected_events": 0.0, "normal_probability": 6e-06, "times_normal": 2.6}}, {"type": "Feature", "geometry": {"type": "Polygon", "coordinates": [[[41.5, 41.0], [41.75, 41.0], [41.75, 41.25], [41.5, 41.25], [41.5, 41.0]]]}, "properties": {"cell_id": 24066, "probability": 7e-06, "expected_events": 0.0, "normal_probability": 3e-06, "times_normal": 2.4}}, {"type": "Feature", "geometry": {"type": "Polygon", "coordinates": [[[28.5, 41.25], [28.75, 41.25], [28.75, 41.5], [28.5, 41.5], [28.5, 41.25]]]}, "properties": {"cell_id": 25014, "probability": 1.2e-05, "expected_events": 0.0, "normal_probability": 6e-06, "times_normal": 2.1}}, {"type": "Feature", "geometry": {"type": "Polygon", "coordinates": [[[28.0, 41.75], [28.25, 41.75], [28.25, 42.0], [28.0, 42.0], [28.0, 41.75]]]}, "properties": {"cell_id": 27012, "probability": 7e-06, "expected_events": 0.0, "normal_probability": 3e-06, "times_normal": 2.4}}, {"type": "Feature", "geometry": {"type": "Polygon", "coordinates": [[[33.75, 41.75], [34.0, 41.75], [34.0, 42.0], [33.75, 42.0], [33.75, 41.75]]]}, "properties": {"cell_id": 27035, "probability": 7e-06, "expected_events": 0.0, "normal_probability": 4e-06, "times_normal": 2.0}}, {"type": "Feature", "geometry": {"type": "Polygon", "coordinates": [[[34.0, 41.75], [34.25, 41.75], [34.25, 42.0], [34.0, 42.0], [34.0, 41.75]]]}, "properties": {"cell_id": 27036, "probability": 7e-06, "expected_events": 0.0, "normal_probability": 3e-06, "times_normal": 2.3}}, {"type": "Feature", "geometry": {"type": "Polygon", "coordinates": [[[34.25, 41.75], [34.5, 41.75], [34.5, 42.0], [34.25, 42.0], [34.25, 41.75]]]}, "properties": {"cell_id": 27037, "probability": 7e-06, "expected_events": 0.0, "normal_probability": 3e-06, "times_normal": 2.3}}, {"type": "Feature", "geometry": {"type": "Polygon", "coordinates": [[[34.75, 41.75], [35.0, 41.75], [35.0, 42.0], [34.75, 42.0], [34.75, 41.75]]]}, "properties": {"cell_id": 27039, "probability": 7e-06, "expected_events": 0.0, "normal_probability": 2e-06, "times_normal": 4.2}}, {"type": "Feature", "geometry": {"type": "Polygon", "coordinates": [[[27.0, 42.0], [27.25, 42.0], [27.25, 42.25], [27.0, 42.25], [27.0, 42.0]]]}, "properties": {"cell_id": 28008, "probability": 7e-06, "expected_events": 0.0, "normal_probability": 3e-06, "times_normal": 2.1}}, {"type": "Feature", "geometry": {"type": "Polygon", "coordinates": [[[33.25, 42.0], [33.5, 42.0], [33.5, 42.25], [33.25, 42.25], [33.25, 42.0]]]}, "properties": {"cell_id": 28033, "probability": 7e-06, "expected_events": 0.0, "normal_probability": 3e-06, "times_normal": 2.3}}, {"type": "Feature", "geometry": {"type": "Polygon", "coordinates": [[[35.0, 42.0], [35.25, 42.0], [35.25, 42.25], [35.0, 42.25], [35.0, 42.0]]]}, "properties": {"cell_id": 28040, "probability": 7e-06, "expected_events": 0.0, "normal_probability": 1e-06, "times_normal": 6.1}}]}